{"type":"FeatureCollection","features":[{"type":"Feature","properties":{"depth":5,"kind":"band"},"geometry":{"type":"MultiPolygon","coordinates":[[[[19.9999,35.2504],[19.9996,35.7501],[19.7496,35.9999],[19.2499,35.9996],[19.0001,35.7496],[19.0004,35.2499],[19.2504,35.0001],[19.7501,35.0004],[20,35.0005],[20,35.0005],[19.9999,35.2504]]]]}},{"type":"Feature","properties":{"depth":10,"kind":"band"},"geometry":{"type":"MultiPolygon","coordinates":[[[[19.9999,35.2504],[19.9996,35.7501],[19.7496,35.9999],[19.2499,35.9996],[19.0001,35.7496],[19.0004,35.2499],[19.2504,35.0001],[19.7501,35.0004],[20,35.0005],[20,35.0005],[19.9999,35.2504]]]]}},{"type":"Feature","properties":{"depth":15,"kind":"band"},"geometry":{"type":"MultiPolygon","coordinates":[[[[19.9999,35.2504],[19.9996,35.7501],[19.7496,35.9999],[19.2499,35.9996],[19.0001,35.7496],[19.0004,35.2499],[19.2504,35.0001],[19.7501,35.0004],[20,35.0005],[20,35.0005],[19.9999,35.2504]]]]}},{"type":"Feature","properties":{"depth":20,"kind":"band"},"geometry":{"type":"MultiPolygon","coordinates":[[[[19.9999,35.2504],[19.9996,35.7501],[19.7496,35.9999],[19.2499,35.9996],[19.0001,35.7496],[19.0004,35.2499],[19.2504,35.0001],[19.7501,35.0004],[20,35.0005],[20,35.0005],[19.9999,35.2504]]]]}},{"type":"Feature","properties":{"depth":25,"kind":"band"},"geometry":{"type":"MultiPolygon","coordinates":[[[[19.9999,35.2504],[19.9996,35.7501],[19.7496,35.9999],[19.2499,35.9996],[19.0001,35.7496],[19.0004,35.2499],[19.2504,35.0001],[19.7501,35.0004],[20,35.0005],[20,35.0005],[19.9999,35.2504]]]]}},{"type":"Feature","properties":{"depth":30,"kind":"band"},"geometry":{"type":"MultiPolygon","coordinates":[[[[19.9999,35.2504],[19.9996,35.7501],[19.7496,35.9999],[19.2499,35.9996],[19.0001,35.7496],[19.0004,35.2499],[19.2504,35.0001],[19.7501,35.0004],[20,35.0005],[20,35.0005],[19.9999,35.2504]]]]}},{"type":"Feature","properties":{"depth":40,"kind":"band"},"geometry":{"type":"MultiPolygon","coordinates":[[[[19.9999,35.2504],[19.9996,35.7501],[19.7496,35.9999],[19.2499,35.9996],[19.0001,35.7496],[19.0004,35.2499],[19.2504,35.0001],[19.7501,35.0004],[20,35.0005],[20,35.0005],[19.9999,35.2504]]]]}},{"type":"Feature","properties":{"depth":50,"kind":"band"},"geometry":{"type":"MultiPolygon","coordinates":[[[[19.9999,35.2504],[19.9996,35.7501],[19.7496,35.9999],[19.2499,35.9996],[19.0001,35.7496],[19.0004,35.2499],[19.2504,35.0001],[19.7501,35.0004],[20,35.0005],[20,35.0005],[19.9999,35.2504]]]]}},{"type":"Feature","properties":{"depth":60,"kind":"band"},"geometry":{"type":"MultiPolygon","coordinates":[[[[19.9999,35.2504],[19.9996,35.7501],[19.7496,35.9999],[19.2499,35.9996],[19.0001,35.7496],[19.0004,35.2499],[19.2504,35.0001],[19.7501,35.0004],[20,35.0005],[20,35.0005],[19.9999,35.2504]]]]}},{"type":"Feature","properties":{"depth":75,"kind":"band"},"geometry":{"type":"MultiPolygon","coordinates":[[[[19.9999,35.2504],[19.9996,35.7501],[19.7496,35.9999],[19.2499,35.9996],[19.0001,35.7496],[19.0004,35.2499],[19.2504,35.0001],[19.7501,35.0004],[20,35.0005],[20,35.0005],[19.9999,35.2504]]]]}},{"type":"Feature","properties":{"depth":100,"kind":"band"},"geometry":{"type":"MultiPolygon","coordinates":[[[[19.9999,35.2504],[19.9996,35.7501],[19.7496,35.9999],[19.2499,35.9996],[19.0001,35.7496],[19.0004,35.2499],[19.2504,35.0001],[19.7501,35.0004],[20,35.0005],[20,35.0005],[19.9999,35.2504]]]]}},{"type":"Feature","properties":{"depth":150,"kind":"band"},"geometry":{"type":"MultiPolygon","coordinates":[[[[19.9999,35.2504],[19.9996,35.7501],[19.7496,35.9999],[19.2499,35.9996],[19.0001,35.7496],[19.0004,35.2499],[19.2504,35.0001],[19.7501,35.0004],[20,35.0005],[20,35.0005],[19.9999,35.2504]]]]}},{"type":"Feature","properties":{"depth":200,"kind":"band"},"geometry":{"type":"MultiPolygon","coordinates":[[[[19.9999,35.2504],[19.9996,35.7501],[19.7496,35.9999],[19.2499,35.9996],[19.0001,35.7496],[19.0004,35.2499],[19.2504,35.0001],[19.7501,35.0004],[20,35.0005],[20,35.0005],[19.9999,35.2504]]]]}},{"type":"Feature","properties":{"depth":300,"kind":"band"},"geometry":{"type":"MultiPolygon","coordinates":[[[[19.9999,35.2504],[19.9996,35.7501],[19.7496,35.9999],[19.2499,35.9996],[19.0001,35.7496],[19.0004,35.2499],[19.2504,35.0001],[19.7501,35.0004],[20,35.0005],[20,35.0005],[19.9999,35.2504]]]]}},{"type":"Feature","properties":{"depth":500,"kind":"band"},"geometry":{"type":"MultiPolygon","coordinates":[[[[19.9999,35.2504],[19.9996,35.7501],[19.7496,35.9999],[19.2499,35.9996],[19.0001,35.7496],[19.0004,35.2499],[19.2504,35.0001],[19.7501,35.0004],[20,35.0005],[20,35.0005],[19.9999,35.2504]]]]}},{"type":"Feature","properties":{"depth":750,"kind":"band"},"geometry":{"type":"MultiPolygon","coordinates":[[[[19.9999,35.2504],[19.9996,35.7501],[19.7496,35.9999],[19.2499,35.9996],[19.0001,35.7496],[19.0004,35.2499],[19.2504,35.0001],[19.7501,35.0004],[20,35.0005],[20,35.0005],[19.9999,35.2504]]]]}},{"type":"Feature","properties":{"depth":1000,"kind":"band"},"geometry":{"type":"MultiPolygon","coordinates":[[[[19.9999,35.2504],[19.9996,35.7501],[19.7496,35.9999],[19.2499,35.9996],[19.0001,35.7496],[19.0004,35.2499],[19.2504,35.0001],[19.7501,35.0004],[20,35.0005],[20,35.0005],[19.9999,35.2504]]]]}},{"type":"Feature","properties":{"depth":1500,"kind":"band"},"geometry":{"type":"MultiPolygon","coordinates":[[[[19.9999,35.2504],[19.9996,35.7501],[19.7496,35.9999],[19.2499,35.9996],[19.0001,35.7496],[19.0004,35.2499],[19.2504,35.0001],[19.7501,35.0004],[20,35.0005],[20,35.0005],[19.9999,35.2504]]]]}},{"type":"Feature","properties":{"depth":2000,"kind":"band"},"geometry":{"type":"MultiPolygon","coordinates":[[[[19.9999,35.2504],[19.9996,35.7501],[19.7496,35.9999],[19.2499,35.9996],[19.0001,35.7496],[19.0004,35.2499],[19.2504,35.0001],[19.7501,35.0004],[20,35.0005],[20,35.0005],[19.9999,35.2504]]]]}},{"type":"Feature","properties":{"depth":3000,"kind":"band"},"geometry":{"type":"MultiPolygon","coordinates":[[[[19.9978,35.3435],[19.9993,35.3461],[19.9981,35.3497],[19.9942,35.3543],[19.991,35.3561],[19.9886,35.3552],[19.988,35.3531],[19.9891,35.35],[19.9882,35.3481],[19.9855,35.3477],[19.9874,35.3461],[19.9938,35.3435],[19.9971,35.3422],[19.9971,35.3422],[19.9978,35.3435]]],[[[19.9968,35.283],[19.9989,35.292],[19.9983,35.2954],[19.9948,35.2933],[19.9937,35.2888],[19.995,35.282],[19.9957,35.2786],[19.9957,35.2786],[19.9968,35.283]]],[[[19.9747,35.2727],[19.971,35.2753],[19.971,35.2753],[19.9747,35.2727],[19.9766,35.2714],[19.9766,35.2714],[19.9747,35.2727]]],[[[19.9978,35.2472],[19.9961,35.253],[19.9961,35.253],[19.9978,35.2472],[19.9986,35.2443],[19.9986,35.2443],[19.9978,35.2472]]],[[[19.8782,35.2386],[19.8792,35.2439],[19.8778,35.2455],[19.8739,35.2433],[19.8734,35.2406],[19.8763,35.2375],[19.8777,35.2359],[19.8777,35.2359],[19.8782,35.2386]]],[[[19.9672,35.2362],[19.9692,35.2388],[19.9668,35.243],[19.96,35.2487],[19.9556,35.2551],[19.9536,35.2621],[19.9511,35.2643],[19.948,35.2618],[19.9412,35.2641],[19.9307,35.271],[19.9268,35.2715],[19.9294,35.2656],[19.9333,35.2621],[19.9385,35.2609],[19.94,35.2576],[19.9377,35.2522],[19.9395,35.2489],[19.9455,35.2477],[19.9489,35.2489],[19.95,35.2524],[19.9516,35.2499],[19.9537,35.2416],[19.9576,35.2368],[19.9633,35.2355],[19.9662,35.2349],[19.9662,35.2349],[19.9672,35.2362]]],[[[19.9803,35.234],[19.9806,35.2383],[19.9796,35.2394],[19.9775,35.237],[19.9774,35.2349],[19.9793,35.2328],[19.9802,35.2318],[19.9802,35.2318],[19.9803,35.234]]],[[[19.8954,35.2228],[19.8939,35.2255],[19.8939,35.2255],[19.8954,35.2228],[19.8961,35.2214],[19.8961,35.2214],[19.8954,35.2228]]],[[[19.9823,35.2023],[19.985,35.206],[19.9833,35.2086],[19.9771,35.2101],[19.9757,35.2083],[19.9792,35.2031],[19.9809,35.2005],[19.9809,35.2005],[19.9823,35.2023]],[[19.9823,35.2043],[19.9834,35.2061],[19.9834,35.2061],[19.9823,35.2043],[19.9818,35.2033],[19.9818,35.2033],[19.9823,35.2043]]],[[[19.9055,35.1959],[19.9047,35.1989],[19.9047,35.1989],[19.9055,35.1959],[19.9059,35.1943],[19.9059,35.1943],[19.9055,35.1959]]],[[[19.9455,35.1926],[19.9544,35.1933],[19.9594,35.197],[19.9604,35.2036],[19.9624,35.2056],[19.9655,35.2029],[19.9643,35.2042],[19.9589,35.2094],[19.9577,35.2144],[19.9605,35.2193],[19.9638,35.2211],[19.9673,35.2199],[19.9692,35.2216],[19.9693,35.2263],[19.9664,35.2296],[19.9607,35.2314],[19.9557,35.2308],[19.9516,35.2278],[19.9466,35.2285],[19.9409,35.2332],[19.9358,35.2343],[19.9315,35.2319],[19.9297,35.2331],[19.9304,35.2378],[19.9287,35.2412],[19.9247,35.2433],[19.9206,35.2495],[19.9163,35.2599],[19.912,35.2648],[19.9076,35.2644],[19.905,35.2623],[19.9041,35.2587],[19.9008,35.2581],[19.895,35.2605],[19.893,35.2592],[19.8945,35.2541],[19.8966,35.2526],[19.8992,35.2547],[19.9013,35.2543],[19.9028,35.2514],[19.9039,35.2479],[19.9044,35.2436],[19.9029,35.2433],[19.8992,35.247],[19.8966,35.2462],[19.8951,35.2407],[19.8967,35.2339],[19.9015,35.2256],[19.9007,35.2191],[19.8941,35.2144],[19.8904,35.2081],[19.8893,35.2003],[19.8935,35.1981],[19.9031,35.2015],[19.9083,35.207],[19.9094,35.2145],[19.9119,35.2154],[19.9158,35.2097],[19.9158,35.206],[19.9121,35.2044],[19.9108,35.2021],[19.9121,35.199],[19.9133,35.1988],[19.9145,35.2015],[19.918,35.2023],[19.9237,35.2012],[19.9284,35.1989],[19.9321,35.1952],[19.9336,35.195],[19.9331,35.198],[19.9349,35.1978],[19.9389,35.1941],[19.941,35.1922],[19.941,35.1922],[19.9455,35.1926]],[[19.957,35.2156],[19.9555,35.2178],[19.9555,35.2178],[19.957,35.2156],[19.9578,35.2146],[19.9578,35.2146],[19.957,35.2156]],[[19.9495,35.2139],[19.9474,35.218],[19.9474,35.218],[19.9495,35.2139],[19.9505,35.2119],[19.9505,35.2119],[19.9495,35.2139]],[[19.9345,35.2109],[19.9339,35.2131],[19.9339,35.2131],[19.9345,35.2109],[19.9349,35.2099],[19.9349,35.2099],[19.9345,35.2109]],[[19.9052,35.2094],[19.9043,35.2111],[19.9043,35.2111],[19.9052,35.2094],[19.9057,35.2085],[19.9057,35.2085],[19.9052,35.2094]],[[19.9438,35.2094],[19.9408,35.2125],[19.9403,35.215],[19.9422,35.2167],[19.9437,35.2151],[19.9448,35.2103],[19.9453,35.2078],[19.9453,35.2078],[19.9438,35.2094]],[[19.9393,35.2096],[19.9378,35.2143],[19.9378,35.2143],[19.9393,35.2096],[19.9401,35.2073],[19.9401,35.2073],[19.9393,35.2096]],[[19.9229,35.2055],[19.9219,35.2078],[19.9219,35.2078],[19.9229,35.2055],[19.9234,35.2044],[19.9234,35.2044],[19.9229,35.2055]]],[[[19.9986,35.1834],[19.9957,35.1889],[19.9957,35.1889],[19.9986,35.1834],[20,35.1807],[20,35.1807],[19.9986,35.1834]]],[[[19.9544,35.174],[19.9581,35.1815],[19.9575,35.1849],[19.9526,35.1842],[19.9508,35.1805],[19.9519,35.1737],[19.9525,35.1703],[19.9525,35.1703],[19.9544,35.174]]],[[[19.8982,35.1682],[19.897,35.1744],[19.8955,35.1752],[19.8936,35.1705],[19.8942,35.1674],[19.8973,35.1659],[19.8988,35.1651],[19.8988,35.1651],[19.8982,35.1682]]],[[[19.9919,35.1622],[19.9973,35.1648],[19.997,35.1676],[19.991,35.1707],[19.9883,35.1694],[19.9889,35.1637],[19.9892,35.1609],[19.9892,35.1609],[19.9919,35.1622]]],[[[19.9275,35.1484],[19.9213,35.1568],[19.9195,35.161],[19.9221,35.161],[19.9235,35.1647],[19.9236,35.1719],[19.9215,35.1766],[19.9172,35.1787],[19.9141,35.1783],[19.912,35.1753],[19.9094,35.1758],[19.9063,35.18],[19.904,35.1796],[19.9025,35.1748],[19.9043,35.1703],[19.9093,35.1662],[19.9123,35.1605],[19.9132,35.1532],[19.9179,35.1482],[19.9264,35.1456],[19.9306,35.1443],[19.9306,35.1443],[19.9275,35.1484]]],[[[19.9909,35.1456],[19.9924,35.1482],[19.9917,35.1498],[19.9886,35.1503],[19.9878,35.149],[19.9893,35.1459],[19.9901,35.1443],[19.9901,35.1443],[19.9909,35.1456]]],[[[19.9434,35.1364],[19.9445,35.1479],[19.942,35.1567],[19.9359,35.163],[19.933,35.1601],[19.9335,35.1482],[19.936,35.1393],[19.9405,35.1336],[19.9428,35.1307],[19.9428,35.1307],[19.9434,35.1364]]],[[[19.9652,35.135],[19.9665,35.1437],[19.9653,35.1442],[19.9614,35.1366],[19.9607,35.1323],[19.9633,35.1312],[19.9645,35.1307],[19.9645,35.1307],[19.9652,35.135]]],[[[19.9188,35.129],[19.9157,35.1337],[19.913,35.1355],[19.911,35.1345],[19.9125,35.1321],[19.9177,35.1284],[19.9203,35.1266],[19.9203,35.1266],[19.9188,35.129]]],[[[19.8897,35.1207],[19.8928,35.1276],[19.8916,35.1295],[19.8862,35.1261],[19.8847,35.1227],[19.887,35.119],[19.8882,35.1172],[19.8882,35.1172],[19.8897,35.1207]]],[[[19.9324,35.1182],[19.9285,35.1263],[19.9264,35.1276],[19.9261,35.1221],[19.928,35.118],[19.9322,35.1154],[19.9343,35.1141],[19.9343,35.1141],[19.9324,35.1182]]],[[[19.9177,35.111],[19.9167,35.1132],[19.9167,35.1132],[19.9177,35.111],[19.9183,35.1099],[19.9183,35.1099],[19.9177,35.111]]],[[[19.9533,35.1132],[19.9522,35.1218],[19.9481,35.1252],[19.9412,35.1233],[19.9418,35.119],[19.9498,35.1123],[19.9539,35.1089],[19.9539,35.1089],[19.9533,35.1132]]],[[[20,35.1123],[20,35.1274],[19.9981,35.1341],[19.9942,35.1325],[19.9912,35.1336],[19.9891,35.1373],[19.9852,35.1392],[19.9795,35.1394],[19.976,35.1358],[19.9749,35.1282],[19.9777,35.1201],[19.9846,35.1111],[19.9893,35.1077],[19.9919,35.1098],[19.9949,35.1093],[19.9983,35.1062],[20,35.1047],[20,35.1047],[20,35.1123]]],[[[19.9952,35.0984],[19.9939,35.1003],[19.9939,35.1003],[19.9952,35.0984],[19.9958,35.0974],[19.9958,35.0974],[19.9952,35.0984]]],[[[19.917,35.1003],[19.9139,35.1081],[19.9099,35.113],[19.905,35.1151],[19.9065,35.1112],[19.9145,35.1013],[19.9185,35.0964],[19.9185,35.0964],[19.917,35.1003]]],[[[19.9913,35.0969],[19.9891,35.102],[19.9891,35.102],[19.9913,35.0969],[19.9924,35.0943],[19.9924,35.0943],[19.9913,35.0969]]],[[[19.9052,35.0756],[19.9041,35.0778],[19.9041,35.0778],[19.9052,35.0756],[19.9057,35.0745],[19.9057,35.0745],[19.9052,35.0756]]],[[[19.9979,35.0727],[19.9962,35.0794],[19.9934,35.0805],[19.9895,35.0758],[19.9904,35.0724],[19.9959,35.0703],[19.9987,35.0693],[19.9987,35.0693],[19.9979,35.0727]]],[[[19.9211,35.0674],[19.916,35.0701],[19.916,35.0701],[19.9211,35.0674],[19.9236,35.0661],[19.9236,35.0661],[19.9211,35.0674]]],[[[19.9869,35.0622],[19.9842,35.0666],[19.9842,35.0666],[19.9869,35.0622],[19.9883,35.0599],[19.9883,35.0599],[19.9869,35.0622]]],[[[19.9486,35.0581],[19.9471,35.0606],[19.9471,35.0606],[19.9486,35.0581],[19.9493,35.0568],[19.9493,35.0568],[19.9486,35.0581]]],[[[19.8472,35.0545],[19.8439,35.0603],[19.8421,35.0611],[19.8418,35.0568],[19.8435,35.0539],[19.8471,35.0524],[19.8489,35.0516],[19.8489,35.0516],[19.8472,35.0545]]],[[[19.9149,35.0507],[19.9136,35.053],[19.9136,35.053],[19.9149,35.0507],[19.9155,35.0495],[19.9155,35.0495],[19.9149,35.0507]]],[[[19.9781,35.0495],[19.9771,35.0517],[19.9771,35.0517],[19.9781,35.0495],[19.9786,35.0484],[19.9786,35.0484],[19.9781,35.0495]]],[[[19.8594,35.0494],[19.8583,35.0534],[19.8568,35.0542],[19.8549,35.0517],[19.8554,35.0497],[19.8584,35.0482],[19.8599,35.0474],[19.8599,35.0474],[19.8594,35.0494]]],[[[19.8958,35.0294],[19.8916,35.0414],[19.8936,35.0488],[19.9017,35.0515],[19.9067,35.0518],[19.9088,35.0495],[19.9089,35.0505],[19.9069,35.0547],[19.9079,35.0591],[19.9118,35.0638],[19.9128,35.0672],[19.9109,35.0694],[19.9087,35.0689],[19.9063,35.0657],[19.904,35.0673],[19.9017,35.0736],[19.901,35.0755],[19.9019,35.0728],[19.9006,35.0714],[19.8971,35.0715],[19.8945,35.0691],[19.8928,35.0644],[19.8933,35.0597],[19.8958,35.055],[19.894,35.0521],[19.8881,35.051],[19.8868,35.0526],[19.8901,35.0568],[19.8903,35.0618],[19.8873,35.0675],[19.8864,35.0747],[19.8875,35.0836],[19.8859,35.091],[19.8818,35.0969],[19.8785,35.0984],[19.8762,35.0957],[19.8758,35.0891],[19.8775,35.0786],[19.8761,35.0726],[19.8716,35.0711],[19.8693,35.0685],[19.8693,35.0648],[19.8764,35.0531],[19.8908,35.0333],[19.8979,35.0234],[19.8979,35.0234],[19.8958,35.0294]],[[19.9031,35.0594],[19.9021,35.0633],[19.9021,35.0633],[19.9031,35.0594],[19.9036,35.0575],[19.9036,35.0575],[19.9031,35.0594]]],[[[19.8584,35.0192],[19.8539,35.0293],[19.8511,35.0327],[19.8501,35.0293],[19.8524,35.0242],[19.8579,35.0175],[19.8607,35.0141],[19.8607,35.0141],[19.8584,35.0192]]],[[[19.8764,35.0122],[19.8752,35.0168],[19.8752,35.0168],[19.8764,35.0122],[19.8771,35.0099],[19.8771,35.0099],[19.8764,35.0122]]],[[[19.9974,35.0099],[19.9974,35.012],[19.9974,35.012],[19.9974,35.0099],[19.9974,35.0089],[19.9974,35.0089],[19.9974,35.0099]]],[[[19.8252,35.0086],[19.8229,35.0101],[19.8229,35.0101],[19.8252,35.0086],[19.8264,35.0078],[19.8264,35.0078],[19.8252,35.0086]]],[[[19.8182,35.0066],[19.8161,35.0187],[19.8182,35.0238],[19.8245,35.0219],[19.8293,35.0221],[19.8329,35.0244],[19.833,35.0318],[19.8298,35.0443],[19.8299,35.0489],[19.8332,35.0456],[19.8357,35.0459],[19.8372,35.0497],[19.8404,35.0485],[19.8451,35.0422],[19.8494,35.0394],[19.8534,35.0399],[19.8487,35.0445],[19.8352,35.0534],[19.8309,35.0581],[19.8356,35.0586],[19.8371,35.061],[19.8352,35.0651],[19.8359,35.0669],[19.8394,35.0662],[19.8429,35.0685],[19.8466,35.074],[19.8508,35.0751],[19.8555,35.0719],[19.8587,35.0727],[19.8605,35.0774],[19.8595,35.0818],[19.8556,35.0861],[19.8583,35.0883],[19.8677,35.0886],[19.8706,35.0916],[19.8669,35.0973],[19.8693,35.1011],[19.8776,35.1028],[19.8787,35.1081],[19.8724,35.117],[19.8668,35.1217],[19.8617,35.1222],[19.8632,35.1263],[19.8711,35.1341],[19.8752,35.1405],[19.8754,35.1456],[19.8773,35.1479],[19.8808,35.1476],[19.8815,35.1448],[19.8794,35.1396],[19.8799,35.1367],[19.8829,35.1362],[19.8842,35.139],[19.8836,35.1453],[19.885,35.1502],[19.8883,35.1539],[19.8867,35.157],[19.88,35.1596],[19.8808,35.1599],[19.8891,35.1579],[19.8937,35.1579],[19.8946,35.1599],[19.8925,35.1643],[19.8875,35.1711],[19.8864,35.1758],[19.8892,35.1784],[19.8889,35.1852],[19.8856,35.1962],[19.879,35.206],[19.8691,35.2146],[19.8609,35.2185],[19.8543,35.2176],[19.8535,35.2194],[19.8585,35.2237],[19.8588,35.2281],[19.8545,35.2326],[19.8545,35.2367],[19.8587,35.2404],[19.8581,35.2438],[19.8527,35.2468],[19.853,35.2505],[19.859,35.2547],[19.8638,35.2563],[19.8675,35.2553],[19.8709,35.2579],[19.8739,35.2641],[19.8742,35.2688],[19.8716,35.2721],[19.8651,35.273],[19.8547,35.2715],[19.8489,35.2762],[19.8479,35.2869],[19.8461,35.2922],[19.8437,35.2922],[19.8434,35.2909],[19.8451,35.2883],[19.8445,35.2851],[19.8415,35.2813],[19.838,35.2806],[19.8339,35.2829],[19.8313,35.2853],[19.8302,35.2877],[19.8322,35.2916],[19.8371,35.2969],[19.8385,35.3021],[19.8365,35.3073],[19.8382,35.311],[19.8437,35.3132],[19.8469,35.3111],[19.8479,35.3047],[19.8489,35.3042],[19.85,35.3095],[19.8557,35.3118],[19.8662,35.311],[19.8744,35.3076],[19.8805,35.3015],[19.8834,35.2966],[19.8831,35.2929],[19.8918,35.2856],[19.9094,35.2745],[19.9154,35.2728],[19.9097,35.2805],[19.913,35.2827],[19.9256,35.2792],[19.934,35.2801],[19.9383,35.2854],[19.9349,35.2922],[19.9239,35.3005],[19.92,35.3057],[19.9233,35.3079],[19.9235,35.3111],[19.9207,35.3156],[19.923,35.3143],[19.9303,35.3073],[19.9329,35.3066],[19.9308,35.3123],[19.9326,35.313],[19.9383,35.3089],[19.9381,35.3117],[19.9317,35.3215],[19.9299,35.3252],[19.9326,35.3229],[19.9349,35.323],[19.937,35.3256],[19.9405,35.3234],[19.9454,35.3165],[19.9487,35.3089],[19.9504,35.3006],[19.9487,35.2964],[19.9436,35.2964],[19.9437,35.294],[19.949,35.2891],[19.9524,35.2901],[19.9539,35.2968],[19.966,35.3002],[19.9887,35.3004],[19.9996,35.3049],[19.9988,35.3137],[19.9941,35.3176],[19.9854,35.3166],[19.9833,35.3132],[19.9878,35.3074],[19.9878,35.3044],[19.9831,35.3041],[19.9816,35.3052],[19.9836,35.3077],[19.9833,35.3098],[19.9809,35.3115],[19.9748,35.3116],[19.9648,35.31],[19.9594,35.308],[19.9583,35.3053],[19.9558,35.306],[19.9519,35.31],[19.9501,35.3141],[19.9504,35.3182],[19.9532,35.3214],[19.9585,35.3235],[19.9617,35.3279],[19.9628,35.3346],[19.965,35.3382],[19.9686,35.3387],[19.9698,35.3408],[19.9687,35.3445],[19.9713,35.3455],[19.9776,35.3438],[19.9799,35.3453],[19.9784,35.35],[19.9793,35.3506],[19.9826,35.347],[19.9833,35.3479],[19.9816,35.353],[19.9789,35.3552],[19.9752,35.3545],[19.9739,35.3524],[19.975,35.3491],[19.9737,35.3489],[19.97,35.3518],[19.969,35.3515],[19.9706,35.3482],[19.9693,35.348],[19.9651,35.3511],[19.9628,35.3507],[19.9622,35.3468],[19.9617,35.3478],[19.9612,35.3538],[19.9633,35.3563],[19.9682,35.3552],[19.9685,35.3574],[19.9642,35.3627],[19.9662,35.3625],[19.9745,35.3567],[19.9786,35.3554],[19.9786,35.3587],[19.9807,35.359],[19.9849,35.3565],[19.9854,35.3584],[19.9823,35.3649],[19.984,35.3684],[19.9905,35.369],[19.9915,35.3724],[19.987,35.3787],[19.9865,35.3836],[19.9901,35.3873],[19.9899,35.3909],[19.9859,35.3946],[19.9856,35.3964],[19.9889,35.3964],[19.99,35.3981],[19.9887,35.4015],[19.9895,35.4033],[19.9924,35.4035],[19.9937,35.4021],[19.9934,35.399],[19.994,35.3994],[19.9956,35.4032],[19.9973,35.4039],[19.9991,35.4017],[20,35.5503],[20,35.8498],[19.7501,35.9996],[19.2504,35.9999],[19.0004,35.7501],[19.0001,35.2504],[19.2048,35.0005],[19.6144,35.0005],[19.8192,35.0005],[19.8192,35.0005],[19.8182,35.0066]],[[19.9829,35.6639],[19.9808,35.6655],[19.9808,35.6655],[19.9829,35.6639],[19.9839,35.6631],[19.9839,35.6631],[19.9829,35.6639]],[[19.9706,35.659],[19.969,35.6603],[19.969,35.6603],[19.9706,35.659],[19.9714,35.6583],[19.9714,35.6583],[19.9706,35.659]],[[19.9697,35.6502],[19.9727,35.6525],[19.9727,35.6525],[19.9697,35.6502],[19.9682,35.6491],[19.9682,35.6491],[19.9697,35.6502]],[[19.9628,35.6491],[19.9622,35.651],[19.9622,35.651],[19.9628,35.6491],[19.963,35.6481],[19.963,35.6481],[19.9628,35.6491]],[[19.9813,35.6495],[19.9782,35.6542],[19.9782,35.6542],[19.9813,35.6495],[19.9828,35.6471],[19.9828,35.6471],[19.9813,35.6495]],[[19.994,35.6478],[19.9914,35.6505],[19.9916,35.6518],[19.9946,35.6517],[19.9959,35.6503],[19.9955,35.6477],[19.9953,35.6464],[19.9953,35.6464],[19.994,35.6478]],[[19.8531,35.619],[19.8477,35.6206],[19.8457,35.6223],[19.8468,35.624],[19.8495,35.6232],[19.8536,35.6199],[19.8557,35.6182],[19.8557,35.6182],[19.8531,35.619]],[[19.8444,35.6126],[19.8427,35.6143],[19.8427,35.6143],[19.8444,35.6126],[19.8453,35.6117],[19.8453,35.6117],[19.8444,35.6126]],[[19.8643,35.6124],[19.8607,35.6185],[19.8614,35.6201],[19.8664,35.6175],[19.8682,35.6144],[19.8668,35.6111],[19.8661,35.6094],[19.8661,35.6094],[19.8643,35.6124]],[[19.8604,35.6064],[19.8594,35.6082],[19.8594,35.6082],[19.8604,35.6064],[19.8609,35.6055],[19.8609,35.6055],[19.8604,35.6064]],[[19.9799,35.3762],[19.9718,35.382],[19.9708,35.3843],[19.9767,35.3832],[19.9808,35.3803],[19.9829,35.3756],[19.9839,35.3733],[19.9839,35.3733],[19.9799,35.3762]],[[19.9707,35.371],[19.9674,35.3726],[19.9656,35.3756],[19.9652,35.3802],[19.9669,35.3794],[19.9706,35.3733],[19.9724,35.3702],[19.9724,35.3702],[19.9707,35.371]],[[19.9399,35.3584],[19.9354,35.3643],[19.9341,35.3682],[19.936,35.3701],[19.9386,35.3701],[19.9418,35.3682],[19.9431,35.3643],[19.9425,35.3584],[19.9422,35.3554],[19.9422,35.3554],[19.9399,35.3584]],[[19.9033,35.3376],[19.8985,35.3435],[19.8993,35.3487],[19.9059,35.3534],[19.9079,35.3583],[19.9054,35.3635],[19.9055,35.3663],[19.9085,35.3666],[19.9097,35.3651],[19.9092,35.3616],[19.9119,35.3586],[19.9175,35.356],[19.9167,35.3497],[19.9094,35.3397],[19.9057,35.3347],[19.9057,35.3347],[19.9033,35.3376]],[[19.8724,35.3347],[19.8724,35.3385],[19.8724,35.3385],[19.8724,35.3347],[19.8724,35.3328],[19.8724,35.3328],[19.8724,35.3347]],[[19.9195,35.3326],[19.918,35.3356],[19.9186,35.3368],[19.9213,35.3362],[19.9221,35.3347],[19.9209,35.3323],[19.9203,35.3311],[19.9203,35.3311],[19.9195,35.3326]],[[19.9151,35.3255],[19.913,35.3297],[19.9138,35.331],[19.9173,35.3294],[19.9183,35.3273],[19.9168,35.3247],[19.9161,35.3234],[19.9161,35.3234],[19.9151,35.3255]],[[19.9217,35.3255],[19.9202,35.3283],[19.9212,35.3299],[19.9248,35.3302],[19.9256,35.3288],[19.9235,35.3257],[19.9224,35.3241],[19.9224,35.3241],[19.9217,35.3255]],[[19.9042,35.3151],[19.9011,35.3172],[19.8998,35.3202],[19.9003,35.3241],[19.9018,35.3231],[19.9044,35.3171],[19.9057,35.3141],[19.9057,35.3141],[19.9042,35.3151]],[[19.8778,35.3109],[19.872,35.3186],[19.871,35.3215],[19.8747,35.3196],[19.8756,35.3222],[19.8734,35.3293],[19.8745,35.3319],[19.8786,35.33],[19.8833,35.332],[19.8885,35.3378],[19.8932,35.3354],[19.8973,35.3247],[19.8971,35.3196],[19.8924,35.3201],[19.8899,35.3175],[19.8898,35.3118],[19.8875,35.3085],[19.883,35.3076],[19.8807,35.3071],[19.8807,35.3071],[19.8778,35.3109]],[[19.8271,35.3022],[19.826,35.3046],[19.826,35.3046],[19.8271,35.3022],[19.8276,35.3009],[19.8276,35.3009],[19.8271,35.3022]],[[19.8909,35.2998],[19.8904,35.3065],[19.8915,35.3105],[19.894,35.3116],[19.8967,35.3101],[19.8994,35.3058],[19.8984,35.3018],[19.8935,35.2982],[19.8911,35.2964],[19.8911,35.2964],[19.8909,35.2998]],[[19.8232,35.2967],[19.8206,35.3004],[19.8206,35.3004],[19.8232,35.2967],[19.8245,35.2949],[19.8245,35.2949],[19.8232,35.2967]],[[19.9125,35.2962],[19.9094,35.3007],[19.9105,35.3023],[19.9158,35.3011],[19.9173,35.2989],[19.9152,35.2956],[19.9141,35.294],[19.9141,35.294],[19.9125,35.2962]],[[19.9244,35.2869],[19.9222,35.2884],[19.9222,35.2884],[19.9244,35.2869],[19.9255,35.2862],[19.9255,35.2862],[19.9244,35.2869]],[[19.8276,35.2844],[19.8235,35.2883],[19.8235,35.2883],[19.8276,35.2844],[19.8297,35.2824],[19.8297,35.2824],[19.8276,35.2844]],[[19.8344,35.2806],[19.8333,35.2825],[19.8333,35.2825],[19.8344,35.2806],[19.8349,35.2796],[19.8349,35.2796],[19.8344,35.2806]],[[19.8445,35.1932],[19.843,35.1953],[19.843,35.1953],[19.8445,35.1932],[19.8453,35.1921],[19.8453,35.1921],[19.8445,35.1932]],[[19.8589,35.1914],[19.855,35.1926],[19.8524,35.1958],[19.8513,35.201],[19.8544,35.2031],[19.8618,35.2021],[19.8644,35.1989],[19.8621,35.1935],[19.8609,35.1908],[19.8609,35.1908],[19.8589,35.1914]],[[19.8732,35.1908],[19.8706,35.2012],[19.8716,35.2039],[19.8761,35.1989],[19.8774,35.1937],[19.8755,35.1883],[19.8745,35.1856],[19.8745,35.1856],[19.8732,35.1908]],[[19.8844,35.1792],[19.8833,35.1819],[19.8833,35.1819],[19.8844,35.1792],[19.8849,35.1778],[19.8849,35.1778],[19.8844,35.1792]],[[19.8836,35.1711],[19.881,35.1734],[19.881,35.1734],[19.8836,35.1711],[19.8849,35.1699],[19.8849,35.1699],[19.8836,35.1711]],[[19.8769,35.1676],[19.8735,35.1688],[19.8725,35.1708],[19.8738,35.1737],[19.8755,35.1731],[19.8776,35.1691],[19.8786,35.1671],[19.8786,35.1671],[19.8769,35.1676]],[[19.8534,35.1664],[19.8489,35.1669],[19.8475,35.1693],[19.8492,35.1734],[19.8489,35.1759],[19.8465,35.1767],[19.8451,35.1755],[19.8445,35.1724],[19.843,35.1738],[19.8405,35.1798],[19.8405,35.1838],[19.843,35.1856],[19.8453,35.184],[19.8474,35.1788],[19.8513,35.1753],[19.857,35.1736],[19.8602,35.1743],[19.8607,35.1774],[19.8624,35.1784],[19.8655,35.1772],[19.8655,35.1795],[19.8624,35.1852],[19.8621,35.1884],[19.8648,35.1891],[19.8677,35.1855],[19.871,35.1774],[19.8684,35.1716],[19.8599,35.1679],[19.8557,35.1661],[19.8557,35.1661],[19.8534,35.1664]],[[19.8425,35.0938],[19.843,35.0959],[19.843,35.0959],[19.8425,35.0938],[19.8422,35.0927],[19.8422,35.0927],[19.8425,35.0938]],[[19.8195,35.0422],[19.8158,35.0429],[19.8137,35.0455],[19.8132,35.05],[19.8151,35.0497],[19.8193,35.0444],[19.8214,35.0418],[19.8214,35.0418],[19.8195,35.0422]],[[19.8204,35.0346],[19.8183,35.0376],[19.8183,35.0376],[19.8204,35.0346],[19.8214,35.0331],[19.8214,35.0331],[19.8204,35.0346]],[[19.8034,35.0186],[19.8049,35.0223],[19.8065,35.0226],[19.8082,35.0197],[19.8074,35.0178],[19.8042,35.0171],[19.8026,35.0167],[19.8026,35.0167],[19.8034,35.0186]],[[19.8031,35.0074],[19.8021,35.0093],[19.8021,35.0093],[19.8031,35.0074],[19.8036,35.0064],[19.8036,35.0064],[19.8031,35.0074]],[[19.8121,35.0062],[19.8081,35.0093],[19.8081,35.0093],[19.8121,35.0062],[19.8141,35.0046],[19.8141,35.0046],[19.8121,35.0062]],[[19.8073,35.0039],[19.8062,35.0057],[19.8062,35.0057],[19.8073,35.0039],[19.8078,35.003],[19.8078,35.003],[19.8073,35.0039]]],[[[19.8283,35.0023],[19.8258,35.0059],[19.8258,35.0059],[19.8283,35.0023],[19.8296,35.0005],[19.8296,35.0005],[19.8283,35.0023]]],[[[19.8756,35.0031],[19.8728,35.0083],[19.8701,35.0114],[19.8674,35.0124],[19.8664,35.0115],[19.8669,35.0086],[19.8657,35.0089],[19.8626,35.0124],[19.8617,35.011],[19.863,35.0047],[19.867,35.0013],[19.8737,35.0008],[19.877,35.0005],[19.877,35.0005],[19.8756,35.0031]]],[[[19.9009,35.0005],[19.8988,35.0005],[19.8988,35.0005],[19.9009,35.0005],[19.9019,35.0005],[19.9019,35.0005],[19.9009,35.0005]]],[[[19.9916,35.0016],[19.9897,35.0037],[19.9897,35.0084],[19.9915,35.0157],[19.9943,35.0196],[19.9981,35.0201],[19.9999,35.0264],[19.9996,35.0387],[19.9992,35.0436],[19.9986,35.0413],[19.9956,35.0406],[19.9903,35.0417],[19.9885,35.0374],[19.9902,35.0277],[19.9883,35.0238],[19.9826,35.0257],[19.9776,35.0241],[19.9735,35.019],[19.9678,35.0173],[19.9605,35.019],[19.9562,35.022],[19.9549,35.0264],[19.9572,35.0314],[19.9632,35.0371],[19.967,35.0371],[19.9687,35.0314],[19.9705,35.0341],[19.9724,35.045],[19.9726,35.0484],[19.9711,35.0445],[19.968,35.0452],[19.9633,35.0505],[19.9575,35.0524],[19.9508,35.051],[19.9469,35.0525],[19.9458,35.0569],[19.9437,35.0575],[19.9407,35.054],[19.9365,35.0562],[19.9312,35.0639],[19.9275,35.0671],[19.9253,35.0658],[19.9256,35.0649],[19.9282,35.0644],[19.9284,35.0581],[19.9261,35.0461],[19.9225,35.0419],[19.9175,35.0454],[19.9107,35.0472],[19.9019,35.0473],[19.8999,35.0419],[19.9047,35.031],[19.9083,35.0267],[19.9108,35.0291],[19.9131,35.0286],[19.9152,35.0251],[19.916,35.0213],[19.9154,35.0172],[19.9131,35.0143],[19.909,35.0128],[19.9072,35.009],[19.9076,35.003],[19.9109,35],[19.9172,35],[19.9219,35.0023],[19.925,35.007],[19.9269,35.007],[19.9274,35.0023],[19.9438,35.0001],[19.9763,35.0004],[19.9925,35.0005],[19.9925,35.0005],[19.9916,35.0016]],[[19.9854,35.0129],[19.9844,35.0156],[19.9844,35.0156],[19.9854,35.0129],[19.9859,35.0115],[19.9859,35.0115],[19.9854,35.0129]],[[19.9159,35.0061],[19.9154,35.0121],[19.9154,35.0121],[19.9159,35.0061],[19.9161,35.0031],[19.9161,35.0031],[19.9159,35.0061]]]]}},{"type":"Feature","properties":{"depth":3000,"kind":"isobath"},"geometry":{"type":"MultiLineString","coordinates":[[[19.9922,35.3566],[19.991,35.3561],[19.9886,35.3552],[19.988,35.3531],[19.9891,35.35],[19.9882,35.3481],[19.9855,35.3477],[19.9874,35.3461],[19.9938,35.3435],[19.9971,35.3422],[19.9971,35.3422],[19.9971,35.3422]],[[19.993,35.2922],[19.9937,35.2888],[19.995,35.282],[19.9957,35.2786],[19.9957,35.2786],[19.9957,35.2786]],[[19.9766,35.2714],[19.9747,35.2727],[19.971,35.2753],[19.971,35.2753],[19.9747,35.2727],[19.9766,35.2714]],[[19.9986,35.2443],[19.9978,35.2472],[19.9961,35.253],[19.9961,35.253],[19.9978,35.2472],[19.9986,35.2443]],[[19.8777,35.2359],[19.8782,35.2386],[19.8792,35.2439],[19.8778,35.2455],[19.8739,35.2433],[19.8734,35.2406],[19.8763,35.2375],[19.8777,35.2359]],[[19.9662,35.2349],[19.9672,35.2362],[19.9692,35.2388],[19.9668,35.243],[19.96,35.2487],[19.9556,35.2551],[19.9536,35.2621],[19.9511,35.2643],[19.948,35.2618],[19.9412,35.2641],[19.9307,35.271],[19.9268,35.2715],[19.9294,35.2656],[19.9333,35.2621],[19.9385,35.2609],[19.94,35.2576],[19.9377,35.2522],[19.9395,35.2489],[19.9455,35.2477],[19.9489,35.2489],[19.95,35.2524],[19.9516,35.2499],[19.9537,35.2416],[19.9576,35.2368],[19.9633,35.2355],[19.9662,35.2349]],[[19.9802,35.2318],[19.9803,35.234],[19.9806,35.2383],[19.9796,35.2394],[19.9775,35.237],[19.9774,35.2349],[19.9793,35.2328],[19.9802,35.2318]],[[19.8961,35.2214],[19.8954,35.2228],[19.8939,35.2255],[19.8939,35.2255],[19.8954,35.2228],[19.8961,35.2214]],[[19.9809,35.2005],[19.9823,35.2023],[19.985,35.206],[19.9833,35.2086],[19.9771,35.2101],[19.9757,35.2083],[19.9792,35.2031],[19.9809,35.2005]],[[19.9818,35.2033],[19.9823,35.2043],[19.9834,35.2061],[19.9834,35.2061],[19.9823,35.2043],[19.9818,35.2033]],[[19.9059,35.1943],[19.9055,35.1959],[19.9047,35.1989],[19.9047,35.1989],[19.9055,35.1959],[19.9059,35.1943]],[[19.941,35.1922],[19.9455,35.1926],[19.9544,35.1933],[19.9594,35.197],[19.9604,35.2036],[19.9624,35.2056],[19.9655,35.2029],[19.9643,35.2042],[19.9589,35.2094],[19.9577,35.2144],[19.9605,35.2193],[19.9638,35.2211],[19.9673,35.2199],[19.9692,35.2216],[19.9693,35.2263],[19.9664,35.2296],[19.9607,35.2314],[19.9557,35.2308],[19.9516,35.2278],[19.9466,35.2285],[19.9409,35.2332],[19.9358,35.2343],[19.9315,35.2319],[19.9297,35.2331],[19.9304,35.2378],[19.9287,35.2412],[19.9247,35.2433],[19.9206,35.2495],[19.9163,35.2599],[19.912,35.2648],[19.9076,35.2644],[19.905,35.2623],[19.9041,35.2587],[19.9008,35.2581],[19.895,35.2605],[19.893,35.2592],[19.8945,35.2541],[19.8966,35.2526],[19.8992,35.2547],[19.9013,35.2543],[19.9028,35.2514],[19.9039,35.2479],[19.9044,35.2436],[19.9029,35.2433],[19.8992,35.247],[19.8966,35.2462],[19.8951,35.2407],[19.8967,35.2339],[19.9015,35.2256],[19.9007,35.2191],[19.8941,35.2144],[19.8904,35.2081],[19.8893,35.2003],[19.8935,35.1981],[19.9031,35.2015],[19.9083,35.207],[19.9094,35.2145],[19.9119,35.2154],[19.9158,35.2097],[19.9158,35.206],[19.9121,35.2044],[19.9108,35.2021],[19.9121,35.199],[19.9133,35.1988],[19.9145,35.2015],[19.918,35.2023],[19.9237,35.2012],[19.9284,35.1989],[19.9321,35.1952],[19.9336,35.195],[19.9331,35.198],[19.9349,35.1978],[19.9389,35.1941],[19.941,35.1922]],[[19.9578,35.2146],[19.957,35.2156],[19.9555,35.2178],[19.9555,35.2178],[19.957,35.2156],[19.9578,35.2146]],[[19.9505,35.2119],[19.9495,35.2139],[19.9474,35.218],[19.9474,35.218],[19.9495,35.2139],[19.9505,35.2119]],[[19.9349,35.2099],[19.9345,35.2109],[19.9339,35.2131],[19.9339,35.2131],[19.9345,35.2109],[19.9349,35.2099]],[[19.9057,35.2085],[19.9052,35.2094],[19.9043,35.2111],[19.9043,35.2111],[19.9052,35.2094],[19.9057,35.2085]],[[19.9453,35.2078],[19.9438,35.2094],[19.9408,35.2125],[19.9403,35.215],[19.9422,35.2167],[19.9437,35.2151],[19.9448,35.2103],[19.9453,35.2078]],[[19.9401,35.2073],[19.9393,35.2096],[19.9378,35.2143],[19.9378,35.2143],[19.9393,35.2096],[19.9401,35.2073]],[[19.9234,35.2044],[19.9229,35.2055],[19.9219,35.2078],[19.9219,35.2078],[19.9229,35.2055],[19.9234,35.2044]],[[19.9525,35.1703],[19.9544,35.174],[19.9581,35.1815],[19.9575,35.1849],[19.9526,35.1842],[19.9508,35.1805],[19.9519,35.1737],[19.9525,35.1703]],[[19.8988,35.1651],[19.8982,35.1682],[19.897,35.1744],[19.8955,35.1752],[19.8936,35.1705],[19.8942,35.1674],[19.8973,35.1659],[19.8988,35.1651]],[[19.988,35.1722],[19.9883,35.1694],[19.9889,35.1637],[19.9892,35.1609],[19.9892,35.1609],[19.9892,35.1609]],[[19.9306,35.1443],[19.9275,35.1484],[19.9213,35.1568],[19.9195,35.161],[19.9221,35.161],[19.9235,35.1647],[19.9236,35.1719],[19.9215,35.1766],[19.9172,35.1787],[19.9141,35.1783],[19.912,35.1753],[19.9094,35.1758],[19.9063,35.18],[19.904,35.1796],[19.9025,35.1748],[19.9043,35.1703],[19.9093,35.1662],[19.9123,35.1605],[19.9132,35.1532],[19.9179,35.1482],[19.9264,35.1456],[19.9306,35.1443]],[[19.9901,35.1443],[19.9909,35.1456],[19.9924,35.1482],[19.9917,35.1498],[19.9886,35.1503],[19.9878,35.149],[19.9893,35.1459],[19.9901,35.1443]],[[19.9428,35.1307],[19.9434,35.1364],[19.9445,35.1479],[19.942,35.1567],[19.9359,35.163],[19.933,35.1601],[19.9335,35.1482],[19.936,35.1393],[19.9405,35.1336],[19.9428,35.1307]],[[19.9645,35.1307],[19.9652,35.135],[19.9665,35.1437],[19.9653,35.1442],[19.9614,35.1366],[19.9607,35.1323],[19.9633,35.1312],[19.9645,35.1307]],[[19.9203,35.1266],[19.9188,35.129],[19.9157,35.1337],[19.913,35.1355],[19.911,35.1345],[19.9125,35.1321],[19.9177,35.1284],[19.9203,35.1266]],[[19.8882,35.1172],[19.8897,35.1207],[19.8928,35.1276],[19.8916,35.1295],[19.8862,35.1261],[19.8847,35.1227],[19.887,35.119],[19.8882,35.1172]],[[19.9343,35.1141],[19.9324,35.1182],[19.9285,35.1263],[19.9264,35.1276],[19.9261,35.1221],[19.928,35.118],[19.9322,35.1154],[19.9343,35.1141]],[[19.9183,35.1099],[19.9177,35.111],[19.9167,35.1132],[19.9167,35.1132],[19.9177,35.111],[19.9183,35.1099]],[[19.9539,35.1089],[19.9533,35.1132],[19.9522,35.1218],[19.9481,35.1252],[19.9412,35.1233],[19.9418,35.119],[19.9498,35.1123],[19.9539,35.1089]],[[19.9922,35.1317],[19.9912,35.1336],[19.9891,35.1373],[19.9852,35.1392],[19.9795,35.1394],[19.976,35.1358],[19.9749,35.1282],[19.9777,35.1201],[19.9846,35.1111],[19.9893,35.1077],[19.9919,35.1098],[19.9932,35.1108]],[[19.9958,35.0974],[19.9952,35.0984],[19.9939,35.1003],[19.9939,35.1003],[19.9952,35.0984],[19.9958,35.0974]],[[19.9185,35.0964],[19.917,35.1003],[19.9139,35.1081],[19.9099,35.113],[19.905,35.1151],[19.9065,35.1112],[19.9145,35.1013],[19.9185,35.0964]],[[19.9924,35.0943],[19.9913,35.0969],[19.9891,35.102],[19.9891,35.102],[19.9913,35.0969],[19.9924,35.0943]],[[19.9057,35.0745],[19.9052,35.0756],[19.9041,35.0778],[19.9041,35.0778],[19.9052,35.0756],[19.9057,35.0745]],[[19.9987,35.0693],[19.9979,35.0727],[19.9962,35.0794],[19.9934,35.0805],[19.9895,35.0758],[19.9904,35.0724],[19.9959,35.0703],[19.9987,35.0693]],[[19.9236,35.0661],[19.9211,35.0674],[19.916,35.0701],[19.916,35.0701],[19.9211,35.0674],[19.9236,35.0661]],[[19.9883,35.0599],[19.9869,35.0622],[19.9842,35.0666],[19.9842,35.0666],[19.9869,35.0622],[19.9883,35.0599]],[[19.9493,35.0568],[19.9486,35.0581],[19.9471,35.0606],[19.9471,35.0606],[19.9486,35.0581],[19.9493,35.0568]],[[19.8489,35.0516],[19.8472,35.0545],[19.8439,35.0603],[19.8421,35.0611],[19.8418,35.0568],[19.8435,35.0539],[19.8471,35.0524],[19.8489,35.0516]],[[19.9155,35.0495],[19.9149,35.0507],[19.9136,35.053],[19.9136,35.053],[19.9149,35.0507],[19.9155,35.0495]],[[19.9786,35.0484],[19.9781,35.0495],[19.9771,35.0517],[19.9771,35.0517],[19.9781,35.0495],[19.9786,35.0484]],[[19.8599,35.0474],[19.8594,35.0494],[19.8583,35.0534],[19.8568,35.0542],[19.8549,35.0517],[19.8554,35.0497],[19.8584,35.0482],[19.8599,35.0474]],[[19.8979,35.0234],[19.8958,35.0294],[19.8916,35.0414],[19.8936,35.0488],[19.9017,35.0515],[19.9067,35.0518],[19.9088,35.0495],[19.9089,35.0505],[19.9069,35.0547],[19.9079,35.0591],[19.9118,35.0638],[19.9128,35.0672],[19.9109,35.0694],[19.9087,35.0689],[19.9063,35.0657],[19.904,35.0673],[19.9017,35.0736],[19.901,35.0755],[19.9019,35.0728],[19.9006,35.0714],[19.8971,35.0715],[19.8945,35.0691],[19.8928,35.0644],[19.8933,35.0597],[19.8958,35.055],[19.894,35.0521],[19.8881,35.051],[19.8868,35.0526],[19.8901,35.0568],[19.8903,35.0618],[19.8873,35.0675],[19.8864,35.0747],[19.8875,35.0836],[19.8859,35.091],[19.8818,35.0969],[19.8785,35.0984],[19.8762,35.0957],[19.8758,35.0891],[19.8775,35.0786],[19.8761,35.0726],[19.8716,35.0711],[19.8693,35.0685],[19.8693,35.0648],[19.8764,35.0531],[19.8908,35.0333],[19.8979,35.0234]],[[19.9036,35.0575],[19.9031,35.0594],[19.9021,35.0633],[19.9021,35.0633],[19.9031,35.0594],[19.9036,35.0575]],[[19.8607,35.0141],[19.8584,35.0192],[19.8539,35.0293],[19.8511,35.0327],[19.8501,35.0293],[19.8524,35.0242],[19.8579,35.0175],[19.8607,35.0141]],[[19.8771,35.0099],[19.8764,35.0122],[19.8752,35.0168],[19.8752,35.0168],[19.8764,35.0122],[19.8771,35.0099]],[[19.9974,35.0089],[19.9974,35.0099],[19.9974,35.012],[19.9974,35.012],[19.9974,35.0099],[19.9974,35.0089]],[[19.8264,35.0078],[19.8252,35.0086],[19.8229,35.0101],[19.8229,35.0101],[19.8252,35.0086],[19.8264,35.0078]],[[19.9984,35.3181],[19.9941,35.3176],[19.9854,35.3166],[19.9833,35.3132],[19.9878,35.3074],[19.9878,35.3044],[19.9831,35.3041],[19.9816,35.3052],[19.9836,35.3077],[19.9833,35.3098],[19.9809,35.3115],[19.9748,35.3116],[19.9648,35.31],[19.9594,35.308],[19.9583,35.3053],[19.9558,35.306],[19.9519,35.31],[19.9501,35.3141],[19.9504,35.3182],[19.9532,35.3214],[19.9585,35.3235],[19.9617,35.3279],[19.9628,35.3346],[19.965,35.3382],[19.9686,35.3387],[19.9698,35.3408],[19.9687,35.3445],[19.9713,35.3455],[19.9776,35.3438],[19.9799,35.3453],[19.9784,35.35],[19.9793,35.3506],[19.9826,35.347],[19.9833,35.3479],[19.9816,35.353],[19.9789,35.3552],[19.9752,35.3545],[19.9739,35.3524],[19.975,35.3491],[19.9737,35.3489],[19.97,35.3518],[19.969,35.3515],[19.9706,35.3482],[19.9693,35.348],[19.9651,35.3511],[19.9628,35.3507],[19.9622,35.3468],[19.9617,35.3478],[19.9612,35.3538],[19.9633,35.3563],[19.9682,35.3552],[19.9685,35.3574],[19.9642,35.3627],[19.9662,35.3625],[19.9745,35.3567],[19.9786,35.3554],[19.9786,35.3587],[19.9807,35.359],[19.9849,35.3565],[19.9854,35.3584],[19.9823,35.3649],[19.984,35.3684],[19.9905,35.369],[19.9915,35.3724],[19.987,35.3787],[19.9865,35.3836],[19.9901,35.3873],[19.9899,35.3909],[19.9859,35.3946],[19.9856,35.3964],[19.9889,35.3964],[19.99,35.3981],[19.9887,35.4015],[19.9895,35.4033],[19.9924,35.4035],[19.9937,35.4021],[19.9934,35.399],[19.994,35.3994],[19.9956,35.4032],[19.9964,35.4051]],[[19.8192,35.0005],[19.8192,35.0005],[19.8192,35.0005],[19.8182,35.0066],[19.8161,35.0187],[19.8182,35.0238],[19.8245,35.0219],[19.8293,35.0221],[19.8329,35.0244],[19.833,35.0318],[19.8298,35.0443],[19.8299,35.0489],[19.8332,35.0456],[19.8357,35.0459],[19.8372,35.0497],[19.8404,35.0485],[19.8451,35.0422],[19.8494,35.0394],[19.8534,35.0399],[19.8487,35.0445],[19.8352,35.0534],[19.8309,35.0581],[19.8356,35.0586],[19.8371,35.061],[19.8352,35.0651],[19.8359,35.0669],[19.8394,35.0662],[19.8429,35.0685],[19.8466,35.074],[19.8508,35.0751],[19.8555,35.0719],[19.8587,35.0727],[19.8605,35.0774],[19.8595,35.0818],[19.8556,35.0861],[19.8583,35.0883],[19.8677,35.0886],[19.8706,35.0916],[19.8669,35.0973],[19.8693,35.1011],[19.8776,35.1028],[19.8787,35.1081],[19.8724,35.117],[19.8668,35.1217],[19.8617,35.1222],[19.8632,35.1263],[19.8711,35.1341],[19.8752,35.1405],[19.8754,35.1456],[19.8773,35.1479],[19.8808,35.1476],[19.8815,35.1448],[19.8794,35.1396],[19.8799,35.1367],[19.8829,35.1362],[19.8842,35.139],[19.8836,35.1453],[19.885,35.1502],[19.8883,35.1539],[19.8867,35.157],[19.88,35.1596],[19.8808,35.1599],[19.8891,35.1579],[19.8937,35.1579],[19.8946,35.1599],[19.8925,35.1643],[19.8875,35.1711],[19.8864,35.1758],[19.8892,35.1784],[19.8889,35.1852],[19.8856,35.1962],[19.879,35.206],[19.8691,35.2146],[19.8609,35.2185],[19.8543,35.2176],[19.8535,35.2194],[19.8585,35.2237],[19.8588,35.2281],[19.8545,35.2326],[19.8545,35.2367],[19.8587,35.2404],[19.8581,35.2438],[19.8527,35.2468],[19.853,35.2505],[19.859,35.2547],[19.8638,35.2563],[19.8675,35.2553],[19.8709,35.2579],[19.8739,35.2641],[19.8742,35.2688],[19.8716,35.2721],[19.8651,35.273],[19.8547,35.2715],[19.8489,35.2762],[19.8479,35.2869],[19.8461,35.2922],[19.8437,35.2922],[19.8434,35.2909],[19.8451,35.2883],[19.8445,35.2851],[19.8415,35.2813],[19.838,35.2806],[19.8339,35.2829],[19.8313,35.2853],[19.8302,35.2877],[19.8322,35.2916],[19.8371,35.2969],[19.8385,35.3021],[19.8365,35.3073],[19.8382,35.311],[19.8437,35.3132],[19.8469,35.3111],[19.8479,35.3047],[19.8489,35.3042],[19.85,35.3095],[19.8557,35.3118],[19.8662,35.311],[19.8744,35.3076],[19.8805,35.3015],[19.8834,35.2966],[19.8831,35.2929],[19.8918,35.2856],[19.9094,35.2745],[19.9154,35.2728],[19.9097,35.2805],[19.913,35.2827],[19.9256,35.2792],[19.934,35.2801],[19.9383,35.2854],[19.9349,35.2922],[19.9239,35.3005],[19.92,35.3057],[19.9233,35.3079],[19.9235,35.3111],[19.9207,35.3156],[19.923,35.3143],[19.9303,35.3073],[19.9329,35.3066],[19.9308,35.3123],[19.9326,35.313],[19.9383,35.3089],[19.9381,35.3117],[19.9317,35.3215],[19.9299,35.3252],[19.9326,35.3229],[19.9349,35.323],[19.937,35.3256],[19.9405,35.3234],[19.9454,35.3165],[19.9487,35.3089],[19.9504,35.3006],[19.9487,35.2964],[19.9436,35.2964],[19.9437,35.294],[19.949,35.2891],[19.9524,35.2901],[19.9539,35.2968],[19.9547,35.3001]],[[19.9839,35.6631],[19.9829,35.6639],[19.9808,35.6655],[19.9808,35.6655],[19.9829,35.6639],[19.9839,35.6631]],[[19.9714,35.6583],[19.9706,35.659],[19.969,35.6603],[19.969,35.6603],[19.9706,35.659],[19.9714,35.6583]],[[19.9682,35.6491],[19.9697,35.6502],[19.9727,35.6525],[19.9727,35.6525],[19.9697,35.6502],[19.9682,35.6491]],[[19.963,35.6481],[19.9628,35.6491],[19.9622,35.651],[19.9622,35.651],[19.9628,35.6491],[19.963,35.6481]],[[19.9828,35.6471],[19.9813,35.6495],[19.9782,35.6542],[19.9782,35.6542],[19.9813,35.6495],[19.9828,35.6471]],[[19.9953,35.6464],[19.994,35.6478],[19.9914,35.6505],[19.9916,35.6518],[19.9946,35.6517],[19.9959,35.6503],[19.9955,35.6477],[19.9953,35.6464]],[[19.8557,35.6182],[19.8531,35.619],[19.8477,35.6206],[19.8457,35.6223],[19.8468,35.624],[19.8495,35.6232],[19.8536,35.6199],[19.8557,35.6182]],[[19.8453,35.6117],[19.8444,35.6126],[19.8427,35.6143],[19.8427,35.6143],[19.8444,35.6126],[19.8453,35.6117]],[[19.8661,35.6094],[19.8643,35.6124],[19.8607,35.6185],[19.8614,35.6201],[19.8664,35.6175],[19.8682,35.6144],[19.8668,35.6111],[19.8661,35.6094]],[[19.8609,35.6055],[19.8604,35.6064],[19.8594,35.6082],[19.8594,35.6082],[19.8604,35.6064],[19.8609,35.6055]],[[19.9839,35.3733],[19.9799,35.3762],[19.9718,35.382],[19.9708,35.3843],[19.9767,35.3832],[19.9808,35.3803],[19.9829,35.3756],[19.9839,35.3733]],[[19.9724,35.3702],[19.9707,35.371],[19.9674,35.3726],[19.9656,35.3756],[19.9652,35.3802],[19.9669,35.3794],[19.9706,35.3733],[19.9724,35.3702]],[[19.9422,35.3554],[19.9399,35.3584],[19.9354,35.3643],[19.9341,35.3682],[19.936,35.3701],[19.9386,35.3701],[19.9418,35.3682],[19.9431,35.3643],[19.9425,35.3584],[19.9422,35.3554]],[[19.9057,35.3347],[19.9033,35.3376],[19.8985,35.3435],[19.8993,35.3487],[19.9059,35.3534],[19.9079,35.3583],[19.9054,35.3635],[19.9055,35.3663],[19.9085,35.3666],[19.9097,35.3651],[19.9092,35.3616],[19.9119,35.3586],[19.9175,35.356],[19.9167,35.3497],[19.9094,35.3397],[19.9057,35.3347]],[[19.8724,35.3328],[19.8724,35.3347],[19.8724,35.3385],[19.8724,35.3385],[19.8724,35.3347],[19.8724,35.3328]],[[19.9203,35.3311],[19.9195,35.3326],[19.918,35.3356],[19.9186,35.3368],[19.9213,35.3362],[19.9221,35.3347],[19.9209,35.3323],[19.9203,35.3311]],[[19.9161,35.3234],[19.9151,35.3255],[19.913,35.3297],[19.9138,35.331],[19.9173,35.3294],[19.9183,35.3273],[19.9168,35.3247],[19.9161,35.3234]],[[19.9224,35.3241],[19.9217,35.3255],[19.9202,35.3283],[19.9212,35.3299],[19.9248,35.3302],[19.9256,35.3288],[19.9235,35.3257],[19.9224,35.3241]],[[19.9057,35.3141],[19.9042,35.3151],[19.9011,35.3172],[19.8998,35.3202],[19.9003,35.3241],[19.9018,35.3231],[19.9044,35.3171],[19.9057,35.3141]],[[19.8807,35.3071],[19.8778,35.3109],[19.872,35.3186],[19.871,35.3215],[19.8747,35.3196],[19.8756,35.3222],[19.8734,35.3293],[19.8745,35.3319],[19.8786,35.33],[19.8833,35.332],[19.8885,35.3378],[19.8932,35.3354],[19.8973,35.3247],[19.8971,35.3196],[19.8924,35.3201],[19.8899,35.3175],[19.8898,35.3118],[19.8875,35.3085],[19.883,35.3076],[19.8807,35.3071]],[[19.8276,35.3009],[19.8271,35.3022],[19.826,35.3046],[19.826,35.3046],[19.8271,35.3022],[19.8276,35.3009]],[[19.8911,35.2964],[19.8909,35.2998],[19.8904,35.3065],[19.8915,35.3105],[19.894,35.3116],[19.8967,35.3101],[19.8994,35.3058],[19.8984,35.3018],[19.8935,35.2982],[19.8911,35.2964]],[[19.8245,35.2949],[19.8232,35.2967],[19.8206,35.3004],[19.8206,35.3004],[19.8232,35.2967],[19.8245,35.2949]],[[19.9141,35.294],[19.9125,35.2962],[19.9094,35.3007],[19.9105,35.3023],[19.9158,35.3011],[19.9173,35.2989],[19.9152,35.2956],[19.9141,35.294]],[[19.9255,35.2862],[19.9244,35.2869],[19.9222,35.2884],[19.9222,35.2884],[19.9244,35.2869],[19.9255,35.2862]],[[19.8297,35.2824],[19.8276,35.2844],[19.8235,35.2883],[19.8235,35.2883],[19.8276,35.2844],[19.8297,35.2824]],[[19.8349,35.2796],[19.8344,35.2806],[19.8333,35.2825],[19.8333,35.2825],[19.8344,35.2806],[19.8349,35.2796]],[[19.8453,35.1921],[19.8445,35.1932],[19.843,35.1953],[19.843,35.1953],[19.8445,35.1932],[19.8453,35.1921]],[[19.8609,35.1908],[19.8589,35.1914],[19.855,35.1926],[19.8524,35.1958],[19.8513,35.201],[19.8544,35.2031],[19.8618,35.2021],[19.8644,35.1989],[19.8621,35.1935],[19.8609,35.1908]],[[19.8745,35.1856],[19.8732,35.1908],[19.8706,35.2012],[19.8716,35.2039],[19.8761,35.1989],[19.8774,35.1937],[19.8755,35.1883],[19.8745,35.1856]],[[19.8849,35.1778],[19.8844,35.1792],[19.8833,35.1819],[19.8833,35.1819],[19.8844,35.1792],[19.8849,35.1778]],[[19.8849,35.1699],[19.8836,35.1711],[19.881,35.1734],[19.881,35.1734],[19.8836,35.1711],[19.8849,35.1699]],[[19.8786,35.1671],[19.8769,35.1676],[19.8735,35.1688],[19.8725,35.1708],[19.8738,35.1737],[19.8755,35.1731],[19.8776,35.1691],[19.8786,35.1671]],[[19.8557,35.1661],[19.8534,35.1664],[19.8489,35.1669],[19.8475,35.1693],[19.8492,35.1734],[19.8489,35.1759],[19.8465,35.1767],[19.8451,35.1755],[19.8445,35.1724],[19.843,35.1738],[19.8405,35.1798],[19.8405,35.1838],[19.843,35.1856],[19.8453,35.184],[19.8474,35.1788],[19.8513,35.1753],[19.857,35.1736],[19.8602,35.1743],[19.8607,35.1774],[19.8624,35.1784],[19.8655,35.1772],[19.8655,35.1795],[19.8624,35.1852],[19.8621,35.1884],[19.8648,35.1891],[19.8677,35.1855],[19.871,35.1774],[19.8684,35.1716],[19.8599,35.1679],[19.8557,35.1661]],[[19.8422,35.0927],[19.8425,35.0938],[19.843,35.0959],[19.843,35.0959],[19.8425,35.0938],[19.8422,35.0927]],[[19.8214,35.0418],[19.8195,35.0422],[19.8158,35.0429],[19.8137,35.0455],[19.8132,35.05],[19.8151,35.0497],[19.8193,35.0444],[19.8214,35.0418]],[[19.8214,35.0331],[19.8204,35.0346],[19.8183,35.0376],[19.8183,35.0376],[19.8204,35.0346],[19.8214,35.0331]],[[19.8026,35.0167],[19.8034,35.0186],[19.8049,35.0223],[19.8065,35.0226],[19.8082,35.0197],[19.8074,35.0178],[19.8042,35.0171],[19.8026,35.0167]],[[19.8036,35.0064],[19.8031,35.0074],[19.8021,35.0093],[19.8021,35.0093],[19.8031,35.0074],[19.8036,35.0064]],[[19.8141,35.0046],[19.8121,35.0062],[19.8081,35.0093],[19.8081,35.0093],[19.8121,35.0062],[19.8141,35.0046]],[[19.8078,35.003],[19.8073,35.0039],[19.8062,35.0057],[19.8062,35.0057],[19.8073,35.0039],[19.8078,35.003]],[[19.8296,35.0005],[19.8283,35.0023],[19.8258,35.0059],[19.8258,35.0059],[19.8283,35.0023],[19.8296,35.0005]],[[19.877,35.0005],[19.8756,35.0031],[19.8728,35.0083],[19.8701,35.0114],[19.8674,35.0124],[19.8664,35.0115],[19.8669,35.0086],[19.8657,35.0089],[19.8626,35.0124],[19.8617,35.011],[19.863,35.0047],[19.867,35.0013],[19.8737,35.0008],[19.877,35.0005]],[[19.9019,35.0005],[19.9009,35.0005],[19.8988,35.0005],[19.8988,35.0005],[19.9009,35.0005],[19.9019,35.0005]],[[19.9995,35.0448],[19.9992,35.0436],[19.9986,35.0413],[19.9956,35.0406],[19.9903,35.0417],[19.9885,35.0374],[19.9902,35.0277],[19.9883,35.0238],[19.9826,35.0257],[19.9776,35.0241],[19.9735,35.019],[19.9678,35.0173],[19.9605,35.019],[19.9562,35.022],[19.9549,35.0264],[19.9572,35.0314],[19.9632,35.0371],[19.967,35.0371],[19.9687,35.0314],[19.9705,35.0341],[19.9724,35.045],[19.9726,35.0484],[19.9711,35.0445],[19.968,35.0452],[19.9633,35.0505],[19.9575,35.0524],[19.9508,35.051],[19.9469,35.0525],[19.9458,35.0569],[19.9437,35.0575],[19.9407,35.054],[19.9365,35.0562],[19.9312,35.0639],[19.9275,35.0671],[19.9253,35.0658],[19.9256,35.0649],[19.9282,35.0644],[19.9284,35.0581],[19.9261,35.0461],[19.9225,35.0419],[19.9175,35.0454],[19.9107,35.0472],[19.9019,35.0473],[19.8999,35.0419],[19.9047,35.031],[19.9083,35.0267],[19.9108,35.0291],[19.9131,35.0286],[19.9152,35.0251],[19.916,35.0213],[19.9154,35.0172],[19.9131,35.0143],[19.909,35.0128],[19.907,35.012]],[[19.9925,35.0005],[19.9925,35.0005],[19.9925,35.0005],[19.9916,35.0016],[19.9897,35.0037],[19.9897,35.0084],[19.9915,35.0157],[19.9924,35.0193]],[[19.9859,35.0115],[19.9854,35.0129],[19.9844,35.0156],[19.9844,35.0156],[19.9854,35.0129],[19.9859,35.0115]],[[19.9161,35.0031],[19.9159,35.0061],[19.9154,35.0121],[19.9154,35.0121],[19.9159,35.0061],[19.9161,35.0031]]]}}]}