{"type":"FeatureCollection","features":[{"type":"Feature","properties":{"depth":5,"kind":"band"},"geometry":{"type":"MultiPolygon","coordinates":[[[[19.9999,36.2504],[19.9996,36.7501],[19.7496,36.9999],[19.2499,36.9996],[19.0001,36.7496],[19.0004,36.2499],[19.2504,36.0001],[19.7501,36.0004],[20,36.0005],[20,36.0005],[19.9999,36.2504]]]]}},{"type":"Feature","properties":{"depth":10,"kind":"band"},"geometry":{"type":"MultiPolygon","coordinates":[[[[19.9999,36.2504],[19.9996,36.7501],[19.7496,36.9999],[19.2499,36.9996],[19.0001,36.7496],[19.0004,36.2499],[19.2504,36.0001],[19.7501,36.0004],[20,36.0005],[20,36.0005],[19.9999,36.2504]]]]}},{"type":"Feature","properties":{"depth":15,"kind":"band"},"geometry":{"type":"MultiPolygon","coordinates":[[[[19.9999,36.2504],[19.9996,36.7501],[19.7496,36.9999],[19.2499,36.9996],[19.0001,36.7496],[19.0004,36.2499],[19.2504,36.0001],[19.7501,36.0004],[20,36.0005],[20,36.0005],[19.9999,36.2504]]]]}},{"type":"Feature","properties":{"depth":20,"kind":"band"},"geometry":{"type":"MultiPolygon","coordinates":[[[[19.9999,36.2504],[19.9996,36.7501],[19.7496,36.9999],[19.2499,36.9996],[19.0001,36.7496],[19.0004,36.2499],[19.2504,36.0001],[19.7501,36.0004],[20,36.0005],[20,36.0005],[19.9999,36.2504]]]]}},{"type":"Feature","properties":{"depth":25,"kind":"band"},"geometry":{"type":"MultiPolygon","coordinates":[[[[19.9999,36.2504],[19.9996,36.7501],[19.7496,36.9999],[19.2499,36.9996],[19.0001,36.7496],[19.0004,36.2499],[19.2504,36.0001],[19.7501,36.0004],[20,36.0005],[20,36.0005],[19.9999,36.2504]]]]}},{"type":"Feature","properties":{"depth":30,"kind":"band"},"geometry":{"type":"MultiPolygon","coordinates":[[[[19.9999,36.2504],[19.9996,36.7501],[19.7496,36.9999],[19.2499,36.9996],[19.0001,36.7496],[19.0004,36.2499],[19.2504,36.0001],[19.7501,36.0004],[20,36.0005],[20,36.0005],[19.9999,36.2504]]]]}},{"type":"Feature","properties":{"depth":40,"kind":"band"},"geometry":{"type":"MultiPolygon","coordinates":[[[[19.9999,36.2504],[19.9996,36.7501],[19.7496,36.9999],[19.2499,36.9996],[19.0001,36.7496],[19.0004,36.2499],[19.2504,36.0001],[19.7501,36.0004],[20,36.0005],[20,36.0005],[19.9999,36.2504]]]]}},{"type":"Feature","properties":{"depth":50,"kind":"band"},"geometry":{"type":"MultiPolygon","coordinates":[[[[19.9999,36.2504],[19.9996,36.7501],[19.7496,36.9999],[19.2499,36.9996],[19.0001,36.7496],[19.0004,36.2499],[19.2504,36.0001],[19.7501,36.0004],[20,36.0005],[20,36.0005],[19.9999,36.2504]]]]}},{"type":"Feature","properties":{"depth":60,"kind":"band"},"geometry":{"type":"MultiPolygon","coordinates":[[[[19.9999,36.2504],[19.9996,36.7501],[19.7496,36.9999],[19.2499,36.9996],[19.0001,36.7496],[19.0004,36.2499],[19.2504,36.0001],[19.7501,36.0004],[20,36.0005],[20,36.0005],[19.9999,36.2504]]]]}},{"type":"Feature","properties":{"depth":75,"kind":"band"},"geometry":{"type":"MultiPolygon","coordinates":[[[[19.9999,36.2504],[19.9996,36.7501],[19.7496,36.9999],[19.2499,36.9996],[19.0001,36.7496],[19.0004,36.2499],[19.2504,36.0001],[19.7501,36.0004],[20,36.0005],[20,36.0005],[19.9999,36.2504]]]]}},{"type":"Feature","properties":{"depth":100,"kind":"band"},"geometry":{"type":"MultiPolygon","coordinates":[[[[19.9999,36.2504],[19.9996,36.7501],[19.7496,36.9999],[19.2499,36.9996],[19.0001,36.7496],[19.0004,36.2499],[19.2504,36.0001],[19.7501,36.0004],[20,36.0005],[20,36.0005],[19.9999,36.2504]]]]}},{"type":"Feature","properties":{"depth":150,"kind":"band"},"geometry":{"type":"MultiPolygon","coordinates":[[[[19.9999,36.2504],[19.9996,36.7501],[19.7496,36.9999],[19.2499,36.9996],[19.0001,36.7496],[19.0004,36.2499],[19.2504,36.0001],[19.7501,36.0004],[20,36.0005],[20,36.0005],[19.9999,36.2504]]]]}},{"type":"Feature","properties":{"depth":200,"kind":"band"},"geometry":{"type":"MultiPolygon","coordinates":[[[[19.9999,36.2504],[19.9996,36.7501],[19.7496,36.9999],[19.2499,36.9996],[19.0001,36.7496],[19.0004,36.2499],[19.2504,36.0001],[19.7501,36.0004],[20,36.0005],[20,36.0005],[19.9999,36.2504]]]]}},{"type":"Feature","properties":{"depth":300,"kind":"band"},"geometry":{"type":"MultiPolygon","coordinates":[[[[19.9999,36.2504],[19.9996,36.7501],[19.7496,36.9999],[19.2499,36.9996],[19.0001,36.7496],[19.0004,36.2499],[19.2504,36.0001],[19.7501,36.0004],[20,36.0005],[20,36.0005],[19.9999,36.2504]]]]}},{"type":"Feature","properties":{"depth":500,"kind":"band"},"geometry":{"type":"MultiPolygon","coordinates":[[[[19.9999,36.2504],[19.9996,36.7501],[19.7496,36.9999],[19.2499,36.9996],[19.0001,36.7496],[19.0004,36.2499],[19.2504,36.0001],[19.7501,36.0004],[20,36.0005],[20,36.0005],[19.9999,36.2504]]]]}},{"type":"Feature","properties":{"depth":750,"kind":"band"},"geometry":{"type":"MultiPolygon","coordinates":[[[[19.9999,36.2504],[19.9996,36.7501],[19.7496,36.9999],[19.2499,36.9996],[19.0001,36.7496],[19.0004,36.2499],[19.2504,36.0001],[19.7501,36.0004],[20,36.0005],[20,36.0005],[19.9999,36.2504]]]]}},{"type":"Feature","properties":{"depth":1000,"kind":"band"},"geometry":{"type":"MultiPolygon","coordinates":[[[[19.9999,36.2504],[19.9996,36.7501],[19.7496,36.9999],[19.2499,36.9996],[19.0001,36.7496],[19.0004,36.2499],[19.2504,36.0001],[19.7501,36.0004],[20,36.0005],[20,36.0005],[19.9999,36.2504]]]]}},{"type":"Feature","properties":{"depth":1500,"kind":"band"},"geometry":{"type":"MultiPolygon","coordinates":[[[[19.9999,36.2504],[19.9996,36.7501],[19.7496,36.9999],[19.2499,36.9996],[19.0001,36.7496],[19.0004,36.2499],[19.2504,36.0001],[19.7501,36.0004],[20,36.0005],[20,36.0005],[19.9999,36.2504]]]]}},{"type":"Feature","properties":{"depth":2000,"kind":"band"},"geometry":{"type":"MultiPolygon","coordinates":[[[[19.9999,36.2504],[19.9996,36.7501],[19.7496,36.9999],[19.2499,36.9996],[19.0001,36.7496],[19.0004,36.2499],[19.2504,36.0001],[19.7501,36.0004],[20,36.0005],[20,36.0005],[19.9999,36.2504]]]]}},{"type":"Feature","properties":{"depth":3000,"kind":"band"},"geometry":{"type":"MultiPolygon","coordinates":[[[[19.9999,36.2504],[19.9996,36.7501],[19.7496,36.9999],[19.2499,36.9996],[19.0001,36.7496],[19.0004,36.2499],[19.2504,36.0001],[19.7501,36.0004],[20,36.0005],[20,36.0005],[19.9999,36.2504]]]]}}]}