{"type":"FeatureCollection","features":[{"type":"Feature","properties":{"depth":5,"kind":"band"},"geometry":{"type":"MultiPolygon","coordinates":[[[[19.9999,38.2504],[19.9996,38.7501],[19.7496,38.9999],[19.2499,38.9996],[19.0001,38.7496],[19.0004,38.2499],[19.2504,38.0001],[19.7501,38.0004],[20,38.0005],[20,38.0005],[19.9999,38.2504]]]]}},{"type":"Feature","properties":{"depth":10,"kind":"band"},"geometry":{"type":"MultiPolygon","coordinates":[[[[19.9999,38.2504],[19.9996,38.7501],[19.7496,38.9999],[19.2499,38.9996],[19.0001,38.7496],[19.0004,38.2499],[19.2504,38.0001],[19.7501,38.0004],[20,38.0005],[20,38.0005],[19.9999,38.2504]]]]}},{"type":"Feature","properties":{"depth":15,"kind":"band"},"geometry":{"type":"MultiPolygon","coordinates":[[[[19.9999,38.2504],[19.9996,38.7501],[19.7496,38.9999],[19.2499,38.9996],[19.0001,38.7496],[19.0004,38.2499],[19.2504,38.0001],[19.7501,38.0004],[20,38.0005],[20,38.0005],[19.9999,38.2504]]]]}},{"type":"Feature","properties":{"depth":20,"kind":"band"},"geometry":{"type":"MultiPolygon","coordinates":[[[[19.9999,38.2504],[19.9996,38.7501],[19.7496,38.9999],[19.2499,38.9996],[19.0001,38.7496],[19.0004,38.2499],[19.2504,38.0001],[19.7501,38.0004],[20,38.0005],[20,38.0005],[19.9999,38.2504]]]]}},{"type":"Feature","properties":{"depth":25,"kind":"band"},"geometry":{"type":"MultiPolygon","coordinates":[[[[19.9999,38.2504],[19.9996,38.7501],[19.7496,38.9999],[19.2499,38.9996],[19.0001,38.7496],[19.0004,38.2499],[19.2504,38.0001],[19.7501,38.0004],[20,38.0005],[20,38.0005],[19.9999,38.2504]]]]}},{"type":"Feature","properties":{"depth":30,"kind":"band"},"geometry":{"type":"MultiPolygon","coordinates":[[[[19.9999,38.2504],[19.9996,38.7501],[19.7496,38.9999],[19.2499,38.9996],[19.0001,38.7496],[19.0004,38.2499],[19.2504,38.0001],[19.7501,38.0004],[20,38.0005],[20,38.0005],[19.9999,38.2504]]]]}},{"type":"Feature","properties":{"depth":40,"kind":"band"},"geometry":{"type":"MultiPolygon","coordinates":[[[[19.9999,38.2504],[19.9996,38.7501],[19.7496,38.9999],[19.2499,38.9996],[19.0001,38.7496],[19.0004,38.2499],[19.2504,38.0001],[19.7501,38.0004],[20,38.0005],[20,38.0005],[19.9999,38.2504]]]]}},{"type":"Feature","properties":{"depth":50,"kind":"band"},"geometry":{"type":"MultiPolygon","coordinates":[[[[19.9999,38.2504],[19.9996,38.7501],[19.7496,38.9999],[19.2499,38.9996],[19.0001,38.7496],[19.0004,38.2499],[19.2504,38.0001],[19.7501,38.0004],[20,38.0005],[20,38.0005],[19.9999,38.2504]]]]}},{"type":"Feature","properties":{"depth":60,"kind":"band"},"geometry":{"type":"MultiPolygon","coordinates":[[[[19.9999,38.2504],[19.9996,38.7501],[19.7496,38.9999],[19.2499,38.9996],[19.0001,38.7496],[19.0004,38.2499],[19.2504,38.0001],[19.7501,38.0004],[20,38.0005],[20,38.0005],[19.9999,38.2504]]]]}},{"type":"Feature","properties":{"depth":75,"kind":"band"},"geometry":{"type":"MultiPolygon","coordinates":[[[[19.9999,38.2504],[19.9996,38.7501],[19.7496,38.9999],[19.2499,38.9996],[19.0001,38.7496],[19.0004,38.2499],[19.2504,38.0001],[19.7501,38.0004],[20,38.0005],[20,38.0005],[19.9999,38.2504]]]]}},{"type":"Feature","properties":{"depth":100,"kind":"band"},"geometry":{"type":"MultiPolygon","coordinates":[[[[19.9999,38.2504],[19.9996,38.7501],[19.7496,38.9999],[19.2499,38.9996],[19.0001,38.7496],[19.0004,38.2499],[19.2504,38.0001],[19.7501,38.0004],[20,38.0005],[20,38.0005],[19.9999,38.2504]]]]}},{"type":"Feature","properties":{"depth":150,"kind":"band"},"geometry":{"type":"MultiPolygon","coordinates":[[[[19.9999,38.2504],[19.9996,38.7501],[19.7496,38.9999],[19.2499,38.9996],[19.0001,38.7496],[19.0004,38.2499],[19.2504,38.0001],[19.7501,38.0004],[20,38.0005],[20,38.0005],[19.9999,38.2504]]]]}},{"type":"Feature","properties":{"depth":200,"kind":"band"},"geometry":{"type":"MultiPolygon","coordinates":[[[[19.9999,38.2504],[19.9996,38.7501],[19.7496,38.9999],[19.2499,38.9996],[19.0001,38.7496],[19.0004,38.2499],[19.2504,38.0001],[19.7501,38.0004],[20,38.0005],[20,38.0005],[19.9999,38.2504]]]]}},{"type":"Feature","properties":{"depth":300,"kind":"band"},"geometry":{"type":"MultiPolygon","coordinates":[[[[19.9999,38.2504],[19.9996,38.7501],[19.7496,38.9999],[19.2499,38.9996],[19.0001,38.7496],[19.0004,38.2499],[19.2504,38.0001],[19.7501,38.0004],[20,38.0005],[20,38.0005],[19.9999,38.2504]]]]}},{"type":"Feature","properties":{"depth":500,"kind":"band"},"geometry":{"type":"MultiPolygon","coordinates":[[[[19.9999,38.2504],[19.9996,38.7501],[19.7496,38.9999],[19.2499,38.9996],[19.0001,38.7496],[19.0004,38.2499],[19.2504,38.0001],[19.7501,38.0004],[20,38.0005],[20,38.0005],[19.9999,38.2504]]]]}},{"type":"Feature","properties":{"depth":750,"kind":"band"},"geometry":{"type":"MultiPolygon","coordinates":[[[[19.9999,38.2504],[19.9996,38.7501],[19.7496,38.9999],[19.2499,38.9996],[19.0001,38.7496],[19.0004,38.2499],[19.2504,38.0001],[19.7501,38.0004],[20,38.0005],[20,38.0005],[19.9999,38.2504]]]]}},{"type":"Feature","properties":{"depth":1000,"kind":"band"},"geometry":{"type":"MultiPolygon","coordinates":[[[[19.9999,38.2504],[19.9996,38.7501],[19.7496,38.9999],[19.2499,38.9996],[19.0001,38.7496],[19.0004,38.2499],[19.2504,38.0001],[19.7501,38.0004],[20,38.0005],[20,38.0005],[19.9999,38.2504]]]]}},{"type":"Feature","properties":{"depth":1500,"kind":"band"},"geometry":{"type":"MultiPolygon","coordinates":[[[[19.1233,38.8602],[19.128,38.8628],[19.1294,38.8655],[19.1275,38.8683],[19.1247,38.8686],[19.1208,38.8663],[19.1194,38.8635],[19.1204,38.8605],[19.121,38.8589],[19.121,38.8589],[19.1233,38.8602]]],[[[19.0756,38.8289],[19.0766,38.8315],[19.0752,38.8331],[19.0715,38.8336],[19.071,38.8323],[19.0737,38.8292],[19.0751,38.8276],[19.0751,38.8276],[19.0756,38.8289]]],[[[19.0955,38.8105],[19.0991,38.8136],[19.0985,38.816],[19.0936,38.8178],[19.0918,38.8162],[19.093,38.8114],[19.0937,38.8089],[19.0937,38.8089],[19.0955,38.8105]]],[[[19.7091,38.7676],[19.7061,38.7706],[19.7047,38.7707],[19.7047,38.7678],[19.7061,38.7663],[19.7091,38.7662],[19.7105,38.7661],[19.7105,38.7661],[19.7091,38.7676]]],[[[19.1587,38.765],[19.1581,38.7689],[19.1568,38.7696],[19.1549,38.7673],[19.1552,38.7653],[19.1577,38.7638],[19.159,38.763],[19.159,38.763],[19.1587,38.765]]],[[[19.9999,38.2504],[19.9996,38.7501],[19.9401,39],[19.8214,39],[19.7628,38.9947],[19.7644,38.984],[19.7616,38.9698],[19.7544,38.9521],[19.7563,38.9268],[19.7672,38.894],[19.7818,38.8654],[19.8001,38.8409],[19.7991,38.8255],[19.7788,38.8192],[19.7667,38.8044],[19.7628,38.7812],[19.7565,38.764],[19.7476,38.753],[19.731,38.7396],[19.7065,38.7238],[19.6805,38.7162],[19.6529,38.717],[19.6146,38.7118],[19.5656,38.7009],[19.525,38.7007],[19.4927,38.7112],[19.461,38.7106],[19.4297,38.6987],[19.4052,38.6921],[19.3875,38.6908],[19.3692,38.6939],[19.3505,38.7014],[19.3331,38.711],[19.317,38.7229],[19.3015,38.7368],[19.2866,38.7529],[19.2676,38.7791],[19.2444,38.8156],[19.2229,38.84],[19.2031,38.8523],[19.1805,38.8586],[19.155,38.859],[19.1396,38.8607],[19.1344,38.8638],[19.13,38.8632],[19.1263,38.8589],[19.1253,38.8553],[19.1268,38.8523],[19.1291,38.8515],[19.132,38.8529],[19.1327,38.8518],[19.1314,38.8481],[19.1329,38.8468],[19.1372,38.8479],[19.1433,38.8406],[19.151,38.825],[19.167,38.8058],[19.1914,38.7828],[19.2039,38.7662],[19.2044,38.7557],[19.2008,38.7507],[19.193,38.751],[19.1886,38.7479],[19.1875,38.7413],[19.1854,38.7374],[19.1823,38.7361],[19.1711,38.7411],[19.1518,38.7526],[19.1354,38.7594],[19.1219,38.7616],[19.1096,38.7681],[19.0987,38.7788],[19.0879,38.7839],[19.0772,38.7832],[19.0696,38.7857],[19.0652,38.7916],[19.0583,38.7952],[19.049,38.7966],[19.0403,38.8044],[19.0324,38.8185],[19.0214,38.8273],[19.0075,38.8308],[19.0005,38.6244],[19.0005,38.2082],[19.2504,38.0001],[19.7501,38.0004],[20,38.0005],[20,38.0005],[19.9999,38.2504]],[[19.8255,38.772],[19.8192,38.7737],[19.8148,38.7766],[19.8123,38.7807],[19.8152,38.7836],[19.8235,38.7851],[19.8288,38.7841],[19.8313,38.7804],[19.8315,38.7768],[19.8296,38.7731],[19.8286,38.7712],[19.8286,38.7712],[19.8255,38.772]]]]}},{"type":"Feature","properties":{"depth":1500,"kind":"isobath"},"geometry":{"type":"MultiLineString","coordinates":[[[19.121,38.8589],[19.1233,38.8602],[19.128,38.8628],[19.1294,38.8655],[19.1275,38.8683],[19.1247,38.8686],[19.1208,38.8663],[19.1194,38.8635],[19.1204,38.8605],[19.121,38.8589]],[[19.0751,38.8276],[19.0756,38.8289],[19.0766,38.8315],[19.0752,38.8331],[19.0715,38.8336],[19.071,38.8323],[19.0737,38.8292],[19.0751,38.8276]],[[19.0937,38.8089],[19.0955,38.8105],[19.0991,38.8136],[19.0985,38.816],[19.0936,38.8178],[19.0918,38.8162],[19.093,38.8114],[19.0937,38.8089]],[[19.7105,38.7661],[19.7091,38.7676],[19.7061,38.7706],[19.7047,38.7707],[19.7047,38.7678],[19.7061,38.7663],[19.7091,38.7662],[19.7105,38.7661]],[[19.159,38.763],[19.1587,38.765],[19.1581,38.7689],[19.1568,38.7696],[19.1549,38.7673],[19.1552,38.7653],[19.1577,38.7638],[19.159,38.763]],[[19.7652,38.9786],[19.7616,38.9698],[19.7544,38.9521],[19.7563,38.9268],[19.7672,38.894],[19.7818,38.8654],[19.8001,38.8409],[19.7991,38.8255],[19.7788,38.8192],[19.7667,38.8044],[19.7628,38.7812],[19.7565,38.764],[19.7476,38.753],[19.731,38.7396],[19.7065,38.7238],[19.6805,38.7162],[19.6529,38.717],[19.6146,38.7118],[19.5656,38.7009],[19.525,38.7007],[19.4927,38.7112],[19.461,38.7106],[19.4297,38.6987],[19.4052,38.6921],[19.3875,38.6908],[19.3692,38.6939],[19.3505,38.7014],[19.3331,38.711],[19.317,38.7229],[19.3015,38.7368],[19.2866,38.7529],[19.2676,38.7791],[19.2444,38.8156],[19.2229,38.84],[19.2031,38.8523],[19.1805,38.8586],[19.155,38.859],[19.1396,38.8607],[19.1344,38.8638],[19.13,38.8632],[19.1263,38.8589],[19.1253,38.8553],[19.1268,38.8523],[19.1291,38.8515],[19.132,38.8529],[19.1327,38.8518],[19.1314,38.8481],[19.1329,38.8468],[19.1372,38.8479],[19.1433,38.8406],[19.151,38.825],[19.167,38.8058],[19.1914,38.7828],[19.2039,38.7662],[19.2044,38.7557],[19.2008,38.7507],[19.193,38.751],[19.1886,38.7479],[19.1875,38.7413],[19.1854,38.7374],[19.1823,38.7361],[19.1711,38.7411],[19.1518,38.7526],[19.1354,38.7594],[19.1219,38.7616],[19.1096,38.7681],[19.0987,38.7788],[19.0879,38.7839],[19.0772,38.7832],[19.0696,38.7857],[19.0652,38.7916],[19.0583,38.7952],[19.049,38.7966],[19.0403,38.8044],[19.0324,38.8185],[19.0214,38.8273],[19.0075,38.8308],[19.0005,38.8326]],[[19.8286,38.7712],[19.8255,38.772],[19.8192,38.7737],[19.8148,38.7766],[19.8123,38.7807],[19.8152,38.7836],[19.8235,38.7851],[19.8288,38.7841],[19.8313,38.7804],[19.8315,38.7768],[19.8296,38.7731],[19.8286,38.7712]]]}},{"type":"Feature","properties":{"depth":2000,"kind":"band"},"geometry":{"type":"MultiPolygon","coordinates":[[[[19.1541,38.841],[19.1538,38.8449],[19.1523,38.8457],[19.1496,38.8434],[19.1498,38.8414],[19.1528,38.8399],[19.1543,38.8391],[19.1543,38.8391],[19.1541,38.841]]],[[[20,38.7657],[20,38.8333],[19.9949,38.8703],[19.9848,38.8763],[19.974,38.881],[19.9625,38.8842],[19.9565,38.8843],[19.956,38.8814],[19.9549,38.8832],[19.9534,38.8897],[19.9524,38.8889],[19.952,38.8807],[19.9476,38.8743],[19.9391,38.8697],[19.9246,38.8707],[19.9038,38.8774],[19.8947,38.8774],[19.8972,38.8708],[19.9089,38.8586],[19.93,38.8407],[19.94,38.8284],[19.939,38.8216],[19.9417,38.8151],[19.948,38.8088],[19.9534,38.8],[19.9577,38.7886],[19.9615,38.7845],[19.9646,38.7878],[19.9675,38.7888],[19.9703,38.7876],[19.9719,38.7836],[19.9723,38.7768],[19.9747,38.7721],[19.9791,38.7695],[19.9791,38.7651],[19.9746,38.7588],[19.9728,38.7518],[19.9739,38.744],[19.9783,38.7402],[19.9862,38.7406],[19.9883,38.7413],[19.9848,38.7426],[19.9848,38.7447],[19.9883,38.7476],[19.9906,38.7458],[19.9917,38.7392],[19.9942,38.7349],[19.9981,38.7328],[20,38.7318],[20,38.7318],[20,38.7657]]],[[[19.9999,38.7096],[19.9996,38.7235],[19.9977,38.7259],[19.994,38.7166],[19.9941,38.7097],[19.998,38.7049],[20,38.7026],[20,38.7026],[19.9999,38.7096]]],[[[19.9999,38.67],[19.9996,38.6777],[19.9983,38.6806],[19.9959,38.6786],[19.996,38.6747],[19.9987,38.669],[20,38.6661],[20,38.6661],[19.9999,38.67]]],[[[19.9402,38.663],[19.9371,38.663],[19.9371,38.663],[19.9402,38.663],[19.9417,38.663],[19.9417,38.663],[19.9402,38.663]]],[[[19.2123,38.6516],[19.2098,38.6516],[19.2098,38.6516],[19.2123,38.6516],[19.2135,38.6516],[19.2135,38.6516],[19.2123,38.6516]]],[[[19.0725,38.6146],[19.0707,38.6156],[19.0707,38.6156],[19.0725,38.6146],[19.0734,38.6141],[19.0734,38.6141],[19.0725,38.6146]]],[[[19.2239,38.5985],[19.2246,38.6026],[19.2232,38.605],[19.2199,38.6055],[19.2196,38.6035],[19.2223,38.5988],[19.2236,38.5964],[19.2236,38.5964],[19.2239,38.5985]]],[[[19.16,38.5959],[19.1613,38.5989],[19.1607,38.6018],[19.1581,38.6045],[19.1574,38.6029],[19.1587,38.5972],[19.1593,38.5943],[19.1593,38.5943],[19.16,38.5959]]],[[[19.1587,38.5873],[19.1574,38.59],[19.1574,38.59],[19.1587,38.5873],[19.1593,38.5859],[19.1593,38.5859],[19.1587,38.5873]]],[[[19.5972,38.5198],[19.593,38.5229],[19.593,38.5229],[19.5972,38.5198],[19.5993,38.5182],[19.5993,38.5182],[19.5972,38.5198]]],[[[19.7101,38.5138],[19.7056,38.5153],[19.7056,38.5153],[19.7101,38.5138],[19.7123,38.513],[19.7123,38.513],[19.7101,38.5138]]],[[[19.7242,38.5107],[19.7182,38.5122],[19.7182,38.5122],[19.7242,38.5107],[19.7271,38.5099],[19.7271,38.5099],[19.7242,38.5107]]],[[[19.9999,38.1666],[19.9996,38.4988],[19.9985,38.6603],[19.9964,38.651],[19.9909,38.6474],[19.982,38.6495],[19.9744,38.6487],[19.9681,38.645],[19.9647,38.6416],[19.9643,38.6385],[19.9695,38.6353],[19.9802,38.6323],[19.9802,38.6281],[19.9695,38.6228],[19.959,38.6226],[19.9489,38.6273],[19.9447,38.635],[19.9465,38.6454],[19.9419,38.6481],[19.9308,38.6428],[19.9244,38.6346],[19.9229,38.6237],[19.9233,38.6174],[19.9256,38.6159],[19.9246,38.6148],[19.9203,38.6144],[19.92,38.6133],[19.9236,38.6117],[19.9238,38.6101],[19.9204,38.6086],[19.9197,38.6065],[19.9218,38.6039],[19.9176,38.5995],[19.9071,38.5932],[19.901,38.5864],[19.8993,38.579],[19.8961,38.5759],[19.8914,38.577],[19.8915,38.576],[19.8962,38.573],[19.896,38.5714],[19.891,38.5714],[19.8904,38.5704],[19.8942,38.5683],[19.8917,38.5669],[19.883,38.5664],[19.8805,38.5651],[19.8843,38.563],[19.8865,38.5589],[19.8872,38.5526],[19.8814,38.5501],[19.8691,38.5512],[19.857,38.5485],[19.8451,38.5418],[19.838,38.5362],[19.8358,38.5319],[19.8365,38.5276],[19.8399,38.5235],[19.8389,38.5194],[19.8335,38.5155],[19.8273,38.5122],[19.8206,38.5095],[19.8143,38.5099],[19.8086,38.5134],[19.8036,38.5127],[19.7995,38.5079],[19.7952,38.5064],[19.7907,38.5081],[19.7874,38.5062],[19.785,38.5007],[19.7805,38.499],[19.7737,38.5011],[19.7682,38.5005],[19.7641,38.4972],[19.7585,38.4986],[19.7516,38.5047],[19.7505,38.5073],[19.7554,38.5064],[19.7565,38.5073],[19.7539,38.51],[19.7503,38.5102],[19.7456,38.5077],[19.7399,38.5074],[19.7334,38.5091],[19.7316,38.5083],[19.7345,38.5052],[19.7263,38.5058],[19.707,38.5101],[19.6927,38.5104],[19.6834,38.5066],[19.6771,38.5],[19.6741,38.4906],[19.6674,38.4828],[19.6571,38.4765],[19.6498,38.4687],[19.6455,38.4594],[19.6404,38.4535],[19.6347,38.4512],[19.6271,38.4515],[19.6177,38.4546],[19.6096,38.4597],[19.6029,38.4668],[19.5888,38.4735],[19.5675,38.4798],[19.5552,38.4852],[19.5521,38.4897],[19.5478,38.4909],[19.5425,38.489],[19.5405,38.4932],[19.542,38.5037],[19.5389,38.5135],[19.5314,38.5225],[19.5227,38.5273],[19.5127,38.5276],[19.5008,38.5233],[19.4867,38.5144],[19.4749,38.511],[19.4653,38.5131],[19.4627,38.5183],[19.4671,38.5266],[19.4688,38.5346],[19.4679,38.5425],[19.4629,38.555],[19.454,38.5723],[19.4435,38.5774],[19.4315,38.5704],[19.4232,38.5708],[19.4185,38.5788],[19.4125,38.5807],[19.4052,38.5766],[19.3977,38.5768],[19.3898,38.5813],[19.3833,38.5831],[19.3781,38.5824],[19.3734,38.5783],[19.3693,38.5709],[19.3584,38.5625],[19.3407,38.5531],[19.3326,38.5511],[19.3341,38.5563],[19.3292,38.5632],[19.3177,38.5715],[19.3091,38.576],[19.3034,38.5768],[19.2963,38.5736],[19.2879,38.5665],[19.2806,38.5631],[19.2745,38.5632],[19.2714,38.5612],[19.2714,38.557],[19.2638,38.5554],[19.2487,38.5561],[19.2395,38.5552],[19.2365,38.5527],[19.2315,38.5527],[19.2248,38.5552],[19.2173,38.5529],[19.2089,38.5458],[19.205,38.5373],[19.2055,38.5275],[19.2084,38.5202],[19.2139,38.5154],[19.2173,38.5091],[19.2186,38.5013],[19.2144,38.4971],[19.2045,38.4965],[19.1961,38.4983],[19.1892,38.5026],[19.1859,38.5076],[19.1863,38.5133],[19.182,38.5237],[19.1732,38.5388],[19.1637,38.5509],[19.1535,38.5599],[19.1435,38.5633],[19.1336,38.5611],[19.1247,38.5612],[19.1169,38.5637],[19.1114,38.5743],[19.1081,38.5932],[19.1018,38.6046],[19.0926,38.6085],[19.0849,38.6065],[19.0788,38.5983],[19.0681,38.5919],[19.0529,38.5872],[19.0491,38.5887],[19.0567,38.5966],[19.0596,38.6063],[19.0577,38.6178],[19.0521,38.6244],[19.0426,38.6259],[19.0348,38.6324],[19.0286,38.6441],[19.0191,38.6485],[19.0064,38.6457],[19.0001,38.4832],[19.0004,38.1611],[19.2504,38.0001],[19.7501,38.0004],[20,38.0005],[20,38.0005],[19.9999,38.1666]],[[19.1823,38.4905],[19.1834,38.4936],[19.1845,38.4938],[19.1858,38.4913],[19.1853,38.4898],[19.1829,38.4893],[19.1818,38.489],[19.1818,38.489],[19.1823,38.4905]],[[19.7204,38.4795],[19.7165,38.4817],[19.7165,38.4817],[19.7204,38.4795],[19.7224,38.4784],[19.7224,38.4784],[19.7204,38.4795]]]]}},{"type":"Feature","properties":{"depth":2000,"kind":"isobath"},"geometry":{"type":"MultiLineString","coordinates":[[[19.1543,38.8391],[19.1541,38.841],[19.1538,38.8449],[19.1523,38.8457],[19.1496,38.8434],[19.1498,38.8414],[19.1528,38.8399],[19.1543,38.8391]],[[19.9797,38.8794],[19.974,38.881],[19.9625,38.8842],[19.9565,38.8843],[19.956,38.8814],[19.9549,38.8832],[19.9534,38.8897],[19.9524,38.8889],[19.952,38.8807],[19.9476,38.8743],[19.9391,38.8697],[19.9246,38.8707],[19.9038,38.8774],[19.8947,38.8774],[19.8972,38.8708],[19.9089,38.8586],[19.93,38.8407],[19.94,38.8284],[19.939,38.8216],[19.9417,38.8151],[19.948,38.8088],[19.9534,38.8],[19.9577,38.7886],[19.9615,38.7845],[19.9646,38.7878],[19.9675,38.7888],[19.9703,38.7876],[19.9719,38.7836],[19.9723,38.7768],[19.9747,38.7721],[19.9791,38.7695],[19.9791,38.7651],[19.9746,38.7588],[19.9728,38.7518],[19.9739,38.744],[19.9783,38.7402],[19.9862,38.7406],[19.9883,38.7413],[19.9848,38.7426],[19.9848,38.7447],[19.9883,38.7476],[19.9906,38.7458],[19.9917,38.7392],[19.9922,38.7359]],[[19.9995,38.7305],[19.9921,38.712]],[[19.9995,38.6816],[19.9947,38.6776]],[[19.9417,38.663],[19.9402,38.663],[19.9371,38.663],[19.9371,38.663],[19.9402,38.663],[19.9417,38.663]],[[19.2135,38.6516],[19.2123,38.6516],[19.2098,38.6516],[19.2098,38.6516],[19.2123,38.6516],[19.2135,38.6516]],[[19.0734,38.6141],[19.0725,38.6146],[19.0707,38.6156],[19.0707,38.6156],[19.0725,38.6146],[19.0734,38.6141]],[[19.2236,38.5964],[19.2239,38.5985],[19.2246,38.6026],[19.2232,38.605],[19.2199,38.6055],[19.2196,38.6035],[19.2223,38.5988],[19.2236,38.5964]],[[19.1593,38.5943],[19.16,38.5959],[19.1613,38.5989],[19.1607,38.6018],[19.1581,38.6045],[19.1574,38.6029],[19.1587,38.5972],[19.1593,38.5943]],[[19.1593,38.5859],[19.1587,38.5873],[19.1574,38.59],[19.1574,38.59],[19.1587,38.5873],[19.1593,38.5859]],[[19.5993,38.5182],[19.5972,38.5198],[19.593,38.5229],[19.593,38.5229],[19.5972,38.5198],[19.5993,38.5182]],[[19.7123,38.513],[19.7101,38.5138],[19.7056,38.5153],[19.7056,38.5153],[19.7101,38.5138],[19.7123,38.513]],[[19.7271,38.5099],[19.7242,38.5107],[19.7182,38.5122],[19.7182,38.5122],[19.7242,38.5107],[19.7271,38.5099]],[[19.9995,38.6649],[19.9985,38.6603],[19.9964,38.651],[19.9909,38.6474],[19.982,38.6495],[19.9744,38.6487],[19.9681,38.645],[19.9647,38.6416],[19.9643,38.6385],[19.9695,38.6353],[19.9802,38.6323],[19.9802,38.6281],[19.9695,38.6228],[19.959,38.6226],[19.9489,38.6273],[19.9447,38.635],[19.9465,38.6454],[19.9419,38.6481],[19.9308,38.6428],[19.9244,38.6346],[19.9229,38.6237],[19.9233,38.6174],[19.9256,38.6159],[19.9246,38.6148],[19.9203,38.6144],[19.92,38.6133],[19.9236,38.6117],[19.9238,38.6101],[19.9204,38.6086],[19.9197,38.6065],[19.9218,38.6039],[19.9176,38.5995],[19.9071,38.5932],[19.901,38.5864],[19.8993,38.579],[19.8961,38.5759],[19.8914,38.577],[19.8915,38.576],[19.8962,38.573],[19.896,38.5714],[19.891,38.5714],[19.8904,38.5704],[19.8942,38.5683],[19.8917,38.5669],[19.883,38.5664],[19.8805,38.5651],[19.8843,38.563],[19.8865,38.5589],[19.8872,38.5526],[19.8814,38.5501],[19.8691,38.5512],[19.857,38.5485],[19.8451,38.5418],[19.838,38.5362],[19.8358,38.5319],[19.8365,38.5276],[19.8399,38.5235],[19.8389,38.5194],[19.8335,38.5155],[19.8273,38.5122],[19.8206,38.5095],[19.8143,38.5099],[19.8086,38.5134],[19.8036,38.5127],[19.7995,38.5079],[19.7952,38.5064],[19.7907,38.5081],[19.7874,38.5062],[19.785,38.5007],[19.7805,38.499],[19.7737,38.5011],[19.7682,38.5005],[19.7641,38.4972],[19.7585,38.4986],[19.7516,38.5047],[19.7505,38.5073],[19.7554,38.5064],[19.7565,38.5073],[19.7539,38.51],[19.7503,38.5102],[19.7456,38.5077],[19.7399,38.5074],[19.7334,38.5091],[19.7316,38.5083],[19.7345,38.5052],[19.7263,38.5058],[19.707,38.5101],[19.6927,38.5104],[19.6834,38.5066],[19.6771,38.5],[19.6741,38.4906],[19.6674,38.4828],[19.6571,38.4765],[19.6498,38.4687],[19.6455,38.4594],[19.6404,38.4535],[19.6347,38.4512],[19.6271,38.4515],[19.6177,38.4546],[19.6096,38.4597],[19.6029,38.4668],[19.5888,38.4735],[19.5675,38.4798],[19.5552,38.4852],[19.5521,38.4897],[19.5478,38.4909],[19.5425,38.489],[19.5405,38.4932],[19.542,38.5037],[19.5389,38.5135],[19.5314,38.5225],[19.5227,38.5273],[19.5127,38.5276],[19.5008,38.5233],[19.4867,38.5144],[19.4749,38.511],[19.4653,38.5131],[19.4627,38.5183],[19.4671,38.5266],[19.4688,38.5346],[19.4679,38.5425],[19.4629,38.555],[19.454,38.5723],[19.4435,38.5774],[19.4315,38.5704],[19.4232,38.5708],[19.4185,38.5788],[19.4125,38.5807],[19.4052,38.5766],[19.3977,38.5768],[19.3898,38.5813],[19.3833,38.5831],[19.3781,38.5824],[19.3734,38.5783],[19.3693,38.5709],[19.3584,38.5625],[19.3407,38.5531],[19.3326,38.5511],[19.3341,38.5563],[19.3292,38.5632],[19.3177,38.5715],[19.3091,38.576],[19.3034,38.5768],[19.2963,38.5736],[19.2879,38.5665],[19.2806,38.5631],[19.2745,38.5632],[19.2714,38.5612],[19.2714,38.557],[19.2638,38.5554],[19.2487,38.5561],[19.2395,38.5552],[19.2365,38.5527],[19.2315,38.5527],[19.2248,38.5552],[19.2173,38.5529],[19.2089,38.5458],[19.205,38.5373],[19.2055,38.5275],[19.2084,38.5202],[19.2139,38.5154],[19.2173,38.5091],[19.2186,38.5013],[19.2144,38.4971],[19.2045,38.4965],[19.1961,38.4983],[19.1892,38.5026],[19.1859,38.5076],[19.1863,38.5133],[19.182,38.5237],[19.1732,38.5388],[19.1637,38.5509],[19.1535,38.5599],[19.1435,38.5633],[19.1336,38.5611],[19.1247,38.5612],[19.1169,38.5637],[19.1114,38.5743],[19.1081,38.5932],[19.1018,38.6046],[19.0926,38.6085],[19.0849,38.6065],[19.0788,38.5983],[19.0681,38.5919],[19.0529,38.5872],[19.0491,38.5887],[19.0567,38.5966],[19.0596,38.6063],[19.0577,38.6178],[19.0521,38.6244],[19.0426,38.6259],[19.0348,38.6324],[19.0286,38.6441],[19.0255,38.6499]],[[19.1818,38.489],[19.1823,38.4905],[19.1834,38.4936],[19.1845,38.4938],[19.1858,38.4913],[19.1853,38.4898],[19.1829,38.4893],[19.1818,38.489]],[[19.7224,38.4784],[19.7204,38.4795],[19.7165,38.4817],[19.7165,38.4817],[19.7204,38.4795],[19.7224,38.4784]]]}},{"type":"Feature","properties":{"depth":3000,"kind":"band"},"geometry":{"type":"MultiPolygon","coordinates":[[[[19.0179,38.5768],[19.0125,38.5857],[19.0139,38.5932],[19.0218,38.5995],[19.0212,38.6044],[19.0121,38.6081],[19.0074,38.6136],[19.0073,38.6209],[19.0054,38.625],[19.0018,38.6261],[19,38.6131],[19,38.586],[19.0051,38.5724],[19.0154,38.5724],[19.0205,38.5724],[19.0205,38.5724],[19.0179,38.5768]],[[19.0047,38.5827],[19.0026,38.585],[19.0026,38.585],[19.0047,38.5827],[19.0057,38.5816],[19.0057,38.5816],[19.0047,38.5827]]],[[[19.1283,38.5034],[19.1237,38.5071],[19.1237,38.5071],[19.1283,38.5034],[19.1306,38.5016],[19.1306,38.5016],[19.1283,38.5034]]],[[[20,38.0575],[20,38.1716],[19.9968,38.2278],[19.9903,38.2261],[19.9875,38.2243],[19.9885,38.2224],[19.987,38.2206],[19.9831,38.219],[19.9821,38.2174],[19.984,38.2157],[19.9685,38.2133],[19.9357,38.2101],[19.9128,38.2063],[19.8997,38.2019],[19.8872,38.1931],[19.8753,38.1798],[19.8654,38.1719],[19.8575,38.1694],[19.8489,38.1675],[19.8396,38.1662],[19.8333,38.1689],[19.8301,38.1754],[19.8257,38.1785],[19.82,38.1782],[19.8162,38.175],[19.814,38.1687],[19.8099,38.1663],[19.8036,38.168],[19.7987,38.1663],[19.795,38.1612],[19.7909,38.1589],[19.7862,38.1593],[19.7834,38.1575],[19.7823,38.1534],[19.778,38.1519],[19.7704,38.153],[19.7662,38.1606],[19.7653,38.1748],[19.7676,38.1873],[19.7733,38.1982],[19.7727,38.2049],[19.766,38.2076],[19.7617,38.2128],[19.7598,38.2207],[19.7508,38.2238],[19.7347,38.2223],[19.718,38.2163],[19.7008,38.2058],[19.6841,38.2016],[19.668,38.2036],[19.6531,38.1998],[19.6396,38.1901],[19.6286,38.187],[19.6203,38.1905],[19.6138,38.1914],[19.6091,38.1899],[19.602,38.192],[19.5926,38.1976],[19.587,38.2039],[19.5852,38.2107],[19.5823,38.2141],[19.5781,38.2141],[19.5784,38.2211],[19.5833,38.2352],[19.5949,38.2461],[19.6132,38.2539],[19.6279,38.2571],[19.6388,38.2557],[19.6449,38.2573],[19.6461,38.2618],[19.6503,38.2664],[19.6576,38.2711],[19.6583,38.2745],[19.6523,38.2766],[19.6502,38.2792],[19.6517,38.2823],[19.6572,38.2862],[19.6666,38.2909],[19.6748,38.2914],[19.6815,38.2877],[19.6912,38.287],[19.7038,38.2891],[19.7076,38.2914],[19.7025,38.294],[19.6995,38.2979],[19.6987,38.3031],[19.7015,38.3073],[19.708,38.3104],[19.7122,38.3144],[19.7143,38.3191],[19.7108,38.3254],[19.7019,38.3335],[19.6932,38.3379],[19.6849,38.3387],[19.6788,38.3409],[19.6749,38.3446],[19.6779,38.3527],[19.6878,38.3652],[19.688,38.3765],[19.6782,38.3867],[19.6669,38.3938],[19.6539,38.3978],[19.6443,38.3944],[19.638,38.3837],[19.6206,38.3764],[19.5919,38.3725],[19.5719,38.3636],[19.5604,38.3496],[19.5362,38.3486],[19.4992,38.3607],[19.4744,38.3645],[19.462,38.36],[19.4513,38.3587],[19.4424,38.3608],[19.4361,38.366],[19.4324,38.3744],[19.4321,38.3819],[19.4354,38.3887],[19.4474,38.395],[19.4682,38.401],[19.4882,38.4146],[19.5073,38.4358],[19.5259,38.4467],[19.544,38.4472],[19.5542,38.4513],[19.5563,38.4591],[19.5501,38.4629],[19.5358,38.4626],[19.5236,38.4649],[19.5136,38.4699],[19.5076,38.474],[19.5056,38.4771],[19.5068,38.4844],[19.5113,38.4959],[19.5121,38.5029],[19.5092,38.5054],[19.5039,38.5062],[19.4961,38.5053],[19.4883,38.5015],[19.4805,38.4946],[19.4722,38.4899],[19.4633,38.4874],[19.4584,38.4885],[19.4573,38.4933],[19.4537,38.4942],[19.4474,38.4914],[19.4427,38.4908],[19.4396,38.4925],[19.4359,38.4912],[19.4318,38.4872],[19.4258,38.4854],[19.418,38.4861],[19.4138,38.4881],[19.4132,38.4915],[19.4169,38.4958],[19.4248,38.501],[19.4329,38.5101],[19.4412,38.5231],[19.4453,38.532],[19.4452,38.5367],[19.4432,38.5407],[19.4391,38.544],[19.431,38.5442],[19.419,38.5415],[19.411,38.5443],[19.4071,38.5526],[19.4024,38.5575],[19.397,38.5589],[19.392,38.5587],[19.3872,38.5569],[19.3831,38.5527],[19.3794,38.5461],[19.3758,38.5439],[19.3721,38.5461],[19.3627,38.5437],[19.3477,38.5367],[19.3346,38.5336],[19.3237,38.5344],[19.3146,38.5396],[19.3073,38.5491],[19.2979,38.5478],[19.2864,38.5358],[19.2766,38.5317],[19.2682,38.5356],[19.2597,38.5368],[19.2508,38.5351],[19.2439,38.53],[19.2389,38.5215],[19.2427,38.5081],[19.2553,38.4898],[19.2579,38.4805],[19.2505,38.48],[19.2472,38.4698],[19.248,38.45],[19.2458,38.4383],[19.2405,38.4346],[19.2389,38.4305],[19.241,38.4258],[19.2355,38.42],[19.2226,38.4131],[19.2109,38.4106],[19.2005,38.4123],[19.1948,38.4171],[19.1937,38.4251],[19.1823,38.4302],[19.1604,38.4324],[19.1466,38.4324],[19.1409,38.4301],[19.1362,38.4316],[19.1325,38.437],[19.1248,38.4393],[19.1129,38.4384],[19.1062,38.4393],[19.1046,38.4419],[19.1082,38.4492],[19.1172,38.4612],[19.1216,38.4748],[19.1215,38.4898],[19.1201,38.4986],[19.1174,38.5009],[19.1096,38.5012],[19.0966,38.4996],[19.0888,38.4969],[19.0861,38.493],[19.0856,38.4896],[19.0874,38.4865],[19.081,38.4827],[19.0663,38.4782],[19.0591,38.479],[19.0594,38.485],[19.0568,38.4876],[19.0512,38.4869],[19.0474,38.4895],[19.0453,38.4957],[19.0414,38.4984],[19.0354,38.4977],[19.0297,38.4943],[19.0242,38.4881],[19.0191,38.4856],[19.0144,38.4867],[19.0111,38.4903],[19.0092,38.4964],[19.0099,38.5021],[19.013,38.5073],[19.0109,38.5099],[19.0036,38.5099],[19.0001,38.3824],[19.0004,38.1275],[19.2504,38.0001],[19.7501,38.0004],[20,38.0005],[20,38.0005],[20,38.0575]],[[19.0416,38.2919],[19.03,38.2956],[19.0233,38.3],[19.0213,38.3052],[19.0215,38.3102],[19.0237,38.3149],[19.0294,38.3191],[19.0386,38.3229],[19.0473,38.3232],[19.0555,38.3199],[19.0603,38.3141],[19.0616,38.3057],[19.0585,38.2987],[19.0511,38.2929],[19.0474,38.29],[19.0474,38.29],[19.0416,38.2919]]]]}},{"type":"Feature","properties":{"depth":3000,"kind":"isobath"},"geometry":{"type":"MultiLineString","coordinates":[[[19.0205,38.5724],[19.0205,38.5724],[19.0205,38.5724],[19.0179,38.5768],[19.0125,38.5857],[19.0139,38.5932],[19.0218,38.5995],[19.0212,38.6044],[19.0121,38.6081],[19.0074,38.6136],[19.0073,38.6209],[19.0072,38.6245]],[[19.0057,38.5816],[19.0047,38.5827],[19.0026,38.585],[19.0026,38.585],[19.0047,38.5827],[19.0057,38.5816]],[[19.1306,38.5016],[19.1283,38.5034],[19.1237,38.5071],[19.1237,38.5071],[19.1283,38.5034],[19.1306,38.5016]],[[19.987,38.2253],[19.9875,38.2243],[19.9885,38.2224],[19.987,38.2206],[19.9831,38.219],[19.9821,38.2174],[19.984,38.2157],[19.9685,38.2133],[19.9357,38.2101],[19.9128,38.2063],[19.8997,38.2019],[19.8872,38.1931],[19.8753,38.1798],[19.8654,38.1719],[19.8575,38.1694],[19.8489,38.1675],[19.8396,38.1662],[19.8333,38.1689],[19.8301,38.1754],[19.8257,38.1785],[19.82,38.1782],[19.8162,38.175],[19.814,38.1687],[19.8099,38.1663],[19.8036,38.168],[19.7987,38.1663],[19.795,38.1612],[19.7909,38.1589],[19.7862,38.1593],[19.7834,38.1575],[19.7823,38.1534],[19.778,38.1519],[19.7704,38.153],[19.7662,38.1606],[19.7653,38.1748],[19.7676,38.1873],[19.7733,38.1982],[19.7727,38.2049],[19.766,38.2076],[19.7617,38.2128],[19.7598,38.2207],[19.7508,38.2238],[19.7347,38.2223],[19.718,38.2163],[19.7008,38.2058],[19.6841,38.2016],[19.668,38.2036],[19.6531,38.1998],[19.6396,38.1901],[19.6286,38.187],[19.6203,38.1905],[19.6138,38.1914],[19.6091,38.1899],[19.602,38.192],[19.5926,38.1976],[19.587,38.2039],[19.5852,38.2107],[19.5823,38.2141],[19.5781,38.2141],[19.5784,38.2211],[19.5833,38.2352],[19.5949,38.2461],[19.6132,38.2539],[19.6279,38.2571],[19.6388,38.2557],[19.6449,38.2573],[19.6461,38.2618],[19.6503,38.2664],[19.6576,38.2711],[19.6583,38.2745],[19.6523,38.2766],[19.6502,38.2792],[19.6517,38.2823],[19.6572,38.2862],[19.6666,38.2909],[19.6748,38.2914],[19.6815,38.2877],[19.6912,38.287],[19.7038,38.2891],[19.7076,38.2914],[19.7025,38.294],[19.6995,38.2979],[19.6987,38.3031],[19.7015,38.3073],[19.708,38.3104],[19.7122,38.3144],[19.7143,38.3191],[19.7108,38.3254],[19.7019,38.3335],[19.6932,38.3379],[19.6849,38.3387],[19.6788,38.3409],[19.6749,38.3446],[19.6779,38.3527],[19.6878,38.3652],[19.688,38.3765],[19.6782,38.3867],[19.6669,38.3938],[19.6539,38.3978],[19.6443,38.3944],[19.638,38.3837],[19.6206,38.3764],[19.5919,38.3725],[19.5719,38.3636],[19.5604,38.3496],[19.5362,38.3486],[19.4992,38.3607],[19.4744,38.3645],[19.462,38.36],[19.4513,38.3587],[19.4424,38.3608],[19.4361,38.366],[19.4324,38.3744],[19.4321,38.3819],[19.4354,38.3887],[19.4474,38.395],[19.4682,38.401],[19.4882,38.4146],[19.5073,38.4358],[19.5259,38.4467],[19.544,38.4472],[19.5542,38.4513],[19.5563,38.4591],[19.5501,38.4629],[19.5358,38.4626],[19.5236,38.4649],[19.5136,38.4699],[19.5076,38.474],[19.5056,38.4771],[19.5068,38.4844],[19.5113,38.4959],[19.5121,38.5029],[19.5092,38.5054],[19.5039,38.5062],[19.4961,38.5053],[19.4883,38.5015],[19.4805,38.4946],[19.4722,38.4899],[19.4633,38.4874],[19.4584,38.4885],[19.4573,38.4933],[19.4537,38.4942],[19.4474,38.4914],[19.4427,38.4908],[19.4396,38.4925],[19.4359,38.4912],[19.4318,38.4872],[19.4258,38.4854],[19.418,38.4861],[19.4138,38.4881],[19.4132,38.4915],[19.4169,38.4958],[19.4248,38.501],[19.4329,38.5101],[19.4412,38.5231],[19.4453,38.532],[19.4452,38.5367],[19.4432,38.5407],[19.4391,38.544],[19.431,38.5442],[19.419,38.5415],[19.411,38.5443],[19.4071,38.5526],[19.4024,38.5575],[19.397,38.5589],[19.392,38.5587],[19.3872,38.5569],[19.3831,38.5527],[19.3794,38.5461],[19.3758,38.5439],[19.3721,38.5461],[19.3627,38.5437],[19.3477,38.5367],[19.3346,38.5336],[19.3237,38.5344],[19.3146,38.5396],[19.3073,38.5491],[19.2979,38.5478],[19.2864,38.5358],[19.2766,38.5317],[19.2682,38.5356],[19.2597,38.5368],[19.2508,38.5351],[19.2439,38.53],[19.2389,38.5215],[19.2427,38.5081],[19.2553,38.4898],[19.2579,38.4805],[19.2505,38.48],[19.2472,38.4698],[19.248,38.45],[19.2458,38.4383],[19.2405,38.4346],[19.2389,38.4305],[19.241,38.4258],[19.2355,38.42],[19.2226,38.4131],[19.2109,38.4106],[19.2005,38.4123],[19.1948,38.4171],[19.1937,38.4251],[19.1823,38.4302],[19.1604,38.4324],[19.1466,38.4324],[19.1409,38.4301],[19.1362,38.4316],[19.1325,38.437],[19.1248,38.4393],[19.1129,38.4384],[19.1062,38.4393],[19.1046,38.4419],[19.1082,38.4492],[19.1172,38.4612],[19.1216,38.4748],[19.1215,38.4898],[19.1201,38.4986],[19.1174,38.5009],[19.1096,38.5012],[19.0966,38.4996],[19.0888,38.4969],[19.0861,38.493],[19.0856,38.4896],[19.0874,38.4865],[19.081,38.4827],[19.0663,38.4782],[19.0591,38.479],[19.0594,38.485],[19.0568,38.4876],[19.0512,38.4869],[19.0474,38.4895],[19.0453,38.4957],[19.0414,38.4984],[19.0354,38.4977],[19.0297,38.4943],[19.0242,38.4881],[19.0191,38.4856],[19.0144,38.4867],[19.0111,38.4903],[19.0092,38.4964],[19.0099,38.5021],[19.013,38.5073],[19.0145,38.5099]],[[19.0474,38.29],[19.0416,38.2919],[19.03,38.2956],[19.0233,38.3],[19.0213,38.3052],[19.0215,38.3102],[19.0237,38.3149],[19.0294,38.3191],[19.0386,38.3229],[19.0473,38.3232],[19.0555,38.3199],[19.0603,38.3141],[19.0616,38.3057],[19.0585,38.2987],[19.0511,38.2929],[19.0474,38.29]]]}}]}