{"type":"FeatureCollection","features":[{"type":"Feature","properties":{"depth":5,"kind":"band"},"geometry":{"type":"MultiPolygon","coordinates":[[[[20,34.0005],[20,34.9995],[19.9995,35],[19.0005,35],[19,34.9995],[19,34.0005],[19.0005,34],[19.9995,34],[20,34.0005]]]]}},{"type":"Feature","properties":{"depth":10,"kind":"band"},"geometry":{"type":"MultiPolygon","coordinates":[[[[20,34.0005],[20,34.9995],[19.9995,35],[19.0005,35],[19,34.9995],[19,34.0005],[19.0005,34],[19.9995,34],[20,34.0005]]]]}},{"type":"Feature","properties":{"depth":20,"kind":"band"},"geometry":{"type":"MultiPolygon","coordinates":[[[[20,34.0005],[20,34.9995],[19.9995,35],[19.0005,35],[19,34.9995],[19,34.0005],[19.0005,34],[19.9995,34],[20,34.0005]]]]}},{"type":"Feature","properties":{"depth":30,"kind":"band"},"geometry":{"type":"MultiPolygon","coordinates":[[[[20,34.0005],[20,34.9995],[19.9995,35],[19.0005,35],[19,34.9995],[19,34.0005],[19.0005,34],[19.9995,34],[20,34.0005]]]]}},{"type":"Feature","properties":{"depth":40,"kind":"band"},"geometry":{"type":"MultiPolygon","coordinates":[[[[20,34.0005],[20,34.9995],[19.9995,35],[19.0005,35],[19,34.9995],[19,34.0005],[19.0005,34],[19.9995,34],[20,34.0005]]]]}},{"type":"Feature","properties":{"depth":50,"kind":"band"},"geometry":{"type":"MultiPolygon","coordinates":[[[[20,34.0005],[20,34.9995],[19.9995,35],[19.0005,35],[19,34.9995],[19,34.0005],[19.0005,34],[19.9995,34],[20,34.0005]]]]}},{"type":"Feature","properties":{"depth":75,"kind":"band"},"geometry":{"type":"MultiPolygon","coordinates":[[[[20,34.0005],[20,34.9995],[19.9995,35],[19.0005,35],[19,34.9995],[19,34.0005],[19.0005,34],[19.9995,34],[20,34.0005]]]]}},{"type":"Feature","properties":{"depth":100,"kind":"band"},"geometry":{"type":"MultiPolygon","coordinates":[[[[20,34.0005],[20,34.9995],[19.9995,35],[19.0005,35],[19,34.9995],[19,34.0005],[19.0005,34],[19.9995,34],[20,34.0005]]]]}},{"type":"Feature","properties":{"depth":150,"kind":"band"},"geometry":{"type":"MultiPolygon","coordinates":[[[[20,34.0005],[20,34.9995],[19.9995,35],[19.0005,35],[19,34.9995],[19,34.0005],[19.0005,34],[19.9995,34],[20,34.0005]]]]}},{"type":"Feature","properties":{"depth":200,"kind":"band"},"geometry":{"type":"MultiPolygon","coordinates":[[[[20,34.0005],[20,34.9995],[19.9995,35],[19.0005,35],[19,34.9995],[19,34.0005],[19.0005,34],[19.9995,34],[20,34.0005]]]]}}]}