{"type":"FeatureCollection","features":[{"type":"Feature","properties":{"depth":5,"kind":"band"},"geometry":{"type":"MultiPolygon","coordinates":[[[[20.9999,36.2504],[20.9996,36.7501],[20.7496,36.9999],[20.2499,36.9996],[20.0001,36.7496],[20.0004,36.2499],[20.2504,36.0001],[20.7501,36.0004],[21,36.0005],[21,36.0005],[20.9999,36.2504]]]]}},{"type":"Feature","properties":{"depth":10,"kind":"band"},"geometry":{"type":"MultiPolygon","coordinates":[[[[20.9999,36.2504],[20.9996,36.7501],[20.7496,36.9999],[20.2499,36.9996],[20.0001,36.7496],[20.0004,36.2499],[20.2504,36.0001],[20.7501,36.0004],[21,36.0005],[21,36.0005],[20.9999,36.2504]]]]}},{"type":"Feature","properties":{"depth":15,"kind":"band"},"geometry":{"type":"MultiPolygon","coordinates":[[[[20.9999,36.2504],[20.9996,36.7501],[20.7496,36.9999],[20.2499,36.9996],[20.0001,36.7496],[20.0004,36.2499],[20.2504,36.0001],[20.7501,36.0004],[21,36.0005],[21,36.0005],[20.9999,36.2504]]]]}},{"type":"Feature","properties":{"depth":20,"kind":"band"},"geometry":{"type":"MultiPolygon","coordinates":[[[[20.9999,36.2504],[20.9996,36.7501],[20.7496,36.9999],[20.2499,36.9996],[20.0001,36.7496],[20.0004,36.2499],[20.2504,36.0001],[20.7501,36.0004],[21,36.0005],[21,36.0005],[20.9999,36.2504]]]]}},{"type":"Feature","properties":{"depth":25,"kind":"band"},"geometry":{"type":"MultiPolygon","coordinates":[[[[20.9999,36.2504],[20.9996,36.7501],[20.7496,36.9999],[20.2499,36.9996],[20.0001,36.7496],[20.0004,36.2499],[20.2504,36.0001],[20.7501,36.0004],[21,36.0005],[21,36.0005],[20.9999,36.2504]]]]}},{"type":"Feature","properties":{"depth":30,"kind":"band"},"geometry":{"type":"MultiPolygon","coordinates":[[[[20.9999,36.2504],[20.9996,36.7501],[20.7496,36.9999],[20.2499,36.9996],[20.0001,36.7496],[20.0004,36.2499],[20.2504,36.0001],[20.7501,36.0004],[21,36.0005],[21,36.0005],[20.9999,36.2504]]]]}},{"type":"Feature","properties":{"depth":40,"kind":"band"},"geometry":{"type":"MultiPolygon","coordinates":[[[[20.9999,36.2504],[20.9996,36.7501],[20.7496,36.9999],[20.2499,36.9996],[20.0001,36.7496],[20.0004,36.2499],[20.2504,36.0001],[20.7501,36.0004],[21,36.0005],[21,36.0005],[20.9999,36.2504]]]]}},{"type":"Feature","properties":{"depth":50,"kind":"band"},"geometry":{"type":"MultiPolygon","coordinates":[[[[20.9999,36.2504],[20.9996,36.7501],[20.7496,36.9999],[20.2499,36.9996],[20.0001,36.7496],[20.0004,36.2499],[20.2504,36.0001],[20.7501,36.0004],[21,36.0005],[21,36.0005],[20.9999,36.2504]]]]}},{"type":"Feature","properties":{"depth":60,"kind":"band"},"geometry":{"type":"MultiPolygon","coordinates":[[[[20.9999,36.2504],[20.9996,36.7501],[20.7496,36.9999],[20.2499,36.9996],[20.0001,36.7496],[20.0004,36.2499],[20.2504,36.0001],[20.7501,36.0004],[21,36.0005],[21,36.0005],[20.9999,36.2504]]]]}},{"type":"Feature","properties":{"depth":75,"kind":"band"},"geometry":{"type":"MultiPolygon","coordinates":[[[[20.9999,36.2504],[20.9996,36.7501],[20.7496,36.9999],[20.2499,36.9996],[20.0001,36.7496],[20.0004,36.2499],[20.2504,36.0001],[20.7501,36.0004],[21,36.0005],[21,36.0005],[20.9999,36.2504]]]]}},{"type":"Feature","properties":{"depth":100,"kind":"band"},"geometry":{"type":"MultiPolygon","coordinates":[[[[20.9999,36.2504],[20.9996,36.7501],[20.7496,36.9999],[20.2499,36.9996],[20.0001,36.7496],[20.0004,36.2499],[20.2504,36.0001],[20.7501,36.0004],[21,36.0005],[21,36.0005],[20.9999,36.2504]]]]}},{"type":"Feature","properties":{"depth":150,"kind":"band"},"geometry":{"type":"MultiPolygon","coordinates":[[[[20.9999,36.2504],[20.9996,36.7501],[20.7496,36.9999],[20.2499,36.9996],[20.0001,36.7496],[20.0004,36.2499],[20.2504,36.0001],[20.7501,36.0004],[21,36.0005],[21,36.0005],[20.9999,36.2504]]]]}},{"type":"Feature","properties":{"depth":200,"kind":"band"},"geometry":{"type":"MultiPolygon","coordinates":[[[[20.9999,36.2504],[20.9996,36.7501],[20.7496,36.9999],[20.2499,36.9996],[20.0001,36.7496],[20.0004,36.2499],[20.2504,36.0001],[20.7501,36.0004],[21,36.0005],[21,36.0005],[20.9999,36.2504]]]]}},{"type":"Feature","properties":{"depth":300,"kind":"band"},"geometry":{"type":"MultiPolygon","coordinates":[[[[20.9999,36.2504],[20.9996,36.7501],[20.7496,36.9999],[20.2499,36.9996],[20.0001,36.7496],[20.0004,36.2499],[20.2504,36.0001],[20.7501,36.0004],[21,36.0005],[21,36.0005],[20.9999,36.2504]]]]}},{"type":"Feature","properties":{"depth":500,"kind":"band"},"geometry":{"type":"MultiPolygon","coordinates":[[[[20.9999,36.2504],[20.9996,36.7501],[20.7496,36.9999],[20.2499,36.9996],[20.0001,36.7496],[20.0004,36.2499],[20.2504,36.0001],[20.7501,36.0004],[21,36.0005],[21,36.0005],[20.9999,36.2504]]]]}},{"type":"Feature","properties":{"depth":750,"kind":"band"},"geometry":{"type":"MultiPolygon","coordinates":[[[[20.9999,36.2504],[20.9996,36.7501],[20.7496,36.9999],[20.2499,36.9996],[20.0001,36.7496],[20.0004,36.2499],[20.2504,36.0001],[20.7501,36.0004],[21,36.0005],[21,36.0005],[20.9999,36.2504]]]]}},{"type":"Feature","properties":{"depth":1000,"kind":"band"},"geometry":{"type":"MultiPolygon","coordinates":[[[[20.9999,36.2504],[20.9996,36.7501],[20.7496,36.9999],[20.2499,36.9996],[20.0001,36.7496],[20.0004,36.2499],[20.2504,36.0001],[20.7501,36.0004],[21,36.0005],[21,36.0005],[20.9999,36.2504]]]]}},{"type":"Feature","properties":{"depth":1500,"kind":"band"},"geometry":{"type":"MultiPolygon","coordinates":[[[[20.9999,36.2504],[20.9996,36.7501],[20.7496,36.9999],[20.2499,36.9996],[20.0001,36.7496],[20.0004,36.2499],[20.2504,36.0001],[20.7501,36.0004],[21,36.0005],[21,36.0005],[20.9999,36.2504]]]]}},{"type":"Feature","properties":{"depth":2000,"kind":"band"},"geometry":{"type":"MultiPolygon","coordinates":[[[[20.9999,36.2504],[20.9996,36.7501],[20.7496,36.9999],[20.2499,36.9996],[20.0001,36.7496],[20.0004,36.2499],[20.2504,36.0001],[20.7501,36.0004],[21,36.0005],[21,36.0005],[20.9999,36.2504]]]]}},{"type":"Feature","properties":{"depth":3000,"kind":"band"},"geometry":{"type":"MultiPolygon","coordinates":[[[[20.8018,36.9783],[20.8037,36.9818],[20.8022,36.9826],[20.7971,36.9807],[20.7961,36.9789],[20.7993,36.9774],[20.8008,36.9766],[20.8008,36.9766],[20.8018,36.9783]]],[[[20.8197,36.9695],[20.8206,36.9721],[20.8201,36.9727],[20.8182,36.9712],[20.8159,36.973],[20.8133,36.9779],[20.8098,36.9796],[20.8053,36.9783],[20.8071,36.9753],[20.8152,36.9706],[20.8192,36.9682],[20.8192,36.9682],[20.8197,36.9695]]],[[[20.5284,36.9684],[20.5258,36.9728],[20.5242,36.9734],[20.5235,36.9699],[20.5247,36.9677],[20.5281,36.9666],[20.5297,36.9661],[20.5297,36.9661],[20.5284,36.9684]]],[[[20.8097,36.943],[20.8112,36.9529],[20.8097,36.9594],[20.805,36.9626],[20.7992,36.9639],[20.7925,36.9633],[20.7886,36.9645],[20.7875,36.9674],[20.7844,36.9679],[20.7791,36.966],[20.7757,36.9622],[20.7742,36.9563],[20.7771,36.9512],[20.7844,36.9467],[20.7904,36.9458],[20.7951,36.9486],[20.8003,36.947],[20.806,36.941],[20.8089,36.938],[20.8089,36.938],[20.8097,36.943]]],[[[20.2287,36.8464],[20.2258,36.8464],[20.2258,36.8464],[20.2287,36.8464],[20.2302,36.8464],[20.2302,36.8464],[20.2287,36.8464]]],[[[20.2176,36.8384],[20.2166,36.8413],[20.2153,36.8415],[20.2136,36.8392],[20.2141,36.8378],[20.2168,36.8373],[20.2181,36.837],[20.2181,36.837],[20.2176,36.8384]]],[[[20.3815,36.8151],[20.3774,36.8172],[20.3774,36.8172],[20.3815,36.8151],[20.3835,36.8141],[20.3835,36.8141],[20.3815,36.8151]]],[[[20.3529,36.8089],[20.359,36.813],[20.3587,36.8159],[20.352,36.8174],[20.3477,36.8164],[20.3458,36.8127],[20.3461,36.8099],[20.3486,36.8078],[20.3499,36.8068],[20.3499,36.8068],[20.3529,36.8089]]],[[[20.3882,36.8052],[20.386,36.8063],[20.386,36.8063],[20.3882,36.8052],[20.3893,36.8047],[20.3893,36.8047],[20.3882,36.8052]]],[[[20.3693,36.8021],[20.3607,36.8052],[20.3607,36.8052],[20.3693,36.8021],[20.3736,36.8005],[20.3736,36.8005],[20.3693,36.8021]]],[[[20.387,36.7894],[20.3849,36.7899],[20.3849,36.7899],[20.387,36.7894],[20.388,36.7891],[20.388,36.7891],[20.387,36.7894]]],[[[20.3689,36.7766],[20.3719,36.783],[20.3698,36.7846],[20.3625,36.7813],[20.361,36.7781],[20.3653,36.775],[20.3674,36.7734],[20.3674,36.7734],[20.3689,36.7766]]],[[[20.3586,36.7664],[20.3565,36.7669],[20.3565,36.7669],[20.3586,36.7664],[20.3596,36.7661],[20.3596,36.7661],[20.3586,36.7664]]],[[[20.4687,36.7422],[20.4662,36.7443],[20.4662,36.7443],[20.4687,36.7422],[20.4699,36.7411],[20.4699,36.7411],[20.4687,36.7422]]],[[[20.2865,36.7183],[20.2892,36.7204],[20.2897,36.7227],[20.2879,36.7254],[20.2865,36.7243],[20.2856,36.7196],[20.2851,36.7172],[20.2851,36.7172],[20.2865,36.7183]]],[[[20.1499,36.7149],[20.1468,36.7164],[20.1468,36.7164],[20.1499,36.7149],[20.1515,36.7141],[20.1515,36.7141],[20.1499,36.7149]]],[[[20.5953,36.7148],[20.5962,36.7227],[20.594,36.728],[20.5886,36.7309],[20.5836,36.7296],[20.5789,36.7241],[20.5812,36.7188],[20.5902,36.7135],[20.5948,36.7109],[20.5948,36.7109],[20.5953,36.7148]]],[[[20.1555,36.7064],[20.155,36.7097],[20.155,36.7097],[20.1555,36.7064],[20.1557,36.7047],[20.1557,36.7047],[20.1555,36.7064]]],[[[20.4051,36.6893],[20.4,36.698],[20.4,36.698],[20.4051,36.6893],[20.4076,36.6849],[20.4076,36.6849],[20.4051,36.6893]]],[[[20.637,36.6805],[20.6375,36.6862],[20.6412,36.69],[20.6481,36.6919],[20.6505,36.694],[20.6484,36.6963],[20.6411,36.6996],[20.6286,36.704],[20.6177,36.7051],[20.6083,36.7028],[20.6119,36.6956],[20.6285,36.6836],[20.6368,36.6776],[20.6368,36.6776],[20.637,36.6805]]],[[[20.6738,36.6668],[20.6687,36.6723],[20.6666,36.6726],[20.6677,36.6676],[20.6702,36.6649],[20.6743,36.6644],[20.6763,36.6641],[20.6763,36.6641],[20.6738,36.6668]]],[[[20.6132,36.6579],[20.5985,36.6746],[20.5849,36.6847],[20.5724,36.688],[20.5716,36.6838],[20.5825,36.6719],[20.594,36.6618],[20.606,36.6535],[20.6142,36.6494],[20.6185,36.6495],[20.6206,36.6495],[20.6206,36.6495],[20.6132,36.6579]]],[[[20.5874,36.6289],[20.5918,36.6336],[20.5899,36.6351],[20.5818,36.6336],[20.5796,36.6313],[20.5833,36.6282],[20.5852,36.6266],[20.5852,36.6266],[20.5874,36.6289]]],[[[20.7083,36.6265],[20.708,36.6286],[20.708,36.6286],[20.7083,36.6265],[20.7084,36.6255],[20.7084,36.6255],[20.7083,36.6265]]],[[[20.5609,36.6263],[20.5712,36.63],[20.5701,36.6377],[20.5578,36.6495],[20.5412,36.6597],[20.5203,36.6684],[20.5057,36.6802],[20.4974,36.6951],[20.4961,36.7013],[20.5018,36.6986],[20.5076,36.6984],[20.5133,36.7007],[20.5252,36.7015],[20.5435,36.7006],[20.552,36.7018],[20.5508,36.7051],[20.5518,36.7059],[20.5552,36.704],[20.5559,36.7051],[20.5542,36.709],[20.5547,36.7101],[20.5575,36.7084],[20.5592,36.7089],[20.5596,36.7116],[20.5563,36.7162],[20.549,36.7226],[20.5432,36.726],[20.5391,36.7263],[20.5362,36.7248],[20.5347,36.7217],[20.5248,36.7241],[20.5065,36.7322],[20.4927,36.7362],[20.4833,36.7362],[20.4769,36.734],[20.4734,36.7298],[20.4734,36.7253],[20.4769,36.7206],[20.4776,36.7172],[20.4755,36.7151],[20.4727,36.7152],[20.469,36.7176],[20.4644,36.7179],[20.4587,36.716],[20.4553,36.7129],[20.4542,36.7085],[20.4451,36.7051],[20.4282,36.7028],[20.4194,36.7003],[20.4189,36.6977],[20.4232,36.6952],[20.4324,36.6927],[20.4375,36.6893],[20.4384,36.685],[20.4423,36.6804],[20.4492,36.6756],[20.4659,36.6666],[20.4924,36.6533],[20.5096,36.6471],[20.5175,36.648],[20.53,36.6425],[20.5472,36.6305],[20.5558,36.6245],[20.5558,36.6245],[20.5609,36.6263]]],[[[20.6924,36.6213],[20.6909,36.6233],[20.6909,36.6233],[20.6924,36.6213],[20.6932,36.6203],[20.6932,36.6203],[20.6924,36.6213]]],[[[20.3439,36.5993],[20.3428,36.6012],[20.3428,36.6012],[20.3439,36.5993],[20.3445,36.5984],[20.3445,36.5984],[20.3439,36.5993]]],[[[20.4992,36.5666],[20.5001,36.5696],[20.4989,36.5712],[20.4958,36.5713],[20.4953,36.5698],[20.4977,36.5667],[20.4988,36.5651],[20.4988,36.5651],[20.4992,36.5666]]],[[[20.3353,36.5594],[20.3373,36.5604],[20.3356,36.5629],[20.3303,36.567],[20.3243,36.5683],[20.3177,36.5668],[20.3194,36.5643],[20.3294,36.5607],[20.3344,36.5589],[20.3344,36.5589],[20.3353,36.5594]]],[[[20.5501,36.561],[20.5566,36.5652],[20.5654,36.5673],[20.5764,36.5672],[20.5796,36.5706],[20.5749,36.5773],[20.5606,36.5846],[20.5365,36.5923],[20.5223,36.5904],[20.518,36.5791],[20.5236,36.5698],[20.5391,36.5625],[20.5468,36.5589],[20.5468,36.5589],[20.5501,36.561]]],[[[20.4986,36.5383],[20.5016,36.5409],[20.5019,36.5433],[20.4996,36.5457],[20.4981,36.5444],[20.4975,36.5394],[20.4972,36.537],[20.4972,36.537],[20.4986,36.5383]]],[[[20.5012,36.5352],[20.5001,36.5377],[20.5001,36.5377],[20.5012,36.5352],[20.5018,36.5339],[20.5018,36.5339],[20.5012,36.5352]]],[[[20.4879,36.5326],[20.486,36.5341],[20.486,36.5341],[20.4879,36.5326],[20.4889,36.5318],[20.4889,36.5318],[20.4879,36.5326]]],[[[20.7656,36.5329],[20.7652,36.535],[20.7652,36.535],[20.7656,36.5329],[20.7657,36.5318],[20.7657,36.5318],[20.7656,36.5329]]],[[[20.4691,36.5294],[20.4774,36.531],[20.4782,36.5332],[20.4715,36.5361],[20.4668,36.5371],[20.4638,36.5363],[20.463,36.5341],[20.4643,36.5304],[20.4649,36.5286],[20.4649,36.5286],[20.4691,36.5294]]],[[[20.5427,36.4935],[20.5447,36.494],[20.542,36.4979],[20.5345,36.505],[20.5288,36.5071],[20.5252,36.5041],[20.5279,36.5003],[20.5371,36.4956],[20.5417,36.4932],[20.5417,36.4932],[20.5427,36.4935]]],[[[20.1994,36.4884],[20.2043,36.4935],[20.2019,36.4992],[20.192,36.5057],[20.1895,36.5032],[20.1944,36.4917],[20.1969,36.4859],[20.1969,36.4859],[20.1994,36.4884]]],[[[20.2979,36.4706],[20.3108,36.4733],[20.3177,36.4812],[20.3186,36.4941],[20.3134,36.4974],[20.3019,36.4911],[20.2937,36.4844],[20.2886,36.4771],[20.2874,36.4724],[20.2901,36.4703],[20.2914,36.4693],[20.2914,36.4693],[20.2979,36.4706]],[[20.3098,36.4791],[20.3117,36.4809],[20.3117,36.4809],[20.3098,36.4791],[20.3089,36.4782],[20.3089,36.4782],[20.3098,36.4791]]],[[[20.582,36.4547],[20.5753,36.4568],[20.5753,36.4568],[20.582,36.4547],[20.5853,36.4536],[20.5853,36.4536],[20.582,36.4547]]],[[[20.4052,36.4503],[20.4051,36.4602],[20.4036,36.466],[20.4009,36.4677],[20.4009,36.4627],[20.4038,36.4511],[20.4052,36.4453],[20.4052,36.4453],[20.4052,36.4503]]],[[[20.2813,36.4355],[20.2802,36.4386],[20.2802,36.4386],[20.2813,36.4355],[20.2818,36.4339],[20.2818,36.4339],[20.2813,36.4355]]],[[[20.5267,36.3982],[20.5244,36.3997],[20.5244,36.3997],[20.5267,36.3982],[20.5279,36.3974],[20.5279,36.3974],[20.5267,36.3982]]],[[[20.5347,36.3815],[20.5346,36.3893],[20.5307,36.3952],[20.5231,36.3991],[20.5196,36.396],[20.5202,36.3858],[20.5241,36.3799],[20.5312,36.3784],[20.5348,36.3776],[20.5348,36.3776],[20.5347,36.3815]]],[[[20.3246,36.3352],[20.3262,36.3378],[20.3248,36.3407],[20.3204,36.3438],[20.3155,36.3443],[20.31,36.3421],[20.3114,36.3393],[20.3197,36.3357],[20.3238,36.3339],[20.3238,36.3339],[20.3246,36.3352]]],[[[20.6411,36.3313],[20.6449,36.3344],[20.645,36.3403],[20.6413,36.3492],[20.6411,36.3544],[20.6444,36.356],[20.6454,36.3588],[20.6439,36.3627],[20.6501,36.3671],[20.6638,36.372],[20.6619,36.3764],[20.6446,36.3801],[20.633,36.3793],[20.6271,36.3741],[20.625,36.3695],[20.6268,36.3658],[20.6307,36.3634],[20.6368,36.3625],[20.6383,36.3611],[20.6354,36.3594],[20.6265,36.3607],[20.6118,36.365],[20.6126,36.3607],[20.6289,36.3477],[20.6375,36.3383],[20.6386,36.3326],[20.6391,36.3297],[20.6391,36.3297],[20.6411,36.3313]]],[[[20.7568,36.3291],[20.7538,36.3302],[20.7538,36.3302],[20.7568,36.3291],[20.7583,36.3286],[20.7583,36.3286],[20.7568,36.3291]]],[[[20.33,36.3234],[20.3284,36.3273],[20.3268,36.328],[20.3251,36.3257],[20.3259,36.3237],[20.3292,36.3222],[20.3308,36.3214],[20.3308,36.3214],[20.33,36.3234]]],[[[20.5152,36.3237],[20.5071,36.3367],[20.5006,36.3444],[20.4957,36.3466],[20.4925,36.3451],[20.491,36.3397],[20.4953,36.3321],[20.5056,36.3222],[20.5128,36.3172],[20.5171,36.3172],[20.5192,36.3172],[20.5192,36.3172],[20.5152,36.3237]]],[[[20.7309,36.3138],[20.7411,36.3175],[20.7421,36.3196],[20.7338,36.3201],[20.7274,36.3188],[20.7227,36.3157],[20.7217,36.3136],[20.7244,36.3125],[20.7258,36.312],[20.7258,36.312],[20.7309,36.3138]]],[[[20.7105,36.3102],[20.7115,36.3129],[20.7097,36.3142],[20.705,36.3141],[20.7045,36.3128],[20.7082,36.3102],[20.71,36.3089],[20.71,36.3089],[20.7105,36.3102]]],[[[20.5164,36.3047],[20.5135,36.3069],[20.5135,36.3069],[20.5164,36.3047],[20.5179,36.3036],[20.5179,36.3036],[20.5164,36.3047]]],[[[20.708,36.2954],[20.7093,36.2976],[20.7093,36.2976],[20.708,36.2954],[20.7073,36.2943],[20.7073,36.2943],[20.708,36.2954]]],[[[20.7002,36.2778],[20.7025,36.2867],[20.7017,36.2909],[20.6979,36.2904],[20.6968,36.2859],[20.6983,36.2776],[20.699,36.2734],[20.699,36.2734],[20.7002,36.2778]]],[[[20.7362,36.2723],[20.7382,36.274],[20.7369,36.2751],[20.7324,36.2754],[20.7314,36.2745],[20.734,36.2724],[20.7353,36.2714],[20.7353,36.2714],[20.7362,36.2723]]],[[[20.3617,36.2654],[20.3633,36.268],[20.3633,36.268],[20.3617,36.2654],[20.3609,36.2641],[20.3609,36.2641],[20.3617,36.2654]]],[[[20.551,36.226],[20.5514,36.2311],[20.5501,36.2322],[20.5472,36.2291],[20.547,36.2266],[20.5495,36.2245],[20.5508,36.2234],[20.5508,36.2234],[20.551,36.226]]],[[[20.5452,36.2224],[20.5446,36.2244],[20.5446,36.2244],[20.5452,36.2224],[20.5455,36.2214],[20.5455,36.2214],[20.5452,36.2224]]],[[[20.715,36.2183],[20.7144,36.2205],[20.7144,36.2205],[20.715,36.2183],[20.7153,36.2172],[20.7153,36.2172],[20.715,36.2183]]],[[[20.7777,36.206],[20.7792,36.2086],[20.7787,36.2096],[20.776,36.2092],[20.7752,36.2079],[20.7763,36.2058],[20.7769,36.2047],[20.7769,36.2047],[20.7777,36.206]]],[[[20.7173,36.2064],[20.7151,36.2121],[20.7135,36.2134],[20.7122,36.2104],[20.7133,36.2076],[20.7166,36.2049],[20.7183,36.2036],[20.7183,36.2036],[20.7173,36.2064]]],[[[20.6461,36.2055],[20.6422,36.2174],[20.6384,36.2237],[20.6347,36.2242],[20.6336,36.2192],[20.6351,36.2088],[20.639,36.2026],[20.645,36.2005],[20.6481,36.1995],[20.6481,36.1995],[20.6461,36.2055]]],[[[20.6531,36.1758],[20.6623,36.1805],[20.6655,36.1867],[20.6627,36.1945],[20.6552,36.1953],[20.6431,36.189],[20.638,36.1828],[20.6401,36.1766],[20.643,36.1735],[20.6467,36.1734],[20.6485,36.1734],[20.6485,36.1734],[20.6531,36.1758]]],[[[20.4945,36.1445],[20.4992,36.1471],[20.4995,36.1495],[20.4955,36.1516],[20.4945,36.1541],[20.4964,36.157],[20.5017,36.1601],[20.5102,36.1634],[20.5122,36.1677],[20.5075,36.1729],[20.5061,36.179],[20.508,36.186],[20.5062,36.1899],[20.5008,36.1907],[20.4982,36.1892],[20.4983,36.1853],[20.4961,36.1829],[20.4914,36.1819],[20.4816,36.184],[20.4665,36.1891],[20.458,36.1897],[20.4561,36.1859],[20.4579,36.1803],[20.4632,36.173],[20.4678,36.1698],[20.4715,36.1709],[20.4723,36.1735],[20.47,36.1776],[20.4702,36.1799],[20.4731,36.1802],[20.4792,36.1763],[20.4886,36.1682],[20.4899,36.1622],[20.4831,36.1584],[20.4784,36.1577],[20.4758,36.1599],[20.4722,36.1603],[20.4675,36.1586],[20.4701,36.1565],[20.48,36.154],[20.4867,36.1503],[20.4904,36.1456],[20.4922,36.1432],[20.4922,36.1432],[20.4945,36.1445]]],[[[20.5509,36.1451],[20.5574,36.1508],[20.5591,36.1555],[20.5562,36.1591],[20.5597,36.1641],[20.5698,36.1703],[20.5719,36.1741],[20.5659,36.1756],[20.5625,36.1801],[20.5614,36.1877],[20.5569,36.1925],[20.5489,36.1944],[20.5479,36.1987],[20.5538,36.2055],[20.5557,36.2107],[20.5536,36.2143],[20.5507,36.2148],[20.5471,36.2122],[20.5432,36.2127],[20.5391,36.2164],[20.5345,36.213],[20.5296,36.2026],[20.5319,36.1925],[20.5416,36.1826],[20.545,36.1764],[20.5423,36.1737],[20.5425,36.1719],[20.5459,36.1708],[20.5476,36.1633],[20.5476,36.1492],[20.5477,36.1422],[20.5477,36.1422],[20.5509,36.1451]],[[20.5601,36.1693],[20.5624,36.172],[20.5624,36.172],[20.5601,36.1693],[20.5589,36.1679],[20.5589,36.1679],[20.5601,36.1693]]],[[[20.6492,36.1459],[20.6538,36.1531],[20.654,36.1601],[20.6496,36.1669],[20.6473,36.1632],[20.647,36.1492],[20.6468,36.1422],[20.6468,36.1422],[20.6492,36.1459]]],[[[20.6386,36.1355],[20.641,36.1387],[20.6398,36.1397],[20.6351,36.1386],[20.6339,36.137],[20.6362,36.1349],[20.6374,36.1339],[20.6374,36.1339],[20.6386,36.1355]]],[[[20.4816,36.1299],[20.4841,36.1326],[20.4841,36.1326],[20.4816,36.1299],[20.4804,36.1286],[20.4804,36.1286],[20.4816,36.1299]]],[[[20.4975,36.1088],[20.4986,36.111],[20.4965,36.1128],[20.4911,36.1143],[20.4906,36.1133],[20.4949,36.1096],[20.497,36.1078],[20.497,36.1078],[20.4975,36.1088]]],[[[20.662,36.1057],[20.6592,36.1118],[20.6579,36.1118],[20.658,36.1057],[20.6594,36.1026],[20.6621,36.1026],[20.6634,36.1026],[20.6634,36.1026],[20.662,36.1057]]],[[[20.7704,36.0709],[20.7697,36.0764],[20.7627,36.0798],[20.7494,36.0811],[20.7434,36.0791],[20.7447,36.0738],[20.7482,36.0719],[20.7539,36.0734],[20.7603,36.0726],[20.7673,36.0697],[20.7708,36.0682],[20.7708,36.0682],[20.7704,36.0709]]],[[[20.5735,36.0605],[20.5767,36.0636],[20.5766,36.0662],[20.5735,36.0683],[20.5743,36.0711],[20.579,36.0748],[20.5799,36.0849],[20.577,36.1016],[20.5725,36.111],[20.5662,36.1132],[20.5596,36.1131],[20.5529,36.1107],[20.5417,36.1176],[20.526,36.1338],[20.5155,36.1412],[20.51,36.1398],[20.5076,36.1367],[20.5085,36.1317],[20.506,36.1234],[20.5001,36.1116],[20.4999,36.1062],[20.5052,36.1073],[20.5067,36.1068],[20.5042,36.1047],[20.5036,36.1013],[20.5049,36.0966],[20.5069,36.0932],[20.5096,36.0909],[20.5138,36.0916],[20.5195,36.0953],[20.523,36.0956],[20.5241,36.0926],[20.5234,36.0901],[20.5207,36.0883],[20.5222,36.0866],[20.5279,36.0851],[20.5349,36.0799],[20.5432,36.071],[20.5516,36.0665],[20.5599,36.0664],[20.5661,36.0645],[20.57,36.0608],[20.572,36.0589],[20.572,36.0589],[20.5735,36.0605]],[[20.5122,36.0936],[20.5083,36.0961],[20.5073,36.0986],[20.509,36.1008],[20.5109,36.0996],[20.5131,36.0947],[20.5141,36.0923],[20.5141,36.0923],[20.5122,36.0936]],[[20.5572,36.0737],[20.5536,36.0749],[20.5523,36.0772],[20.5532,36.0806],[20.5558,36.0809],[20.5601,36.078],[20.5614,36.0757],[20.5597,36.074],[20.5589,36.0731],[20.5589,36.0731],[20.5572,36.0737]]],[[[20.6296,36.0255],[20.6308,36.0276],[20.6289,36.0312],[20.624,36.0365],[20.6232,36.042],[20.6267,36.0477],[20.625,36.0526],[20.6181,36.0568],[20.613,36.0629],[20.6095,36.0709],[20.6067,36.0725],[20.6044,36.0676],[20.6041,36.0591],[20.6058,36.0471],[20.6123,36.037],[20.6234,36.0287],[20.629,36.0245],[20.629,36.0245],[20.6296,36.0255]]],[[[20.7558,36.0117],[20.7636,36.0154],[20.7647,36.0183],[20.7592,36.0204],[20.7561,36.0266],[20.7554,36.037],[20.7571,36.0466],[20.7611,36.0555],[20.7618,36.0608],[20.7591,36.0626],[20.7535,36.0569],[20.7448,36.0436],[20.7433,36.0302],[20.749,36.0167],[20.7519,36.0099],[20.7519,36.0099],[20.7558,36.0117]]],[[[20.5287,36.0016],[20.5245,36.0037],[20.5216,36.0037],[20.52,36.0016],[20.5221,36.0005],[20.5279,36.0005],[20.5308,36.0005],[20.5308,36.0005],[20.5287,36.0016]]],[[[20.6458,36.0021],[20.6462,36.0052],[20.646,36.0055],[20.6449,36.003],[20.6432,36.0024],[20.6409,36.004],[20.6412,36.0037],[20.6441,36.0016],[20.6455,36.0005],[20.6455,36.0005],[20.6458,36.0021]]],[[[20.9061,36.0005],[20.9022,36.0005],[20.9022,36.0005],[20.9061,36.0005],[20.908,36.0005],[20.908,36.0005],[20.9061,36.0005]]],[[[21,36.2341],[21,36.7013],[20.9973,36.9317],[20.9918,36.9254],[20.9829,36.9197],[20.9703,36.9146],[20.9607,36.9069],[20.9539,36.8969],[20.944,36.891],[20.931,36.8893],[20.917,36.8851],[20.9019,36.8785],[20.8909,36.8745],[20.8841,36.873],[20.8786,36.8753],[20.8745,36.8813],[20.8682,36.8862],[20.8599,36.89],[20.8469,36.8924],[20.8291,36.8933],[20.8083,36.8803],[20.7844,36.8533],[20.7703,36.8393],[20.7662,36.8382],[20.758,36.8385],[20.7456,36.8402],[20.7397,36.847],[20.74,36.8587],[20.7341,36.8689],[20.7221,36.8776],[20.7099,36.8817],[20.6974,36.8814],[20.6869,36.884],[20.6786,36.8895],[20.6752,36.8945],[20.6768,36.8991],[20.6696,36.8981],[20.6535,36.8913],[20.6428,36.8927],[20.6376,36.9021],[20.6373,36.9188],[20.6419,36.9427],[20.6426,36.9604],[20.6394,36.9719],[20.6395,36.9797],[20.6428,36.9838],[20.642,36.9885],[20.6373,36.9936],[20.6317,36.9952],[20.6253,36.9932],[20.6183,36.9874],[20.6106,36.978],[20.6019,36.9706],[20.5919,36.9653],[20.5703,36.9592],[20.537,36.9525],[20.5148,36.9448],[20.5039,36.9362],[20.493,36.9347],[20.4821,36.9403],[20.4693,36.9538],[20.4546,36.9752],[20.4428,36.986],[20.4341,36.9861],[20.4263,36.9896],[20.4195,36.9965],[20.3121,36.9999],[20.104,36.9996],[20.0001,36.7496],[20.0004,36.2499],[20.1174,36],[20.3513,36],[20.4675,36.0043],[20.4662,36.0129],[20.4667,36.0201],[20.4691,36.0258],[20.4648,36.0289],[20.4539,36.0294],[20.4435,36.0261],[20.4335,36.019],[20.4264,36.0167],[20.4219,36.0191],[20.4196,36.0224],[20.4194,36.0265],[20.4227,36.03],[20.4294,36.0329],[20.4336,36.0364],[20.4351,36.0407],[20.4369,36.0419],[20.4389,36.04],[20.4398,36.0409],[20.4397,36.0446],[20.4421,36.0453],[20.447,36.043],[20.456,36.0464],[20.469,36.0555],[20.4786,36.0587],[20.4847,36.056],[20.4889,36.0519],[20.4911,36.0463],[20.4943,36.0434],[20.4983,36.0433],[20.4988,36.0456],[20.4954,36.0503],[20.496,36.0539],[20.5004,36.0565],[20.5023,36.0599],[20.5016,36.064],[20.4997,36.0681],[20.4968,36.072],[20.4932,36.0739],[20.4889,36.0736],[20.4863,36.0763],[20.4854,36.0822],[20.482,36.0838],[20.4763,36.0812],[20.4725,36.0819],[20.4707,36.086],[20.4671,36.0882],[20.4616,36.0885],[20.4579,36.0841],[20.4559,36.0749],[20.4533,36.0705],[20.45,36.0708],[20.4479,36.0689],[20.4469,36.0647],[20.4448,36.063],[20.4415,36.0638],[20.4395,36.0672],[20.4388,36.0735],[20.4354,36.08],[20.4294,36.0867],[20.4254,36.0943],[20.4234,36.1026],[20.4289,36.109],[20.4419,36.1133],[20.4487,36.1115],[20.4492,36.1035],[20.4539,36.0987],[20.4628,36.0972],[20.4682,36.098],[20.4703,36.1013],[20.4668,36.1052],[20.4576,36.1097],[20.4576,36.1128],[20.467,36.1143],[20.4712,36.119],[20.4703,36.1268],[20.4678,36.1315],[20.4637,36.1331],[20.4618,36.1373],[20.4621,36.144],[20.4588,36.149],[20.452,36.152],[20.4487,36.156],[20.4487,36.1606],[20.4463,36.1646],[20.4414,36.1677],[20.4397,36.1719],[20.4413,36.1771],[20.438,36.1834],[20.4297,36.1907],[20.4258,36.198],[20.4263,36.2053],[20.4276,36.2086],[20.4295,36.2081],[20.4261,36.2161],[20.4172,36.2328],[20.413,36.2453],[20.4135,36.2536],[20.4107,36.2607],[20.4046,36.2665],[20.3988,36.2673],[20.3931,36.263],[20.3895,36.2575],[20.3878,36.2507],[20.38,36.2479],[20.3659,36.249],[20.3588,36.2517],[20.3585,36.2558],[20.357,36.2573],[20.3543,36.2562],[20.3538,36.2601],[20.3555,36.269],[20.3507,36.2789],[20.3397,36.2898],[20.3348,36.299],[20.3363,36.3066],[20.3367,36.3091],[20.3362,36.3067],[20.3346,36.3073],[20.332,36.3108],[20.3289,36.3115],[20.3252,36.3092],[20.3211,36.3092],[20.3164,36.3114],[20.3136,36.3144],[20.3125,36.3182],[20.3125,36.319],[20.3136,36.3166],[20.3154,36.317],[20.318,36.3199],[20.3214,36.3204],[20.3255,36.3184],[20.3261,36.3192],[20.323,36.3229],[20.3139,36.3236],[20.2989,36.3214],[20.2868,36.3253],[20.2774,36.3352],[20.2737,36.3432],[20.2755,36.3495],[20.272,36.3539],[20.2631,36.3565],[20.2574,36.3622],[20.2548,36.3709],[20.2515,36.3774],[20.2474,36.3816],[20.2432,36.3835],[20.239,36.383],[20.2338,36.3865],[20.2274,36.3938],[20.2261,36.399],[20.2296,36.402],[20.2305,36.4052],[20.2285,36.4085],[20.23,36.4075],[20.2346,36.4022],[20.2375,36.4037],[20.2386,36.4122],[20.243,36.4131],[20.2508,36.4065],[20.2573,36.4033],[20.2626,36.4035],[20.2657,36.3975],[20.2667,36.3851],[20.27,36.3785],[20.2758,36.3774],[20.278,36.3797],[20.2769,36.3852],[20.2781,36.388],[20.2816,36.388],[20.2822,36.3914],[20.2799,36.3982],[20.2829,36.4016],[20.2912,36.4015],[20.2957,36.4031],[20.2964,36.4062],[20.2925,36.4107],[20.2839,36.4164],[20.278,36.4258],[20.2747,36.4388],[20.269,36.4472],[20.2608,36.451],[20.2526,36.4523],[20.2443,36.4513],[20.2331,36.4527],[20.219,36.4566],[20.2136,36.4602],[20.217,36.4635],[20.2175,36.4675],[20.2152,36.4722],[20.212,36.474],[20.208,36.4729],[20.2051,36.474],[20.2034,36.4773],[20.2013,36.4765],[20.1989,36.4717],[20.2004,36.4675],[20.2061,36.4638],[20.2072,36.4615],[20.2037,36.4604],[20.2026,36.4583],[20.204,36.4552],[20.2023,36.4541],[20.1974,36.4552],[20.1932,36.4629],[20.1897,36.4772],[20.1857,36.4841],[20.181,36.4833],[20.1751,36.4855],[20.1682,36.4907],[20.1636,36.4961],[20.1613,36.5018],[20.158,36.5052],[20.1537,36.5062],[20.1503,36.5101],[20.1478,36.5169],[20.1446,36.5211],[20.1407,36.5226],[20.1383,36.5268],[20.1374,36.5336],[20.1401,36.5349],[20.1462,36.5307],[20.1516,36.5294],[20.1563,36.531],[20.156,36.5344],[20.1508,36.5396],[20.1482,36.5448],[20.1483,36.55],[20.1457,36.5547],[20.1406,36.559],[20.1297,36.5624],[20.1132,36.5649],[20.1041,36.5692],[20.1024,36.5755],[20.1052,36.5788],[20.1125,36.5791],[20.1216,36.5758],[20.1325,36.5688],[20.1437,36.5653],[20.1552,36.5654],[20.1657,36.5575],[20.1752,36.5418],[20.1792,36.5331],[20.1777,36.5315],[20.1799,36.5308],[20.1861,36.5309],[20.1888,36.5297],[20.1883,36.527],[20.1906,36.5247],[20.1958,36.5226],[20.1979,36.5192],[20.1969,36.5144],[20.1998,36.5118],[20.2065,36.5113],[20.2148,36.5079],[20.2248,36.5015],[20.2307,36.4996],[20.2326,36.5023],[20.2265,36.5101],[20.2125,36.5232],[20.206,36.5331],[20.207,36.5398],[20.2055,36.5445],[20.2014,36.5471],[20.2041,36.5491],[20.2135,36.5505],[20.2193,36.5529],[20.2214,36.5562],[20.2201,36.5602],[20.2154,36.5649],[20.2188,36.5659],[20.2302,36.5633],[20.2313,36.5662],[20.2219,36.5745],[20.2211,36.5822],[20.2289,36.5892],[20.2391,36.5898],[20.2515,36.584],[20.2609,36.5826],[20.2672,36.5856],[20.2773,36.5855],[20.2914,36.5822],[20.3,36.5837],[20.3032,36.59],[20.3033,36.5956],[20.3002,36.6003],[20.3002,36.6029],[20.3032,36.6036],[20.3084,36.6],[20.3156,36.5922],[20.3209,36.5891],[20.324,36.5907],[20.3248,36.5904],[20.3233,36.5881],[20.3286,36.5861],[20.3404,36.5842],[20.3523,36.578],[20.3642,36.5673],[20.3695,36.5581],[20.3683,36.5503],[20.3731,36.5412],[20.3839,36.5307],[20.3878,36.5245],[20.3848,36.5224],[20.3839,36.5191],[20.385,36.5144],[20.3883,36.5089],[20.3938,36.5026],[20.3954,36.4945],[20.3933,36.4846],[20.3953,36.4778],[20.4016,36.4742],[20.4055,36.4743],[20.407,36.478],[20.4086,36.4782],[20.4101,36.4749],[20.4157,36.4752],[20.4253,36.4789],[20.4251,36.4857],[20.4152,36.4956],[20.4103,36.5026],[20.4106,36.5068],[20.4123,36.5092],[20.4154,36.5097],[20.4163,36.5146],[20.415,36.5239],[20.4078,36.5367],[20.3947,36.5528],[20.3904,36.5621],[20.3951,36.5646],[20.3995,36.5639],[20.4036,36.5601],[20.4063,36.5602],[20.4076,36.5641],[20.4016,36.5675],[20.3884,36.5702],[20.3821,36.574],[20.3825,36.5789],[20.3794,36.5829],[20.3727,36.5861],[20.364,36.5964],[20.3534,36.6137],[20.3435,36.6241],[20.3343,36.6274],[20.3271,36.6337],[20.3219,36.6428],[20.3191,36.6492],[20.3187,36.6529],[20.3205,36.6551],[20.3246,36.6559],[20.3334,36.6532],[20.3469,36.647],[20.3581,36.6397],[20.367,36.6312],[20.3755,36.6324],[20.3836,36.6431],[20.3776,36.6501],[20.3575,36.6534],[20.344,36.6598],[20.3373,36.6694],[20.3409,36.686],[20.3548,36.7096],[20.3595,36.7249],[20.3549,36.7318],[20.3482,36.7359],[20.3393,36.7373],[20.3385,36.7396],[20.346,36.7427],[20.3483,36.7469],[20.3454,36.7521],[20.347,36.7573],[20.3531,36.7625],[20.3529,36.7667],[20.3464,36.7698],[20.3468,36.773],[20.3541,36.7761],[20.3573,36.7807],[20.3562,36.7868],[20.3531,36.7902],[20.3479,36.791],[20.3459,36.7932],[20.3472,36.7967],[20.3467,36.7987],[20.3444,36.7992],[20.3398,36.799],[20.333,36.7979],[20.3312,36.7953],[20.3345,36.7912],[20.3344,36.7891],[20.3312,36.7891],[20.3297,36.7873],[20.33,36.7836],[20.3251,36.7836],[20.3148,36.7873],[20.3107,36.7913],[20.313,36.7956],[20.3157,36.7961],[20.3187,36.7928],[20.3235,36.7971],[20.3301,36.8091],[20.3256,36.8096],[20.3103,36.7987],[20.304,36.7916],[20.3069,36.7886],[20.3074,36.7849],[20.3056,36.7807],[20.3031,36.7793],[20.3,36.7807],[20.2976,36.7798],[20.2961,36.7768],[20.2945,36.7774],[20.293,36.7817],[20.2928,36.7797],[20.2939,36.7714],[20.2926,36.7641],[20.289,36.7578],[20.2857,36.755],[20.2828,36.7554],[20.2822,36.7527],[20.284,36.7467],[20.2893,36.7415],[20.298,36.7371],[20.3025,36.7323],[20.3028,36.7271],[20.2998,36.7235],[20.2937,36.7214],[20.2919,36.7198],[20.2944,36.7187],[20.2937,36.7179],[20.2899,36.7171],[20.2867,36.7143],[20.2841,36.7092],[20.2793,36.7064],[20.2723,36.706],[20.2676,36.7002],[20.2653,36.6892],[20.2602,36.6806],[20.2523,36.6745],[20.2411,36.6731],[20.2266,36.6764],[20.2182,36.6808],[20.2162,36.6861],[20.2109,36.6876],[20.2026,36.6851],[20.1965,36.6882],[20.1927,36.6972],[20.1917,36.7024],[20.1934,36.7039],[20.1893,36.7086],[20.1795,36.7165],[20.1725,36.7186],[20.1685,36.7149],[20.168,36.7096],[20.1709,36.7029],[20.1711,36.6976],[20.1685,36.6938],[20.1622,36.6954],[20.1521,36.7023],[20.1461,36.7083],[20.1442,36.7135],[20.1403,36.7165],[20.1347,36.7174],[20.1331,36.7233],[20.1357,36.7344],[20.1412,36.74],[20.1495,36.7401],[20.1549,36.7416],[20.1576,36.7445],[20.1608,36.745],[20.1645,36.7431],[20.166,36.75],[20.1654,36.7656],[20.1681,36.7771],[20.1742,36.7843],[20.1805,36.7888],[20.1872,36.7903],[20.1896,36.7932],[20.1878,36.7974],[20.1967,36.7985],[20.2162,36.7963],[20.2213,36.8016],[20.2122,36.8141],[20.2087,36.8217],[20.2109,36.8243],[20.217,36.8249],[20.227,36.8232],[20.2262,36.8253],[20.2145,36.831],[20.2085,36.835],[20.208,36.8372],[20.2092,36.8374],[20.2121,36.8358],[20.2113,36.8373],[20.2068,36.842],[20.2066,36.8475],[20.2109,36.8538],[20.2181,36.8538],[20.2282,36.8475],[20.2381,36.8439],[20.2478,36.8432],[20.2516,36.8385],[20.2495,36.8298],[20.2534,36.8226],[20.2631,36.817],[20.2715,36.8071],[20.2784,36.793],[20.2841,36.7856],[20.2888,36.7849],[20.2909,36.7872],[20.2904,36.7925],[20.2935,36.7961],[20.3002,36.7982],[20.3084,36.804],[20.3181,36.8135],[20.323,36.8229],[20.3233,36.8323],[20.3208,36.8313],[20.3156,36.8198],[20.3139,36.8222],[20.3156,36.8383],[20.3182,36.8446],[20.3216,36.8409],[20.3255,36.8421],[20.3297,36.8481],[20.3483,36.846],[20.3812,36.8358],[20.3984,36.8258],[20.3997,36.8159],[20.403,36.8091],[20.4083,36.8054],[20.4091,36.8028],[20.4052,36.8013],[20.4036,36.7994],[20.4043,36.7971],[20.4019,36.7976],[20.3963,36.8009],[20.3945,36.8036],[20.3964,36.8054],[20.3961,36.8064],[20.3935,36.8064],[20.3927,36.8038],[20.3938,36.7987],[20.3907,36.798],[20.3834,36.8017],[20.3841,36.7999],[20.393,36.7924],[20.4016,36.7881],[20.4099,36.7871],[20.4162,36.788],[20.4203,36.791],[20.4245,36.7902],[20.4286,36.7855],[20.4318,36.7856],[20.4339,36.7903],[20.4367,36.792],[20.4404,36.7905],[20.444,36.7948],[20.4476,36.8049],[20.4549,36.8121],[20.4659,36.8164],[20.4707,36.8177],[20.4694,36.816],[20.4764,36.8085],[20.4918,36.7954],[20.5009,36.7845],[20.5036,36.7758],[20.5073,36.7698],[20.512,36.7667],[20.5271,36.7674],[20.5524,36.7722],[20.5761,36.7692],[20.5979,36.7586],[20.6087,36.7508],[20.6082,36.7457],[20.6107,36.7393],[20.6161,36.7315],[20.6216,36.7268],[20.6271,36.7253],[20.6327,36.7203],[20.6383,36.712],[20.6448,36.707],[20.6521,36.7053],[20.6573,36.7078],[20.6604,36.7143],[20.6625,36.7135],[20.6636,36.7054],[20.6657,36.7042],[20.6688,36.7099],[20.6699,36.7065],[20.669,36.6942],[20.6701,36.6852],[20.673,36.6795],[20.6782,36.6808],[20.6855,36.6891],[20.6899,36.6907],[20.6914,36.6854],[20.6954,36.6857],[20.7018,36.6914],[20.7049,36.6893],[20.7048,36.6792],[20.7071,36.6735],[20.7118,36.6722],[20.7162,36.6683],[20.7203,36.6617],[20.7255,36.659],[20.7318,36.6601],[20.7374,36.6581],[20.7423,36.653],[20.7438,36.6474],[20.742,36.6411],[20.7297,36.634],[20.707,36.6263],[20.6984,36.6212],[20.704,36.6188],[20.7071,36.6153],[20.7075,36.6106],[20.7152,36.6053],[20.7299,36.5994],[20.738,36.5946],[20.7397,36.5909],[20.7472,36.5894],[20.7605,36.5901],[20.7684,36.5838],[20.771,36.5707],[20.7762,36.5571],[20.7841,36.543],[20.7869,36.5356],[20.7847,36.5352],[20.7842,36.533],[20.7853,36.5291],[20.7849,36.5311],[20.7828,36.5389],[20.7802,36.5406],[20.7771,36.5361],[20.7768,36.5329],[20.7793,36.5308],[20.7796,36.5287],[20.7776,36.5266],[20.7753,36.5266],[20.7727,36.5287],[20.772,36.5266],[20.7732,36.5203],[20.7756,36.5162],[20.7793,36.5141],[20.78,36.5123],[20.7777,36.5109],[20.7797,36.5082],[20.786,36.5042],[20.7912,36.5049],[20.7953,36.5102],[20.7974,36.5098],[20.7974,36.5036],[20.7949,36.5],[20.79,36.4989],[20.7885,36.4968],[20.7904,36.4938],[20.795,36.4951],[20.8021,36.5011],[20.808,36.5013],[20.8125,36.4959],[20.8141,36.4906],[20.8127,36.4853],[20.8073,36.4837],[20.7979,36.4858],[20.7943,36.4816],[20.7967,36.4713],[20.8008,36.4681],[20.8069,36.4721],[20.8111,36.4724],[20.8137,36.4689],[20.8136,36.4656],[20.811,36.4625],[20.8076,36.4614],[20.8032,36.4625],[20.8017,36.4589],[20.8028,36.4506],[20.8018,36.4478],[20.7989,36.4505],[20.7955,36.4492],[20.7916,36.4438],[20.7918,36.4379],[20.7962,36.4314],[20.8012,36.4277],[20.8067,36.427],[20.8132,36.423],[20.8209,36.4157],[20.8233,36.4091],[20.8206,36.4034],[20.8213,36.3984],[20.8254,36.3943],[20.8254,36.3888],[20.8212,36.382],[20.821,36.377],[20.8249,36.374],[20.821,36.3701],[20.8093,36.3654],[20.8034,36.3596],[20.8034,36.3529],[20.8117,36.3396],[20.8286,36.3198],[20.8315,36.3108],[20.8206,36.3127],[20.8117,36.3123],[20.805,36.3096],[20.7909,36.3118],[20.7696,36.3189],[20.7617,36.3169],[20.7674,36.306],[20.7682,36.2984],[20.7641,36.2943],[20.7669,36.2906],[20.7768,36.2875],[20.7817,36.292],[20.7818,36.3041],[20.7896,36.3054],[20.8054,36.2959],[20.8103,36.2882],[20.8045,36.2823],[20.8003,36.2823],[20.7977,36.288],[20.7934,36.2899],[20.7875,36.288],[20.7866,36.2844],[20.7907,36.2792],[20.7918,36.2758],[20.7901,36.2742],[20.7821,36.2771],[20.768,36.2845],[20.7565,36.2843],[20.7476,36.2763],[20.7528,36.2667],[20.7719,36.2552],[20.7825,36.2472],[20.7846,36.2425],[20.7847,36.2341],[20.7828,36.2221],[20.7849,36.2162],[20.7912,36.2165],[20.7976,36.2196],[20.8043,36.2256],[20.8049,36.2151],[20.7996,36.188],[20.8011,36.1703],[20.8096,36.162],[20.8128,36.1563],[20.8109,36.1532],[20.8109,36.1499],[20.8131,36.1465],[20.8297,36.1348],[20.8609,36.1147],[20.8759,36.0992],[20.8747,36.0883],[20.8768,36.0829],[20.8822,36.0829],[20.8849,36.0801],[20.8848,36.0743],[20.8879,36.0717],[20.8939,36.0722],[20.8958,36.0695],[20.8933,36.0638],[20.8978,36.0555],[20.9093,36.0446],[20.9255,36.0367],[20.9464,36.0317],[20.9579,36.0265],[20.96,36.021],[20.963,36.018],[20.9666,36.0175],[20.9686,36.0159],[20.9689,36.0133],[20.9674,36.0125],[20.9641,36.0136],[20.9632,36.0126],[20.9645,36.0097],[20.9636,36.0097],[20.9607,36.0126],[20.9604,36.0106],[20.9629,36.0035],[20.9731,36.0001],[20.991,36.0004],[21,36.0005],[21,36.0005],[21,36.2341]],[[20.4053,36.9168],[20.3876,36.9268],[20.3776,36.9355],[20.3752,36.9427],[20.377,36.9504],[20.3829,36.9584],[20.3922,36.9603],[20.4047,36.956],[20.4159,36.9478],[20.4259,36.9357],[20.4296,36.9263],[20.4269,36.9194],[20.4227,36.915],[20.417,36.9129],[20.4141,36.9118],[20.4141,36.9118],[20.4053,36.9168]],[[20.2272,36.8596],[20.2245,36.8598],[20.2245,36.8598],[20.2272,36.8596],[20.2286,36.8595],[20.2286,36.8595],[20.2272,36.8596]],[[20.4294,36.8462],[20.4289,36.8481],[20.4289,36.8481],[20.4294,36.8462],[20.4297,36.8452],[20.4297,36.8452],[20.4294,36.8462]],[[20.4141,36.8307],[20.4078,36.837],[20.3955,36.8425],[20.377,36.8472],[20.3663,36.8535],[20.3635,36.8614],[20.3569,36.8682],[20.3469,36.8738],[20.3432,36.8779],[20.3459,36.8805],[20.3463,36.8834],[20.3443,36.8864],[20.3402,36.8883],[20.3338,36.8888],[20.3301,36.8927],[20.329,36.9],[20.3316,36.9057],[20.3379,36.9098],[20.3442,36.9086],[20.3505,36.9019],[20.3612,36.8971],[20.3763,36.8941],[20.387,36.8935],[20.3933,36.8954],[20.4003,36.8947],[20.4081,36.8914],[20.4112,36.8885],[20.4097,36.8859],[20.4003,36.8845],[20.3831,36.8843],[20.3736,36.8813],[20.3717,36.8754],[20.3738,36.8703],[20.3798,36.866],[20.3893,36.8642],[20.4024,36.865],[20.413,36.8637],[20.4214,36.8603],[20.4234,36.8508],[20.4193,36.8353],[20.4172,36.8275],[20.4172,36.8275],[20.4141,36.8307]],[[20.2889,36.8264],[20.2804,36.8321],[20.2759,36.8378],[20.2755,36.8435],[20.2773,36.8461],[20.2812,36.8456],[20.2818,36.8471],[20.2788,36.8508],[20.2793,36.8537],[20.283,36.8558],[20.29,36.8535],[20.3001,36.8466],[20.3042,36.841],[20.3025,36.8367],[20.297,36.837],[20.2879,36.8418],[20.2858,36.8391],[20.2907,36.8288],[20.2932,36.8236],[20.2932,36.8236],[20.2889,36.8264]],[[20.2959,36.8186],[20.2948,36.8209],[20.2948,36.8209],[20.2959,36.8186],[20.2964,36.8175],[20.2964,36.8175],[20.2959,36.8186]],[[20.4906,36.7937],[20.4895,36.7955],[20.4895,36.7955],[20.4906,36.7937],[20.4911,36.7928],[20.4911,36.7928],[20.4906,36.7937]],[[20.1693,36.7876],[20.1653,36.7893],[20.1658,36.7914],[20.1709,36.794],[20.1729,36.7932],[20.1719,36.7889],[20.1714,36.7868],[20.1714,36.7868],[20.1693,36.7876]],[[20.3092,36.7693],[20.3077,36.7728],[20.3082,36.7748],[20.3108,36.7755],[20.3129,36.7747],[20.3147,36.7725],[20.3142,36.7704],[20.3113,36.7686],[20.3099,36.7676],[20.3099,36.7676],[20.3092,36.7693]],[[20.1474,36.7615],[20.1432,36.7672],[20.1437,36.7697],[20.149,36.769],[20.1511,36.7662],[20.15,36.7612],[20.1495,36.7587],[20.1495,36.7587],[20.1474,36.7615]],[[20.172,36.7086],[20.1692,36.7095],[20.1692,36.7095],[20.172,36.7086],[20.1734,36.7082],[20.1734,36.7082],[20.172,36.7086]],[[20.7164,36.7002],[20.7086,36.7002],[20.7034,36.7018],[20.7008,36.7049],[20.6981,36.7049],[20.6954,36.702],[20.6941,36.7086],[20.6942,36.7249],[20.697,36.7272],[20.7024,36.7157],[20.7089,36.7075],[20.7165,36.7026],[20.7203,36.7002],[20.7203,36.7002],[20.7164,36.7002]],[[20.1573,36.6942],[20.1562,36.6961],[20.1562,36.6961],[20.1573,36.6942],[20.1578,36.6932],[20.1578,36.6932],[20.1573,36.6942]],[[20.2619,36.6703],[20.2596,36.6724],[20.2602,36.675],[20.2635,36.6781],[20.2664,36.6781],[20.269,36.675],[20.2685,36.6724],[20.2648,36.6703],[20.263,36.6693],[20.263,36.6693],[20.2619,36.6703]],[[20.2078,36.6046],[20.1911,36.6135],[20.1823,36.6163],[20.1812,36.613],[20.1771,36.611],[20.1698,36.6101],[20.1609,36.6142],[20.1504,36.6231],[20.1491,36.6272],[20.157,36.6263],[20.163,36.6229],[20.1672,36.6172],[20.1716,36.6148],[20.1763,36.6158],[20.1746,36.6215],[20.1667,36.6318],[20.1651,36.6394],[20.1698,36.6441],[20.1717,36.6479],[20.1708,36.6508],[20.1789,36.6545],[20.1961,36.659],[20.2107,36.6597],[20.2226,36.6568],[20.2333,36.6529],[20.2427,36.6482],[20.2477,36.6441],[20.2483,36.6408],[20.2402,36.6386],[20.2234,36.6375],[20.2188,36.6308],[20.2263,36.6183],[20.2265,36.6091],[20.2196,36.6032],[20.2161,36.6002],[20.2161,36.6002],[20.2078,36.6046]],[[20.0838,36.6005],[20.0798,36.6026],[20.0798,36.6026],[20.0838,36.6005],[20.0859,36.5994],[20.0859,36.5994],[20.0838,36.6005]],[[20.0951,36.5922],[20.0906,36.5929],[20.09,36.5943],[20.0936,36.5964],[20.0969,36.5964],[20.1002,36.5943],[20.1007,36.5929],[20.0985,36.5922],[20.0974,36.5919],[20.0974,36.5919],[20.0951,36.5922]],[[20.111,36.5904],[20.1089,36.5916],[20.1089,36.5916],[20.111,36.5904],[20.112,36.5898],[20.112,36.5898],[20.111,36.5904]],[[20.3531,36.59],[20.348,36.5901],[20.3415,36.5953],[20.3337,36.6057],[20.3319,36.6115],[20.336,36.6128],[20.3424,36.6076],[20.3513,36.5959],[20.3557,36.59],[20.3557,36.59],[20.3531,36.59]],[[20.0912,36.5749],[20.0872,36.576],[20.0872,36.576],[20.0912,36.5749],[20.0932,36.5743],[20.0932,36.5743],[20.0912,36.5749]],[[20.7963,36.5599],[20.7941,36.5605],[20.7939,36.5622],[20.7956,36.5648],[20.7977,36.5656],[20.8003,36.5646],[20.8006,36.563],[20.7985,36.5607],[20.7974,36.5595],[20.7974,36.5595],[20.7963,36.5599]],[[20.1362,36.5484],[20.1347,36.5509],[20.1347,36.5509],[20.1362,36.5484],[20.137,36.5472],[20.137,36.5472],[20.1362,36.5484]],[[20.0692,36.5348],[20.0671,36.5383],[20.0686,36.5404],[20.074,36.5411],[20.075,36.5393],[20.0719,36.5351],[20.0703,36.533],[20.0703,36.533],[20.0692,36.5348]],[[20.7807,36.5346],[20.7807,36.5367],[20.7807,36.5367],[20.7807,36.5346],[20.7807,36.5335],[20.7807,36.5335],[20.7807,36.5346]],[[20.1089,36.5314],[20.1067,36.5312],[20.1062,36.5339],[20.1072,36.5394],[20.1059,36.5456],[20.1022,36.5523],[20.1069,36.5558],[20.12,36.5559],[20.125,36.5548],[20.1217,36.5527],[20.1204,36.5497],[20.1211,36.5461],[20.1191,36.5437],[20.1144,36.5427],[20.1116,36.5395],[20.1105,36.5342],[20.1099,36.5315],[20.1099,36.5315],[20.1089,36.5314]],[[20.7899,36.5319],[20.7894,36.5344],[20.7894,36.5344],[20.7899,36.5319],[20.7901,36.5306],[20.7901,36.5306],[20.7899,36.5319]],[[20.8036,36.5219],[20.8013,36.5229],[20.8013,36.5229],[20.8036,36.5219],[20.8047,36.5214],[20.8047,36.5214],[20.8036,36.5219]],[[20.78,36.5204],[20.7805,36.5231],[20.782,36.5237],[20.7847,36.5221],[20.7844,36.5208],[20.7813,36.5197],[20.7797,36.5191],[20.7797,36.5191],[20.78,36.5204]],[[20.8116,36.5142],[20.8087,36.5155],[20.8079,36.5172],[20.8091,36.5193],[20.8105,36.5186],[20.8122,36.5152],[20.813,36.5135],[20.813,36.5135],[20.8116,36.5142]],[[20.1971,36.4017],[20.1967,36.404],[20.1967,36.404],[20.1971,36.4017],[20.1974,36.4006],[20.1974,36.4006],[20.1971,36.4017]],[[20.1913,36.3978],[20.1894,36.3996],[20.1894,36.3996],[20.1913,36.3978],[20.1922,36.3969],[20.1922,36.3969],[20.1913,36.3978]],[[20.2196,36.398],[20.2183,36.3997],[20.2183,36.3997],[20.2196,36.398],[20.2203,36.3972],[20.2203,36.3972],[20.2196,36.398]],[[20.3742,36.2381],[20.3716,36.2405],[20.3724,36.2414],[20.3765,36.2409],[20.3778,36.2397],[20.3763,36.2378],[20.3755,36.2369],[20.3755,36.2369],[20.3742,36.2381]],[[20.3838,36.2251],[20.3817,36.2268],[20.3817,36.2268],[20.3838,36.2251],[20.3849,36.2242],[20.3849,36.2242],[20.3838,36.2251]],[[20.3842,36.2199],[20.3808,36.2216],[20.3808,36.2216],[20.3842,36.2199],[20.3859,36.2191],[20.3859,36.2191],[20.3842,36.2199]],[[20.3916,36.2058],[20.3863,36.2065],[20.3845,36.2082],[20.3862,36.2111],[20.3888,36.2108],[20.3925,36.2073],[20.3943,36.2055],[20.3943,36.2055],[20.3916,36.2058]],[[20.3776,36.176],[20.3735,36.1823],[20.3735,36.1823],[20.3776,36.176],[20.3797,36.1728],[20.3797,36.1728],[20.3776,36.176]],[[20.3659,36.1739],[20.3633,36.1774],[20.3633,36.1774],[20.3659,36.1739],[20.3672,36.1722],[20.3672,36.1722],[20.3659,36.1739]],[[20.3876,36.1728],[20.3845,36.176],[20.3853,36.1797],[20.3899,36.184],[20.3914,36.1824],[20.3899,36.1749],[20.3891,36.1712],[20.3891,36.1712],[20.3876,36.1728]],[[20.3821,36.1689],[20.3807,36.1706],[20.3807,36.1706],[20.3821,36.1689],[20.3828,36.1681],[20.3828,36.1681],[20.3821,36.1689]],[[20.396,36.1504],[20.3913,36.1574],[20.3913,36.1574],[20.396,36.1504],[20.3984,36.1469],[20.3984,36.1469],[20.396,36.1504]],[[20.3389,36.1011],[20.3406,36.1028],[20.3406,36.1028],[20.3389,36.1011],[20.338,36.1003],[20.338,36.1003],[20.3389,36.1011]],[[20.347,36.095],[20.3419,36.0973],[20.3451,36.0992],[20.3565,36.1008],[20.359,36.0996],[20.3527,36.0958],[20.3495,36.0938],[20.3495,36.0938],[20.347,36.095]],[[20.9028,36.0687],[20.9013,36.0704],[20.9013,36.0704],[20.9028,36.0687],[20.9036,36.0678],[20.9036,36.0678],[20.9028,36.0687]],[[20.4798,36.0608],[20.4779,36.0637],[20.4787,36.0659],[20.4822,36.0676],[20.4831,36.0661],[20.4815,36.0617],[20.4807,36.0594],[20.4807,36.0594],[20.4798,36.0608]],[[20.439,36.0593],[20.4368,36.0618],[20.4368,36.0618],[20.439,36.0593],[20.4401,36.0581],[20.4401,36.0581],[20.439,36.0593]],[[20.3904,36.0051],[20.3891,36.0069],[20.3891,36.0069],[20.3904,36.0051],[20.3911,36.0042],[20.3911,36.0042],[20.3904,36.0051]]]]}},{"type":"Feature","properties":{"depth":3000,"kind":"isobath"},"geometry":{"type":"MultiLineString","coordinates":[[[20.8008,36.9766],[20.8018,36.9783],[20.8037,36.9818],[20.8022,36.9826],[20.7971,36.9807],[20.7961,36.9789],[20.7993,36.9774],[20.8008,36.9766]],[[20.8192,36.9682],[20.8197,36.9695],[20.8206,36.9721],[20.8201,36.9727],[20.8182,36.9712],[20.8159,36.973],[20.8133,36.9779],[20.8098,36.9796],[20.8053,36.9783],[20.8071,36.9753],[20.8152,36.9706],[20.8192,36.9682]],[[20.5297,36.9661],[20.5284,36.9684],[20.5258,36.9728],[20.5242,36.9734],[20.5235,36.9699],[20.5247,36.9677],[20.5281,36.9666],[20.5297,36.9661]],[[20.8089,36.938],[20.8097,36.943],[20.8112,36.9529],[20.8097,36.9594],[20.805,36.9626],[20.7992,36.9639],[20.7925,36.9633],[20.7886,36.9645],[20.7875,36.9674],[20.7844,36.9679],[20.7791,36.966],[20.7757,36.9622],[20.7742,36.9563],[20.7771,36.9512],[20.7844,36.9467],[20.7904,36.9458],[20.7951,36.9486],[20.8003,36.947],[20.806,36.941],[20.8089,36.938]],[[20.2302,36.8464],[20.2287,36.8464],[20.2258,36.8464],[20.2258,36.8464],[20.2287,36.8464],[20.2302,36.8464]],[[20.2181,36.837],[20.2176,36.8384],[20.2166,36.8413],[20.2153,36.8415],[20.2136,36.8392],[20.2141,36.8378],[20.2168,36.8373],[20.2181,36.837]],[[20.3835,36.8141],[20.3815,36.8151],[20.3774,36.8172],[20.3774,36.8172],[20.3815,36.8151],[20.3835,36.8141]],[[20.3499,36.8068],[20.3529,36.8089],[20.359,36.813],[20.3587,36.8159],[20.352,36.8174],[20.3477,36.8164],[20.3458,36.8127],[20.3461,36.8099],[20.3486,36.8078],[20.3499,36.8068]],[[20.3893,36.8047],[20.3882,36.8052],[20.386,36.8063],[20.386,36.8063],[20.3882,36.8052],[20.3893,36.8047]],[[20.3736,36.8005],[20.3693,36.8021],[20.3607,36.8052],[20.3607,36.8052],[20.3693,36.8021],[20.3736,36.8005]],[[20.388,36.7891],[20.387,36.7894],[20.3849,36.7899],[20.3849,36.7899],[20.387,36.7894],[20.388,36.7891]],[[20.3674,36.7734],[20.3689,36.7766],[20.3719,36.783],[20.3698,36.7846],[20.3625,36.7813],[20.361,36.7781],[20.3653,36.775],[20.3674,36.7734]],[[20.3596,36.7661],[20.3586,36.7664],[20.3565,36.7669],[20.3565,36.7669],[20.3586,36.7664],[20.3596,36.7661]],[[20.4699,36.7411],[20.4687,36.7422],[20.4662,36.7443],[20.4662,36.7443],[20.4687,36.7422],[20.4699,36.7411]],[[20.2851,36.7172],[20.2865,36.7183],[20.2892,36.7204],[20.2897,36.7227],[20.2879,36.7254],[20.2865,36.7243],[20.2856,36.7196],[20.2851,36.7172]],[[20.1515,36.7141],[20.1499,36.7149],[20.1468,36.7164],[20.1468,36.7164],[20.1499,36.7149],[20.1515,36.7141]],[[20.5948,36.7109],[20.5953,36.7148],[20.5962,36.7227],[20.594,36.728],[20.5886,36.7309],[20.5836,36.7296],[20.5789,36.7241],[20.5812,36.7188],[20.5902,36.7135],[20.5948,36.7109]],[[20.1557,36.7047],[20.1555,36.7064],[20.155,36.7097],[20.155,36.7097],[20.1555,36.7064],[20.1557,36.7047]],[[20.4076,36.6849],[20.4051,36.6893],[20.4,36.698],[20.4,36.698],[20.4051,36.6893],[20.4076,36.6849]],[[20.6368,36.6776],[20.637,36.6805],[20.6375,36.6862],[20.6412,36.69],[20.6481,36.6919],[20.6505,36.694],[20.6484,36.6963],[20.6411,36.6996],[20.6286,36.704],[20.6177,36.7051],[20.6083,36.7028],[20.6119,36.6956],[20.6285,36.6836],[20.6368,36.6776]],[[20.6763,36.6641],[20.6738,36.6668],[20.6687,36.6723],[20.6666,36.6726],[20.6677,36.6676],[20.6702,36.6649],[20.6743,36.6644],[20.6763,36.6641]],[[20.6206,36.6495],[20.6132,36.6579],[20.5985,36.6746],[20.5849,36.6847],[20.5724,36.688],[20.5716,36.6838],[20.5825,36.6719],[20.594,36.6618],[20.606,36.6535],[20.6142,36.6494],[20.6185,36.6495],[20.6206,36.6495]],[[20.5852,36.6266],[20.5874,36.6289],[20.5918,36.6336],[20.5899,36.6351],[20.5818,36.6336],[20.5796,36.6313],[20.5833,36.6282],[20.5852,36.6266]],[[20.7084,36.6255],[20.7083,36.6265],[20.708,36.6286],[20.708,36.6286],[20.7083,36.6265],[20.7084,36.6255]],[[20.5558,36.6245],[20.5609,36.6263],[20.5712,36.63],[20.5701,36.6377],[20.5578,36.6495],[20.5412,36.6597],[20.5203,36.6684],[20.5057,36.6802],[20.4974,36.6951],[20.4961,36.7013],[20.5018,36.6986],[20.5076,36.6984],[20.5133,36.7007],[20.5252,36.7015],[20.5435,36.7006],[20.552,36.7018],[20.5508,36.7051],[20.5518,36.7059],[20.5552,36.704],[20.5559,36.7051],[20.5542,36.709],[20.5547,36.7101],[20.5575,36.7084],[20.5592,36.7089],[20.5596,36.7116],[20.5563,36.7162],[20.549,36.7226],[20.5432,36.726],[20.5391,36.7263],[20.5362,36.7248],[20.5347,36.7217],[20.5248,36.7241],[20.5065,36.7322],[20.4927,36.7362],[20.4833,36.7362],[20.4769,36.734],[20.4734,36.7298],[20.4734,36.7253],[20.4769,36.7206],[20.4776,36.7172],[20.4755,36.7151],[20.4727,36.7152],[20.469,36.7176],[20.4644,36.7179],[20.4587,36.716],[20.4553,36.7129],[20.4542,36.7085],[20.4451,36.7051],[20.4282,36.7028],[20.4194,36.7003],[20.4189,36.6977],[20.4232,36.6952],[20.4324,36.6927],[20.4375,36.6893],[20.4384,36.685],[20.4423,36.6804],[20.4492,36.6756],[20.4659,36.6666],[20.4924,36.6533],[20.5096,36.6471],[20.5175,36.648],[20.53,36.6425],[20.5472,36.6305],[20.5558,36.6245]],[[20.6932,36.6203],[20.6924,36.6213],[20.6909,36.6233],[20.6909,36.6233],[20.6924,36.6213],[20.6932,36.6203]],[[20.3445,36.5984],[20.3439,36.5993],[20.3428,36.6012],[20.3428,36.6012],[20.3439,36.5993],[20.3445,36.5984]],[[20.4988,36.5651],[20.4992,36.5666],[20.5001,36.5696],[20.4989,36.5712],[20.4958,36.5713],[20.4953,36.5698],[20.4977,36.5667],[20.4988,36.5651]],[[20.3344,36.5589],[20.3353,36.5594],[20.3373,36.5604],[20.3356,36.5629],[20.3303,36.567],[20.3243,36.5683],[20.3177,36.5668],[20.3194,36.5643],[20.3294,36.5607],[20.3344,36.5589]],[[20.5468,36.5589],[20.5501,36.561],[20.5566,36.5652],[20.5654,36.5673],[20.5764,36.5672],[20.5796,36.5706],[20.5749,36.5773],[20.5606,36.5846],[20.5365,36.5923],[20.5223,36.5904],[20.518,36.5791],[20.5236,36.5698],[20.5391,36.5625],[20.5468,36.5589]],[[20.4972,36.537],[20.4986,36.5383],[20.5016,36.5409],[20.5019,36.5433],[20.4996,36.5457],[20.4981,36.5444],[20.4975,36.5394],[20.4972,36.537]],[[20.5018,36.5339],[20.5012,36.5352],[20.5001,36.5377],[20.5001,36.5377],[20.5012,36.5352],[20.5018,36.5339]],[[20.4889,36.5318],[20.4879,36.5326],[20.486,36.5341],[20.486,36.5341],[20.4879,36.5326],[20.4889,36.5318]],[[20.7657,36.5318],[20.7656,36.5329],[20.7652,36.535],[20.7652,36.535],[20.7656,36.5329],[20.7657,36.5318]],[[20.4649,36.5286],[20.4691,36.5294],[20.4774,36.531],[20.4782,36.5332],[20.4715,36.5361],[20.4668,36.5371],[20.4638,36.5363],[20.463,36.5341],[20.4643,36.5304],[20.4649,36.5286]],[[20.5417,36.4932],[20.5427,36.4935],[20.5447,36.494],[20.542,36.4979],[20.5345,36.505],[20.5288,36.5071],[20.5252,36.5041],[20.5279,36.5003],[20.5371,36.4956],[20.5417,36.4932]],[[20.1969,36.4859],[20.1994,36.4884],[20.2043,36.4935],[20.2019,36.4992],[20.192,36.5057],[20.1895,36.5032],[20.1944,36.4917],[20.1969,36.4859]],[[20.2914,36.4693],[20.2979,36.4706],[20.3108,36.4733],[20.3177,36.4812],[20.3186,36.4941],[20.3134,36.4974],[20.3019,36.4911],[20.2937,36.4844],[20.2886,36.4771],[20.2874,36.4724],[20.2901,36.4703],[20.2914,36.4693]],[[20.3089,36.4782],[20.3098,36.4791],[20.3117,36.4809],[20.3117,36.4809],[20.3098,36.4791],[20.3089,36.4782]],[[20.5853,36.4536],[20.582,36.4547],[20.5753,36.4568],[20.5753,36.4568],[20.582,36.4547],[20.5853,36.4536]],[[20.4052,36.4453],[20.4052,36.4503],[20.4051,36.4602],[20.4036,36.466],[20.4009,36.4677],[20.4009,36.4627],[20.4038,36.4511],[20.4052,36.4453]],[[20.2818,36.4339],[20.2813,36.4355],[20.2802,36.4386],[20.2802,36.4386],[20.2813,36.4355],[20.2818,36.4339]],[[20.5279,36.3974],[20.5267,36.3982],[20.5244,36.3997],[20.5244,36.3997],[20.5267,36.3982],[20.5279,36.3974]],[[20.5348,36.3776],[20.5347,36.3815],[20.5346,36.3893],[20.5307,36.3952],[20.5231,36.3991],[20.5196,36.396],[20.5202,36.3858],[20.5241,36.3799],[20.5312,36.3784],[20.5348,36.3776]],[[20.3238,36.3339],[20.3246,36.3352],[20.3262,36.3378],[20.3248,36.3407],[20.3204,36.3438],[20.3155,36.3443],[20.31,36.3421],[20.3114,36.3393],[20.3197,36.3357],[20.3238,36.3339]],[[20.6391,36.3297],[20.6411,36.3313],[20.6449,36.3344],[20.645,36.3403],[20.6413,36.3492],[20.6411,36.3544],[20.6444,36.356],[20.6454,36.3588],[20.6439,36.3627],[20.6501,36.3671],[20.6638,36.372],[20.6619,36.3764],[20.6446,36.3801],[20.633,36.3793],[20.6271,36.3741],[20.625,36.3695],[20.6268,36.3658],[20.6307,36.3634],[20.6368,36.3625],[20.6383,36.3611],[20.6354,36.3594],[20.6265,36.3607],[20.6118,36.365],[20.6126,36.3607],[20.6289,36.3477],[20.6375,36.3383],[20.6386,36.3326],[20.6391,36.3297]],[[20.7583,36.3286],[20.7568,36.3291],[20.7538,36.3302],[20.7538,36.3302],[20.7568,36.3291],[20.7583,36.3286]],[[20.3308,36.3214],[20.33,36.3234],[20.3284,36.3273],[20.3268,36.328],[20.3251,36.3257],[20.3259,36.3237],[20.3292,36.3222],[20.3308,36.3214]],[[20.5192,36.3172],[20.5152,36.3237],[20.5071,36.3367],[20.5006,36.3444],[20.4957,36.3466],[20.4925,36.3451],[20.491,36.3397],[20.4953,36.3321],[20.5056,36.3222],[20.5128,36.3172],[20.5171,36.3172],[20.5192,36.3172]],[[20.7258,36.312],[20.7309,36.3138],[20.7411,36.3175],[20.7421,36.3196],[20.7338,36.3201],[20.7274,36.3188],[20.7227,36.3157],[20.7217,36.3136],[20.7244,36.3125],[20.7258,36.312]],[[20.71,36.3089],[20.7105,36.3102],[20.7115,36.3129],[20.7097,36.3142],[20.705,36.3141],[20.7045,36.3128],[20.7082,36.3102],[20.71,36.3089]],[[20.5179,36.3036],[20.5164,36.3047],[20.5135,36.3069],[20.5135,36.3069],[20.5164,36.3047],[20.5179,36.3036]],[[20.7073,36.2943],[20.708,36.2954],[20.7093,36.2976],[20.7093,36.2976],[20.708,36.2954],[20.7073,36.2943]],[[20.699,36.2734],[20.7002,36.2778],[20.7025,36.2867],[20.7017,36.2909],[20.6979,36.2904],[20.6968,36.2859],[20.6983,36.2776],[20.699,36.2734]],[[20.7353,36.2714],[20.7362,36.2723],[20.7382,36.274],[20.7369,36.2751],[20.7324,36.2754],[20.7314,36.2745],[20.734,36.2724],[20.7353,36.2714]],[[20.3609,36.2641],[20.3617,36.2654],[20.3633,36.268],[20.3633,36.268],[20.3617,36.2654],[20.3609,36.2641]],[[20.5508,36.2234],[20.551,36.226],[20.5514,36.2311],[20.5501,36.2322],[20.5472,36.2291],[20.547,36.2266],[20.5495,36.2245],[20.5508,36.2234]],[[20.5455,36.2214],[20.5452,36.2224],[20.5446,36.2244],[20.5446,36.2244],[20.5452,36.2224],[20.5455,36.2214]],[[20.7153,36.2172],[20.715,36.2183],[20.7144,36.2205],[20.7144,36.2205],[20.715,36.2183],[20.7153,36.2172]],[[20.7769,36.2047],[20.7777,36.206],[20.7792,36.2086],[20.7787,36.2096],[20.776,36.2092],[20.7752,36.2079],[20.7763,36.2058],[20.7769,36.2047]],[[20.7183,36.2036],[20.7173,36.2064],[20.7151,36.2121],[20.7135,36.2134],[20.7122,36.2104],[20.7133,36.2076],[20.7166,36.2049],[20.7183,36.2036]],[[20.6481,36.1995],[20.6461,36.2055],[20.6422,36.2174],[20.6384,36.2237],[20.6347,36.2242],[20.6336,36.2192],[20.6351,36.2088],[20.639,36.2026],[20.645,36.2005],[20.6481,36.1995]],[[20.6485,36.1734],[20.6531,36.1758],[20.6623,36.1805],[20.6655,36.1867],[20.6627,36.1945],[20.6552,36.1953],[20.6431,36.189],[20.638,36.1828],[20.6401,36.1766],[20.643,36.1735],[20.6467,36.1734],[20.6485,36.1734]],[[20.4922,36.1432],[20.4945,36.1445],[20.4992,36.1471],[20.4995,36.1495],[20.4955,36.1516],[20.4945,36.1541],[20.4964,36.157],[20.5017,36.1601],[20.5102,36.1634],[20.5122,36.1677],[20.5075,36.1729],[20.5061,36.179],[20.508,36.186],[20.5062,36.1899],[20.5008,36.1907],[20.4982,36.1892],[20.4983,36.1853],[20.4961,36.1829],[20.4914,36.1819],[20.4816,36.184],[20.4665,36.1891],[20.458,36.1897],[20.4561,36.1859],[20.4579,36.1803],[20.4632,36.173],[20.4678,36.1698],[20.4715,36.1709],[20.4723,36.1735],[20.47,36.1776],[20.4702,36.1799],[20.4731,36.1802],[20.4792,36.1763],[20.4886,36.1682],[20.4899,36.1622],[20.4831,36.1584],[20.4784,36.1577],[20.4758,36.1599],[20.4722,36.1603],[20.4675,36.1586],[20.4701,36.1565],[20.48,36.154],[20.4867,36.1503],[20.4904,36.1456],[20.4922,36.1432]],[[20.5477,36.1422],[20.5509,36.1451],[20.5574,36.1508],[20.5591,36.1555],[20.5562,36.1591],[20.5597,36.1641],[20.5698,36.1703],[20.5719,36.1741],[20.5659,36.1756],[20.5625,36.1801],[20.5614,36.1877],[20.5569,36.1925],[20.5489,36.1944],[20.5479,36.1987],[20.5538,36.2055],[20.5557,36.2107],[20.5536,36.2143],[20.5507,36.2148],[20.5471,36.2122],[20.5432,36.2127],[20.5391,36.2164],[20.5345,36.213],[20.5296,36.2026],[20.5319,36.1925],[20.5416,36.1826],[20.545,36.1764],[20.5423,36.1737],[20.5425,36.1719],[20.5459,36.1708],[20.5476,36.1633],[20.5476,36.1492],[20.5477,36.1422]],[[20.5589,36.1679],[20.5601,36.1693],[20.5624,36.172],[20.5624,36.172],[20.5601,36.1693],[20.5589,36.1679]],[[20.6468,36.1422],[20.6492,36.1459],[20.6538,36.1531],[20.654,36.1601],[20.6496,36.1669],[20.6473,36.1632],[20.647,36.1492],[20.6468,36.1422]],[[20.6374,36.1339],[20.6386,36.1355],[20.641,36.1387],[20.6398,36.1397],[20.6351,36.1386],[20.6339,36.137],[20.6362,36.1349],[20.6374,36.1339]],[[20.4804,36.1286],[20.4816,36.1299],[20.4841,36.1326],[20.4841,36.1326],[20.4816,36.1299],[20.4804,36.1286]],[[20.497,36.1078],[20.4975,36.1088],[20.4986,36.111],[20.4965,36.1128],[20.4911,36.1143],[20.4906,36.1133],[20.4949,36.1096],[20.497,36.1078]],[[20.6634,36.1026],[20.662,36.1057],[20.6592,36.1118],[20.6579,36.1118],[20.658,36.1057],[20.6594,36.1026],[20.6621,36.1026],[20.6634,36.1026]],[[20.7708,36.0682],[20.7704,36.0709],[20.7697,36.0764],[20.7627,36.0798],[20.7494,36.0811],[20.7434,36.0791],[20.7447,36.0738],[20.7482,36.0719],[20.7539,36.0734],[20.7603,36.0726],[20.7673,36.0697],[20.7708,36.0682]],[[20.572,36.0589],[20.5735,36.0605],[20.5767,36.0636],[20.5766,36.0662],[20.5735,36.0683],[20.5743,36.0711],[20.579,36.0748],[20.5799,36.0849],[20.577,36.1016],[20.5725,36.111],[20.5662,36.1132],[20.5596,36.1131],[20.5529,36.1107],[20.5417,36.1176],[20.526,36.1338],[20.5155,36.1412],[20.51,36.1398],[20.5076,36.1367],[20.5085,36.1317],[20.506,36.1234],[20.5001,36.1116],[20.4999,36.1062],[20.5052,36.1073],[20.5067,36.1068],[20.5042,36.1047],[20.5036,36.1013],[20.5049,36.0966],[20.5069,36.0932],[20.5096,36.0909],[20.5138,36.0916],[20.5195,36.0953],[20.523,36.0956],[20.5241,36.0926],[20.5234,36.0901],[20.5207,36.0883],[20.5222,36.0866],[20.5279,36.0851],[20.5349,36.0799],[20.5432,36.071],[20.5516,36.0665],[20.5599,36.0664],[20.5661,36.0645],[20.57,36.0608],[20.572,36.0589]],[[20.5141,36.0923],[20.5122,36.0936],[20.5083,36.0961],[20.5073,36.0986],[20.509,36.1008],[20.5109,36.0996],[20.5131,36.0947],[20.5141,36.0923]],[[20.5589,36.0731],[20.5572,36.0737],[20.5536,36.0749],[20.5523,36.0772],[20.5532,36.0806],[20.5558,36.0809],[20.5601,36.078],[20.5614,36.0757],[20.5597,36.074],[20.5589,36.0731]],[[20.629,36.0245],[20.6296,36.0255],[20.6308,36.0276],[20.6289,36.0312],[20.624,36.0365],[20.6232,36.042],[20.6267,36.0477],[20.625,36.0526],[20.6181,36.0568],[20.613,36.0629],[20.6095,36.0709],[20.6067,36.0725],[20.6044,36.0676],[20.6041,36.0591],[20.6058,36.0471],[20.6123,36.037],[20.6234,36.0287],[20.629,36.0245]],[[20.7519,36.0099],[20.7558,36.0117],[20.7636,36.0154],[20.7647,36.0183],[20.7592,36.0204],[20.7561,36.0266],[20.7554,36.037],[20.7571,36.0466],[20.7611,36.0555],[20.7618,36.0608],[20.7591,36.0626],[20.7535,36.0569],[20.7448,36.0436],[20.7433,36.0302],[20.749,36.0167],[20.7519,36.0099]],[[20.5308,36.0005],[20.5287,36.0016],[20.5245,36.0037],[20.5216,36.0037],[20.52,36.0016],[20.5221,36.0005],[20.5279,36.0005],[20.5308,36.0005]],[[20.6455,36.0005],[20.6458,36.0021],[20.6462,36.0052],[20.646,36.0055],[20.6449,36.003],[20.6432,36.0024],[20.6409,36.004],[20.6412,36.0037],[20.6441,36.0016],[20.6455,36.0005]],[[20.908,36.0005],[20.9061,36.0005],[20.9022,36.0005],[20.9022,36.0005],[20.9061,36.0005],[20.908,36.0005]],[[20.9891,36.9222],[20.9829,36.9197],[20.9703,36.9146],[20.9607,36.9069],[20.9539,36.8969],[20.944,36.891],[20.931,36.8893],[20.917,36.8851],[20.9019,36.8785],[20.8909,36.8745],[20.8841,36.873],[20.8786,36.8753],[20.8745,36.8813],[20.8682,36.8862],[20.8599,36.89],[20.8469,36.8924],[20.8291,36.8933],[20.8083,36.8803],[20.7844,36.8533],[20.7703,36.8393],[20.7662,36.8382],[20.758,36.8385],[20.7456,36.8402],[20.7397,36.847],[20.74,36.8587],[20.7341,36.8689],[20.7221,36.8776],[20.7099,36.8817],[20.6974,36.8814],[20.6869,36.884],[20.6786,36.8895],[20.6752,36.8945],[20.6768,36.8991],[20.6696,36.8981],[20.6535,36.8913],[20.6428,36.8927],[20.6376,36.9021],[20.6373,36.9188],[20.6419,36.9427],[20.6426,36.9604],[20.6394,36.9719],[20.6395,36.9797],[20.6428,36.9838],[20.642,36.9885],[20.6373,36.9936],[20.6317,36.9952],[20.6253,36.9932],[20.6183,36.9874],[20.6106,36.978],[20.6019,36.9706],[20.5919,36.9653],[20.5703,36.9592],[20.537,36.9525],[20.5148,36.9448],[20.5039,36.9362],[20.493,36.9347],[20.4821,36.9403],[20.4693,36.9538],[20.4546,36.9752],[20.4428,36.986],[20.4341,36.9861],[20.4297,36.9861]],[[20.4655,36.0172],[20.4667,36.0201],[20.4691,36.0258],[20.4648,36.0289],[20.4539,36.0294],[20.4435,36.0261],[20.4335,36.019],[20.4264,36.0167],[20.4219,36.0191],[20.4196,36.0224],[20.4194,36.0265],[20.4227,36.03],[20.4294,36.0329],[20.4336,36.0364],[20.4351,36.0407],[20.4369,36.0419],[20.4389,36.04],[20.4398,36.0409],[20.4397,36.0446],[20.4421,36.0453],[20.447,36.043],[20.456,36.0464],[20.469,36.0555],[20.4786,36.0587],[20.4847,36.056],[20.4889,36.0519],[20.4911,36.0463],[20.4943,36.0434],[20.4983,36.0433],[20.4988,36.0456],[20.4954,36.0503],[20.496,36.0539],[20.5004,36.0565],[20.5023,36.0599],[20.5016,36.064],[20.4997,36.0681],[20.4968,36.072],[20.4932,36.0739],[20.4889,36.0736],[20.4863,36.0763],[20.4854,36.0822],[20.482,36.0838],[20.4763,36.0812],[20.4725,36.0819],[20.4707,36.086],[20.4671,36.0882],[20.4616,36.0885],[20.4579,36.0841],[20.4559,36.0749],[20.4533,36.0705],[20.45,36.0708],[20.4479,36.0689],[20.4469,36.0647],[20.4448,36.063],[20.4415,36.0638],[20.4395,36.0672],[20.4388,36.0735],[20.4354,36.08],[20.4294,36.0867],[20.4254,36.0943],[20.4234,36.1026],[20.4289,36.109],[20.4419,36.1133],[20.4487,36.1115],[20.4492,36.1035],[20.4539,36.0987],[20.4628,36.0972],[20.4682,36.098],[20.4703,36.1013],[20.4668,36.1052],[20.4576,36.1097],[20.4576,36.1128],[20.467,36.1143],[20.4712,36.119],[20.4703,36.1268],[20.4678,36.1315],[20.4637,36.1331],[20.4618,36.1373],[20.4621,36.144],[20.4588,36.149],[20.452,36.152],[20.4487,36.156],[20.4487,36.1606],[20.4463,36.1646],[20.4414,36.1677],[20.4397,36.1719],[20.4413,36.1771],[20.438,36.1834],[20.4297,36.1907],[20.4258,36.198],[20.4263,36.2053],[20.4276,36.2086],[20.4295,36.2081],[20.4261,36.2161],[20.4172,36.2328],[20.413,36.2453],[20.4135,36.2536],[20.4107,36.2607],[20.4046,36.2665],[20.3988,36.2673],[20.3931,36.263],[20.3895,36.2575],[20.3878,36.2507],[20.38,36.2479],[20.3659,36.249],[20.3588,36.2517],[20.3585,36.2558],[20.357,36.2573],[20.3543,36.2562],[20.3538,36.2601],[20.3555,36.269],[20.3507,36.2789],[20.3397,36.2898],[20.3348,36.299],[20.3363,36.3066],[20.3367,36.3091],[20.3362,36.3067],[20.3346,36.3073],[20.332,36.3108],[20.3289,36.3115],[20.3252,36.3092],[20.3211,36.3092],[20.3164,36.3114],[20.3136,36.3144],[20.3125,36.3182],[20.3125,36.319],[20.3136,36.3166],[20.3154,36.317],[20.318,36.3199],[20.3214,36.3204],[20.3255,36.3184],[20.3261,36.3192],[20.323,36.3229],[20.3139,36.3236],[20.2989,36.3214],[20.2868,36.3253],[20.2774,36.3352],[20.2737,36.3432],[20.2755,36.3495],[20.272,36.3539],[20.2631,36.3565],[20.2574,36.3622],[20.2548,36.3709],[20.2515,36.3774],[20.2474,36.3816],[20.2432,36.3835],[20.239,36.383],[20.2338,36.3865],[20.2274,36.3938],[20.2261,36.399],[20.2296,36.402],[20.2305,36.4052],[20.2285,36.4085],[20.23,36.4075],[20.2346,36.4022],[20.2375,36.4037],[20.2386,36.4122],[20.243,36.4131],[20.2508,36.4065],[20.2573,36.4033],[20.2626,36.4035],[20.2657,36.3975],[20.2667,36.3851],[20.27,36.3785],[20.2758,36.3774],[20.278,36.3797],[20.2769,36.3852],[20.2781,36.388],[20.2816,36.388],[20.2822,36.3914],[20.2799,36.3982],[20.2829,36.4016],[20.2912,36.4015],[20.2957,36.4031],[20.2964,36.4062],[20.2925,36.4107],[20.2839,36.4164],[20.278,36.4258],[20.2747,36.4388],[20.269,36.4472],[20.2608,36.451],[20.2526,36.4523],[20.2443,36.4513],[20.2331,36.4527],[20.219,36.4566],[20.2136,36.4602],[20.217,36.4635],[20.2175,36.4675],[20.2152,36.4722],[20.212,36.474],[20.208,36.4729],[20.2051,36.474],[20.2034,36.4773],[20.2013,36.4765],[20.1989,36.4717],[20.2004,36.4675],[20.2061,36.4638],[20.2072,36.4615],[20.2037,36.4604],[20.2026,36.4583],[20.204,36.4552],[20.2023,36.4541],[20.1974,36.4552],[20.1932,36.4629],[20.1897,36.4772],[20.1857,36.4841],[20.181,36.4833],[20.1751,36.4855],[20.1682,36.4907],[20.1636,36.4961],[20.1613,36.5018],[20.158,36.5052],[20.1537,36.5062],[20.1503,36.5101],[20.1478,36.5169],[20.1446,36.5211],[20.1407,36.5226],[20.1383,36.5268],[20.1374,36.5336],[20.1401,36.5349],[20.1462,36.5307],[20.1516,36.5294],[20.1563,36.531],[20.156,36.5344],[20.1508,36.5396],[20.1482,36.5448],[20.1483,36.55],[20.1457,36.5547],[20.1406,36.559],[20.1297,36.5624],[20.1132,36.5649],[20.1041,36.5692],[20.1024,36.5755],[20.1052,36.5788],[20.1125,36.5791],[20.1216,36.5758],[20.1325,36.5688],[20.1437,36.5653],[20.1552,36.5654],[20.1657,36.5575],[20.1752,36.5418],[20.1792,36.5331],[20.1777,36.5315],[20.1799,36.5308],[20.1861,36.5309],[20.1888,36.5297],[20.1883,36.527],[20.1906,36.5247],[20.1958,36.5226],[20.1979,36.5192],[20.1969,36.5144],[20.1998,36.5118],[20.2065,36.5113],[20.2148,36.5079],[20.2248,36.5015],[20.2307,36.4996],[20.2326,36.5023],[20.2265,36.5101],[20.2125,36.5232],[20.206,36.5331],[20.207,36.5398],[20.2055,36.5445],[20.2014,36.5471],[20.2041,36.5491],[20.2135,36.5505],[20.2193,36.5529],[20.2214,36.5562],[20.2201,36.5602],[20.2154,36.5649],[20.2188,36.5659],[20.2302,36.5633],[20.2313,36.5662],[20.2219,36.5745],[20.2211,36.5822],[20.2289,36.5892],[20.2391,36.5898],[20.2515,36.584],[20.2609,36.5826],[20.2672,36.5856],[20.2773,36.5855],[20.2914,36.5822],[20.3,36.5837],[20.3032,36.59],[20.3033,36.5956],[20.3002,36.6003],[20.3002,36.6029],[20.3032,36.6036],[20.3084,36.6],[20.3156,36.5922],[20.3209,36.5891],[20.324,36.5907],[20.3248,36.5904],[20.3233,36.5881],[20.3286,36.5861],[20.3404,36.5842],[20.3523,36.578],[20.3642,36.5673],[20.3695,36.5581],[20.3683,36.5503],[20.3731,36.5412],[20.3839,36.5307],[20.3878,36.5245],[20.3848,36.5224],[20.3839,36.5191],[20.385,36.5144],[20.3883,36.5089],[20.3938,36.5026],[20.3954,36.4945],[20.3933,36.4846],[20.3953,36.4778],[20.4016,36.4742],[20.4055,36.4743],[20.407,36.478],[20.4086,36.4782],[20.4101,36.4749],[20.4157,36.4752],[20.4253,36.4789],[20.4251,36.4857],[20.4152,36.4956],[20.4103,36.5026],[20.4106,36.5068],[20.4123,36.5092],[20.4154,36.5097],[20.4163,36.5146],[20.415,36.5239],[20.4078,36.5367],[20.3947,36.5528],[20.3904,36.5621],[20.3951,36.5646],[20.3995,36.5639],[20.4036,36.5601],[20.4063,36.5602],[20.4076,36.5641],[20.4016,36.5675],[20.3884,36.5702],[20.3821,36.574],[20.3825,36.5789],[20.3794,36.5829],[20.3727,36.5861],[20.364,36.5964],[20.3534,36.6137],[20.3435,36.6241],[20.3343,36.6274],[20.3271,36.6337],[20.3219,36.6428],[20.3191,36.6492],[20.3187,36.6529],[20.3205,36.6551],[20.3246,36.6559],[20.3334,36.6532],[20.3469,36.647],[20.3581,36.6397],[20.367,36.6312],[20.3755,36.6324],[20.3836,36.6431],[20.3776,36.6501],[20.3575,36.6534],[20.344,36.6598],[20.3373,36.6694],[20.3409,36.686],[20.3548,36.7096],[20.3595,36.7249],[20.3549,36.7318],[20.3482,36.7359],[20.3393,36.7373],[20.3385,36.7396],[20.346,36.7427],[20.3483,36.7469],[20.3454,36.7521],[20.347,36.7573],[20.3531,36.7625],[20.3529,36.7667],[20.3464,36.7698],[20.3468,36.773],[20.3541,36.7761],[20.3573,36.7807],[20.3562,36.7868],[20.3531,36.7902],[20.3479,36.791],[20.3459,36.7932],[20.3472,36.7967],[20.3467,36.7987],[20.3444,36.7992],[20.3398,36.799],[20.333,36.7979],[20.3312,36.7953],[20.3345,36.7912],[20.3344,36.7891],[20.3312,36.7891],[20.3297,36.7873],[20.33,36.7836],[20.3251,36.7836],[20.3148,36.7873],[20.3107,36.7913],[20.313,36.7956],[20.3157,36.7961],[20.3187,36.7928],[20.3235,36.7971],[20.3301,36.8091],[20.3256,36.8096],[20.3103,36.7987],[20.304,36.7916],[20.3069,36.7886],[20.3074,36.7849],[20.3056,36.7807],[20.3031,36.7793],[20.3,36.7807],[20.2976,36.7798],[20.2961,36.7768],[20.2945,36.7774],[20.293,36.7817],[20.2928,36.7797],[20.2939,36.7714],[20.2926,36.7641],[20.289,36.7578],[20.2857,36.755],[20.2828,36.7554],[20.2822,36.7527],[20.284,36.7467],[20.2893,36.7415],[20.298,36.7371],[20.3025,36.7323],[20.3028,36.7271],[20.2998,36.7235],[20.2937,36.7214],[20.2919,36.7198],[20.2944,36.7187],[20.2937,36.7179],[20.2899,36.7171],[20.2867,36.7143],[20.2841,36.7092],[20.2793,36.7064],[20.2723,36.706],[20.2676,36.7002],[20.2653,36.6892],[20.2602,36.6806],[20.2523,36.6745],[20.2411,36.6731],[20.2266,36.6764],[20.2182,36.6808],[20.2162,36.6861],[20.2109,36.6876],[20.2026,36.6851],[20.1965,36.6882],[20.1927,36.6972],[20.1917,36.7024],[20.1934,36.7039],[20.1893,36.7086],[20.1795,36.7165],[20.1725,36.7186],[20.1685,36.7149],[20.168,36.7096],[20.1709,36.7029],[20.1711,36.6976],[20.1685,36.6938],[20.1622,36.6954],[20.1521,36.7023],[20.1461,36.7083],[20.1442,36.7135],[20.1403,36.7165],[20.1347,36.7174],[20.1331,36.7233],[20.1357,36.7344],[20.1412,36.74],[20.1495,36.7401],[20.1549,36.7416],[20.1576,36.7445],[20.1608,36.745],[20.1645,36.7431],[20.166,36.75],[20.1654,36.7656],[20.1681,36.7771],[20.1742,36.7843],[20.1805,36.7888],[20.1872,36.7903],[20.1896,36.7932],[20.1878,36.7974],[20.1967,36.7985],[20.2162,36.7963],[20.2213,36.8016],[20.2122,36.8141],[20.2087,36.8217],[20.2109,36.8243],[20.217,36.8249],[20.227,36.8232],[20.2262,36.8253],[20.2145,36.831],[20.2085,36.835],[20.208,36.8372],[20.2092,36.8374],[20.2121,36.8358],[20.2113,36.8373],[20.2068,36.842],[20.2066,36.8475],[20.2109,36.8538],[20.2181,36.8538],[20.2282,36.8475],[20.2381,36.8439],[20.2478,36.8432],[20.2516,36.8385],[20.2495,36.8298],[20.2534,36.8226],[20.2631,36.817],[20.2715,36.8071],[20.2784,36.793],[20.2841,36.7856],[20.2888,36.7849],[20.2909,36.7872],[20.2904,36.7925],[20.2935,36.7961],[20.3002,36.7982],[20.3084,36.804],[20.3181,36.8135],[20.323,36.8229],[20.3233,36.8323],[20.3208,36.8313],[20.3156,36.8198],[20.3139,36.8222],[20.3156,36.8383],[20.3182,36.8446],[20.3216,36.8409],[20.3255,36.8421],[20.3297,36.8481],[20.3483,36.846],[20.3812,36.8358],[20.3984,36.8258],[20.3997,36.8159],[20.403,36.8091],[20.4083,36.8054],[20.4091,36.8028],[20.4052,36.8013],[20.4036,36.7994],[20.4043,36.7971],[20.4019,36.7976],[20.3963,36.8009],[20.3945,36.8036],[20.3964,36.8054],[20.3961,36.8064],[20.3935,36.8064],[20.3927,36.8038],[20.3938,36.7987],[20.3907,36.798],[20.3834,36.8017],[20.3841,36.7999],[20.393,36.7924],[20.4016,36.7881],[20.4099,36.7871],[20.4162,36.788],[20.4203,36.791],[20.4245,36.7902],[20.4286,36.7855],[20.4318,36.7856],[20.4339,36.7903],[20.4367,36.792],[20.4404,36.7905],[20.444,36.7948],[20.4476,36.8049],[20.4549,36.8121],[20.4659,36.8164],[20.4707,36.8177],[20.4694,36.816],[20.4764,36.8085],[20.4918,36.7954],[20.5009,36.7845],[20.5036,36.7758],[20.5073,36.7698],[20.512,36.7667],[20.5271,36.7674],[20.5524,36.7722],[20.5761,36.7692],[20.5979,36.7586],[20.6087,36.7508],[20.6082,36.7457],[20.6107,36.7393],[20.6161,36.7315],[20.6216,36.7268],[20.6271,36.7253],[20.6327,36.7203],[20.6383,36.712],[20.6448,36.707],[20.6521,36.7053],[20.6573,36.7078],[20.6604,36.7143],[20.6625,36.7135],[20.6636,36.7054],[20.6657,36.7042],[20.6688,36.7099],[20.6699,36.7065],[20.669,36.6942],[20.6701,36.6852],[20.673,36.6795],[20.6782,36.6808],[20.6855,36.6891],[20.6899,36.6907],[20.6914,36.6854],[20.6954,36.6857],[20.7018,36.6914],[20.7049,36.6893],[20.7048,36.6792],[20.7071,36.6735],[20.7118,36.6722],[20.7162,36.6683],[20.7203,36.6617],[20.7255,36.659],[20.7318,36.6601],[20.7374,36.6581],[20.7423,36.653],[20.7438,36.6474],[20.742,36.6411],[20.7297,36.634],[20.707,36.6263],[20.6984,36.6212],[20.704,36.6188],[20.7071,36.6153],[20.7075,36.6106],[20.7152,36.6053],[20.7299,36.5994],[20.738,36.5946],[20.7397,36.5909],[20.7472,36.5894],[20.7605,36.5901],[20.7684,36.5838],[20.771,36.5707],[20.7762,36.5571],[20.7841,36.543],[20.7869,36.5356],[20.7847,36.5352],[20.7842,36.533],[20.7853,36.5291],[20.7849,36.5311],[20.7828,36.5389],[20.7802,36.5406],[20.7771,36.5361],[20.7768,36.5329],[20.7793,36.5308],[20.7796,36.5287],[20.7776,36.5266],[20.7753,36.5266],[20.7727,36.5287],[20.772,36.5266],[20.7732,36.5203],[20.7756,36.5162],[20.7793,36.5141],[20.78,36.5123],[20.7777,36.5109],[20.7797,36.5082],[20.786,36.5042],[20.7912,36.5049],[20.7953,36.5102],[20.7974,36.5098],[20.7974,36.5036],[20.7949,36.5],[20.79,36.4989],[20.7885,36.4968],[20.7904,36.4938],[20.795,36.4951],[20.8021,36.5011],[20.808,36.5013],[20.8125,36.4959],[20.8141,36.4906],[20.8127,36.4853],[20.8073,36.4837],[20.7979,36.4858],[20.7943,36.4816],[20.7967,36.4713],[20.8008,36.4681],[20.8069,36.4721],[20.8111,36.4724],[20.8137,36.4689],[20.8136,36.4656],[20.811,36.4625],[20.8076,36.4614],[20.8032,36.4625],[20.8017,36.4589],[20.8028,36.4506],[20.8018,36.4478],[20.7989,36.4505],[20.7955,36.4492],[20.7916,36.4438],[20.7918,36.4379],[20.7962,36.4314],[20.8012,36.4277],[20.8067,36.427],[20.8132,36.423],[20.8209,36.4157],[20.8233,36.4091],[20.8206,36.4034],[20.8213,36.3984],[20.8254,36.3943],[20.8254,36.3888],[20.8212,36.382],[20.821,36.377],[20.8249,36.374],[20.821,36.3701],[20.8093,36.3654],[20.8034,36.3596],[20.8034,36.3529],[20.8117,36.3396],[20.8286,36.3198],[20.8315,36.3108],[20.8206,36.3127],[20.8117,36.3123],[20.805,36.3096],[20.7909,36.3118],[20.7696,36.3189],[20.7617,36.3169],[20.7674,36.306],[20.7682,36.2984],[20.7641,36.2943],[20.7669,36.2906],[20.7768,36.2875],[20.7817,36.292],[20.7818,36.3041],[20.7896,36.3054],[20.8054,36.2959],[20.8103,36.2882],[20.8045,36.2823],[20.8003,36.2823],[20.7977,36.288],[20.7934,36.2899],[20.7875,36.288],[20.7866,36.2844],[20.7907,36.2792],[20.7918,36.2758],[20.7901,36.2742],[20.7821,36.2771],[20.768,36.2845],[20.7565,36.2843],[20.7476,36.2763],[20.7528,36.2667],[20.7719,36.2552],[20.7825,36.2472],[20.7846,36.2425],[20.7847,36.2341],[20.7828,36.2221],[20.7849,36.2162],[20.7912,36.2165],[20.7976,36.2196],[20.8043,36.2256],[20.8049,36.2151],[20.7996,36.188],[20.8011,36.1703],[20.8096,36.162],[20.8128,36.1563],[20.8109,36.1532],[20.8109,36.1499],[20.8131,36.1465],[20.8297,36.1348],[20.8609,36.1147],[20.8759,36.0992],[20.8747,36.0883],[20.8768,36.0829],[20.8822,36.0829],[20.8849,36.0801],[20.8848,36.0743],[20.8879,36.0717],[20.8939,36.0722],[20.8958,36.0695],[20.8933,36.0638],[20.8978,36.0555],[20.9093,36.0446],[20.9255,36.0367],[20.9464,36.0317],[20.9579,36.0265],[20.96,36.021],[20.963,36.018],[20.9666,36.0175],[20.9686,36.0159],[20.9689,36.0133],[20.9674,36.0125],[20.9641,36.0136],[20.9632,36.0126],[20.9645,36.0097],[20.9636,36.0097],[20.9607,36.0126],[20.9592,36.0141]],[[20.4141,36.9118],[20.4053,36.9168],[20.3876,36.9268],[20.3776,36.9355],[20.3752,36.9427],[20.377,36.9504],[20.3829,36.9584],[20.3922,36.9603],[20.4047,36.956],[20.4159,36.9478],[20.4259,36.9357],[20.4296,36.9263],[20.4269,36.9194],[20.4227,36.915],[20.417,36.9129],[20.4141,36.9118]],[[20.2286,36.8595],[20.2272,36.8596],[20.2245,36.8598],[20.2245,36.8598],[20.2272,36.8596],[20.2286,36.8595]],[[20.4297,36.8452],[20.4294,36.8462],[20.4289,36.8481],[20.4289,36.8481],[20.4294,36.8462],[20.4297,36.8452]],[[20.4172,36.8275],[20.4141,36.8307],[20.4078,36.837],[20.3955,36.8425],[20.377,36.8472],[20.3663,36.8535],[20.3635,36.8614],[20.3569,36.8682],[20.3469,36.8738],[20.3432,36.8779],[20.3459,36.8805],[20.3463,36.8834],[20.3443,36.8864],[20.3402,36.8883],[20.3338,36.8888],[20.3301,36.8927],[20.329,36.9],[20.3316,36.9057],[20.3379,36.9098],[20.3442,36.9086],[20.3505,36.9019],[20.3612,36.8971],[20.3763,36.8941],[20.387,36.8935],[20.3933,36.8954],[20.4003,36.8947],[20.4081,36.8914],[20.4112,36.8885],[20.4097,36.8859],[20.4003,36.8845],[20.3831,36.8843],[20.3736,36.8813],[20.3717,36.8754],[20.3738,36.8703],[20.3798,36.866],[20.3893,36.8642],[20.4024,36.865],[20.413,36.8637],[20.4214,36.8603],[20.4234,36.8508],[20.4193,36.8353],[20.4172,36.8275]],[[20.2932,36.8236],[20.2889,36.8264],[20.2804,36.8321],[20.2759,36.8378],[20.2755,36.8435],[20.2773,36.8461],[20.2812,36.8456],[20.2818,36.8471],[20.2788,36.8508],[20.2793,36.8537],[20.283,36.8558],[20.29,36.8535],[20.3001,36.8466],[20.3042,36.841],[20.3025,36.8367],[20.297,36.837],[20.2879,36.8418],[20.2858,36.8391],[20.2907,36.8288],[20.2932,36.8236]],[[20.2964,36.8175],[20.2959,36.8186],[20.2948,36.8209],[20.2948,36.8209],[20.2959,36.8186],[20.2964,36.8175]],[[20.4911,36.7928],[20.4906,36.7937],[20.4895,36.7955],[20.4895,36.7955],[20.4906,36.7937],[20.4911,36.7928]],[[20.1714,36.7868],[20.1693,36.7876],[20.1653,36.7893],[20.1658,36.7914],[20.1709,36.794],[20.1729,36.7932],[20.1719,36.7889],[20.1714,36.7868]],[[20.3099,36.7676],[20.3092,36.7693],[20.3077,36.7728],[20.3082,36.7748],[20.3108,36.7755],[20.3129,36.7747],[20.3147,36.7725],[20.3142,36.7704],[20.3113,36.7686],[20.3099,36.7676]],[[20.1495,36.7587],[20.1474,36.7615],[20.1432,36.7672],[20.1437,36.7697],[20.149,36.769],[20.1511,36.7662],[20.15,36.7612],[20.1495,36.7587]],[[20.1734,36.7082],[20.172,36.7086],[20.1692,36.7095],[20.1692,36.7095],[20.172,36.7086],[20.1734,36.7082]],[[20.7203,36.7002],[20.7164,36.7002],[20.7086,36.7002],[20.7034,36.7018],[20.7008,36.7049],[20.6981,36.7049],[20.6954,36.702],[20.6941,36.7086],[20.6942,36.7249],[20.697,36.7272],[20.7024,36.7157],[20.7089,36.7075],[20.7165,36.7026],[20.7203,36.7002]],[[20.1578,36.6932],[20.1573,36.6942],[20.1562,36.6961],[20.1562,36.6961],[20.1573,36.6942],[20.1578,36.6932]],[[20.263,36.6693],[20.2619,36.6703],[20.2596,36.6724],[20.2602,36.675],[20.2635,36.6781],[20.2664,36.6781],[20.269,36.675],[20.2685,36.6724],[20.2648,36.6703],[20.263,36.6693]],[[20.2161,36.6002],[20.2078,36.6046],[20.1911,36.6135],[20.1823,36.6163],[20.1812,36.613],[20.1771,36.611],[20.1698,36.6101],[20.1609,36.6142],[20.1504,36.6231],[20.1491,36.6272],[20.157,36.6263],[20.163,36.6229],[20.1672,36.6172],[20.1716,36.6148],[20.1763,36.6158],[20.1746,36.6215],[20.1667,36.6318],[20.1651,36.6394],[20.1698,36.6441],[20.1717,36.6479],[20.1708,36.6508],[20.1789,36.6545],[20.1961,36.659],[20.2107,36.6597],[20.2226,36.6568],[20.2333,36.6529],[20.2427,36.6482],[20.2477,36.6441],[20.2483,36.6408],[20.2402,36.6386],[20.2234,36.6375],[20.2188,36.6308],[20.2263,36.6183],[20.2265,36.6091],[20.2196,36.6032],[20.2161,36.6002]],[[20.0859,36.5994],[20.0838,36.6005],[20.0798,36.6026],[20.0798,36.6026],[20.0838,36.6005],[20.0859,36.5994]],[[20.0974,36.5919],[20.0951,36.5922],[20.0906,36.5929],[20.09,36.5943],[20.0936,36.5964],[20.0969,36.5964],[20.1002,36.5943],[20.1007,36.5929],[20.0985,36.5922],[20.0974,36.5919]],[[20.112,36.5898],[20.111,36.5904],[20.1089,36.5916],[20.1089,36.5916],[20.111,36.5904],[20.112,36.5898]],[[20.3557,36.59],[20.3531,36.59],[20.348,36.5901],[20.3415,36.5953],[20.3337,36.6057],[20.3319,36.6115],[20.336,36.6128],[20.3424,36.6076],[20.3513,36.5959],[20.3557,36.59]],[[20.0932,36.5743],[20.0912,36.5749],[20.0872,36.576],[20.0872,36.576],[20.0912,36.5749],[20.0932,36.5743]],[[20.7974,36.5595],[20.7963,36.5599],[20.7941,36.5605],[20.7939,36.5622],[20.7956,36.5648],[20.7977,36.5656],[20.8003,36.5646],[20.8006,36.563],[20.7985,36.5607],[20.7974,36.5595]],[[20.137,36.5472],[20.1362,36.5484],[20.1347,36.5509],[20.1347,36.5509],[20.1362,36.5484],[20.137,36.5472]],[[20.0703,36.533],[20.0692,36.5348],[20.0671,36.5383],[20.0686,36.5404],[20.074,36.5411],[20.075,36.5393],[20.0719,36.5351],[20.0703,36.533]],[[20.7807,36.5335],[20.7807,36.5346],[20.7807,36.5367],[20.7807,36.5367],[20.7807,36.5346],[20.7807,36.5335]],[[20.1099,36.5315],[20.1089,36.5314],[20.1067,36.5312],[20.1062,36.5339],[20.1072,36.5394],[20.1059,36.5456],[20.1022,36.5523],[20.1069,36.5558],[20.12,36.5559],[20.125,36.5548],[20.1217,36.5527],[20.1204,36.5497],[20.1211,36.5461],[20.1191,36.5437],[20.1144,36.5427],[20.1116,36.5395],[20.1105,36.5342],[20.1099,36.5315]],[[20.7901,36.5306],[20.7899,36.5319],[20.7894,36.5344],[20.7894,36.5344],[20.7899,36.5319],[20.7901,36.5306]],[[20.8047,36.5214],[20.8036,36.5219],[20.8013,36.5229],[20.8013,36.5229],[20.8036,36.5219],[20.8047,36.5214]],[[20.7797,36.5191],[20.78,36.5204],[20.7805,36.5231],[20.782,36.5237],[20.7847,36.5221],[20.7844,36.5208],[20.7813,36.5197],[20.7797,36.5191]],[[20.813,36.5135],[20.8116,36.5142],[20.8087,36.5155],[20.8079,36.5172],[20.8091,36.5193],[20.8105,36.5186],[20.8122,36.5152],[20.813,36.5135]],[[20.1974,36.4006],[20.1971,36.4017],[20.1967,36.404],[20.1967,36.404],[20.1971,36.4017],[20.1974,36.4006]],[[20.1922,36.3969],[20.1913,36.3978],[20.1894,36.3996],[20.1894,36.3996],[20.1913,36.3978],[20.1922,36.3969]],[[20.2203,36.3972],[20.2196,36.398],[20.2183,36.3997],[20.2183,36.3997],[20.2196,36.398],[20.2203,36.3972]],[[20.3755,36.2369],[20.3742,36.2381],[20.3716,36.2405],[20.3724,36.2414],[20.3765,36.2409],[20.3778,36.2397],[20.3763,36.2378],[20.3755,36.2369]],[[20.3849,36.2242],[20.3838,36.2251],[20.3817,36.2268],[20.3817,36.2268],[20.3838,36.2251],[20.3849,36.2242]],[[20.3859,36.2191],[20.3842,36.2199],[20.3808,36.2216],[20.3808,36.2216],[20.3842,36.2199],[20.3859,36.2191]],[[20.3943,36.2055],[20.3916,36.2058],[20.3863,36.2065],[20.3845,36.2082],[20.3862,36.2111],[20.3888,36.2108],[20.3925,36.2073],[20.3943,36.2055]],[[20.3797,36.1728],[20.3776,36.176],[20.3735,36.1823],[20.3735,36.1823],[20.3776,36.176],[20.3797,36.1728]],[[20.3672,36.1722],[20.3659,36.1739],[20.3633,36.1774],[20.3633,36.1774],[20.3659,36.1739],[20.3672,36.1722]],[[20.3891,36.1712],[20.3876,36.1728],[20.3845,36.176],[20.3853,36.1797],[20.3899,36.184],[20.3914,36.1824],[20.3899,36.1749],[20.3891,36.1712]],[[20.3828,36.1681],[20.3821,36.1689],[20.3807,36.1706],[20.3807,36.1706],[20.3821,36.1689],[20.3828,36.1681]],[[20.3984,36.1469],[20.396,36.1504],[20.3913,36.1574],[20.3913,36.1574],[20.396,36.1504],[20.3984,36.1469]],[[20.338,36.1003],[20.3389,36.1011],[20.3406,36.1028],[20.3406,36.1028],[20.3389,36.1011],[20.338,36.1003]],[[20.3495,36.0938],[20.347,36.095],[20.3419,36.0973],[20.3451,36.0992],[20.3565,36.1008],[20.359,36.0996],[20.3527,36.0958],[20.3495,36.0938]],[[20.9036,36.0678],[20.9028,36.0687],[20.9013,36.0704],[20.9013,36.0704],[20.9028,36.0687],[20.9036,36.0678]],[[20.4807,36.0594],[20.4798,36.0608],[20.4779,36.0637],[20.4787,36.0659],[20.4822,36.0676],[20.4831,36.0661],[20.4815,36.0617],[20.4807,36.0594]],[[20.4401,36.0581],[20.439,36.0593],[20.4368,36.0618],[20.4368,36.0618],[20.439,36.0593],[20.4401,36.0581]],[[20.3911,36.0042],[20.3904,36.0051],[20.3891,36.0069],[20.3891,36.0069],[20.3904,36.0051],[20.3911,36.0042]]]}},{"type":"Feature","properties":{"depth":4000,"kind":"band"},"geometry":{"type":"MultiPolygon","coordinates":[[[[20.8646,36.7163],[20.8739,36.7186],[20.8796,36.7228],[20.8817,36.729],[20.8877,36.7327],[20.8977,36.734],[20.903,36.7362],[20.9037,36.7395],[20.8995,36.743],[20.8905,36.7469],[20.8836,36.747],[20.8789,36.7434],[20.8706,36.741],[20.8586,36.7397],[20.8487,36.7406],[20.8409,36.7437],[20.8312,36.7432],[20.8197,36.7391],[20.8176,36.7327],[20.8249,36.7241],[20.8364,36.7186],[20.8521,36.7163],[20.8599,36.7151],[20.8599,36.7151],[20.8646,36.7163]]],[[[21,36.4958],[21,36.5677],[20.9975,36.6049],[20.9925,36.6076],[20.9925,36.6118],[20.9975,36.6175],[20.9874,36.6233],[20.9621,36.6291],[20.949,36.631],[20.9479,36.6288],[20.9508,36.6269],[20.9575,36.6252],[20.9618,36.6221],[20.9635,36.6174],[20.9601,36.615],[20.9516,36.6149],[20.9456,36.6188],[20.9419,36.6268],[20.9365,36.6337],[20.9292,36.6396],[20.92,36.6376],[20.9091,36.6279],[20.9104,36.6256],[20.9239,36.6307],[20.9321,36.6318],[20.9348,36.629],[20.9354,36.6221],[20.9339,36.6112],[20.9343,36.6001],[20.9368,36.589],[20.9451,36.5856],[20.9592,36.59],[20.9654,36.588],[20.9637,36.5797],[20.9648,36.575],[20.9687,36.5739],[20.9698,36.5703],[20.968,36.564],[20.9708,36.5555],[20.9781,36.5448],[20.9841,36.5297],[20.9886,36.5103],[20.9909,36.4927],[20.9909,36.4771],[20.9932,36.467],[20.9977,36.4623],[21,36.4599],[21,36.4599],[21,36.4958]],[[20.9762,36.6096],[20.9715,36.6119],[20.9694,36.6143],[20.97,36.6169],[20.9724,36.6158],[20.9765,36.6109],[20.9786,36.6085],[20.9786,36.6085],[20.9762,36.6096]]],[[[20.9976,36.2806],[20.9975,36.3303],[20.9937,36.354],[20.9862,36.3517],[20.9797,36.3453],[20.974,36.3349],[20.9736,36.3289],[20.9785,36.3274],[20.9804,36.325],[20.9793,36.3219],[20.9806,36.322],[20.9841,36.3253],[20.9892,36.3264],[20.9957,36.3251],[20.9985,36.3211],[20.9975,36.3143],[20.9942,36.3093],[20.9885,36.3063],[20.9877,36.3042],[20.992,36.3031],[20.9877,36.3018],[20.9748,36.3003],[20.9726,36.2901],[20.9809,36.2714],[20.9882,36.2604],[20.9946,36.2573],[20.9977,36.2557],[20.9977,36.2557],[20.9976,36.2806]]]]}},{"type":"Feature","properties":{"depth":4000,"kind":"isobath"},"geometry":{"type":"MultiLineString","coordinates":[[[20.8599,36.7151],[20.8646,36.7163],[20.8739,36.7186],[20.8796,36.7228],[20.8817,36.729],[20.8877,36.7327],[20.8977,36.734],[20.903,36.7362],[20.9037,36.7395],[20.8995,36.743],[20.8905,36.7469],[20.8836,36.747],[20.8789,36.7434],[20.8706,36.741],[20.8586,36.7397],[20.8487,36.7406],[20.8409,36.7437],[20.8312,36.7432],[20.8197,36.7391],[20.8176,36.7327],[20.8249,36.7241],[20.8364,36.7186],[20.8521,36.7163],[20.8599,36.7151]],[[20.9495,36.6321],[20.949,36.631],[20.9479,36.6288],[20.9508,36.6269],[20.9575,36.6252],[20.9618,36.6221],[20.9635,36.6174],[20.9601,36.615],[20.9516,36.6149],[20.9456,36.6188],[20.9419,36.6268],[20.9365,36.6337],[20.9292,36.6396],[20.92,36.6376],[20.9091,36.6279],[20.9104,36.6256],[20.9239,36.6307],[20.9321,36.6318],[20.9348,36.629],[20.9354,36.6221],[20.9339,36.6112],[20.9343,36.6001],[20.9368,36.589],[20.9451,36.5856],[20.9592,36.59],[20.9654,36.588],[20.9637,36.5797],[20.9648,36.575],[20.9687,36.5739],[20.9698,36.5703],[20.968,36.564],[20.9708,36.5555],[20.9781,36.5448],[20.9841,36.5297],[20.9886,36.5103],[20.9909,36.4927],[20.9909,36.4771],[20.9909,36.4693]],[[20.9786,36.6085],[20.9762,36.6096],[20.9715,36.6119],[20.9694,36.6143],[20.97,36.6169],[20.9724,36.6158],[20.9765,36.6109],[20.9786,36.6085]],[[20.9977,36.2557],[20.9976,36.2806],[20.9975,36.3303],[20.9937,36.354],[20.9862,36.3517],[20.9797,36.3453],[20.974,36.3349],[20.9736,36.3289],[20.9785,36.3274],[20.9804,36.325],[20.9793,36.3219],[20.9806,36.322],[20.9841,36.3253],[20.9892,36.3264],[20.9957,36.3251],[20.9985,36.3211],[20.9975,36.3143],[20.9942,36.3093],[20.9885,36.3063],[20.9877,36.3042],[20.992,36.3031],[20.9877,36.3018],[20.9748,36.3003],[20.9726,36.2901],[20.9809,36.2714],[20.9882,36.2604],[20.9946,36.2573],[20.9977,36.2557]]]}}]}