{"type":"FeatureCollection","features":[{"type":"Feature","properties":{"depth":5,"kind":"band"},"geometry":{"type":"MultiPolygon","coordinates":[[[[21,34.0005],[21,34.9995],[20.9995,35],[20.0005,35],[20,34.9995],[20,34.0005],[20.0005,34],[20.9995,34],[21,34.0005]]]]}},{"type":"Feature","properties":{"depth":10,"kind":"band"},"geometry":{"type":"MultiPolygon","coordinates":[[[[21,34.0005],[21,34.9995],[20.9995,35],[20.0005,35],[20,34.9995],[20,34.0005],[20.0005,34],[20.9995,34],[21,34.0005]]]]}},{"type":"Feature","properties":{"depth":20,"kind":"band"},"geometry":{"type":"MultiPolygon","coordinates":[[[[21,34.0005],[21,34.9995],[20.9995,35],[20.0005,35],[20,34.9995],[20,34.0005],[20.0005,34],[20.9995,34],[21,34.0005]]]]}},{"type":"Feature","properties":{"depth":30,"kind":"band"},"geometry":{"type":"MultiPolygon","coordinates":[[[[21,34.0005],[21,34.9995],[20.9995,35],[20.0005,35],[20,34.9995],[20,34.0005],[20.0005,34],[20.9995,34],[21,34.0005]]]]}},{"type":"Feature","properties":{"depth":40,"kind":"band"},"geometry":{"type":"MultiPolygon","coordinates":[[[[21,34.0005],[21,34.9995],[20.9995,35],[20.0005,35],[20,34.9995],[20,34.0005],[20.0005,34],[20.9995,34],[21,34.0005]]]]}},{"type":"Feature","properties":{"depth":50,"kind":"band"},"geometry":{"type":"MultiPolygon","coordinates":[[[[21,34.0005],[21,34.9995],[20.9995,35],[20.0005,35],[20,34.9995],[20,34.0005],[20.0005,34],[20.9995,34],[21,34.0005]]]]}},{"type":"Feature","properties":{"depth":75,"kind":"band"},"geometry":{"type":"MultiPolygon","coordinates":[[[[21,34.0005],[21,34.9995],[20.9995,35],[20.0005,35],[20,34.9995],[20,34.0005],[20.0005,34],[20.9995,34],[21,34.0005]]]]}},{"type":"Feature","properties":{"depth":100,"kind":"band"},"geometry":{"type":"MultiPolygon","coordinates":[[[[21,34.0005],[21,34.9995],[20.9995,35],[20.0005,35],[20,34.9995],[20,34.0005],[20.0005,34],[20.9995,34],[21,34.0005]]]]}},{"type":"Feature","properties":{"depth":150,"kind":"band"},"geometry":{"type":"MultiPolygon","coordinates":[[[[21,34.0005],[21,34.9995],[20.9995,35],[20.0005,35],[20,34.9995],[20,34.0005],[20.0005,34],[20.9995,34],[21,34.0005]]]]}},{"type":"Feature","properties":{"depth":200,"kind":"band"},"geometry":{"type":"MultiPolygon","coordinates":[[[[21,34.0005],[21,34.9995],[20.9995,35],[20.0005,35],[20,34.9995],[20,34.0005],[20.0005,34],[20.9995,34],[21,34.0005]]]]}}]}