{"type":"FeatureCollection","features":[{"type":"Feature","properties":{"depth":5,"kind":"band"},"geometry":{"type":"MultiPolygon","coordinates":[[[[21.9999,35.2504],[21.9996,35.7501],[21.7496,35.9999],[21.2499,35.9996],[21.0001,35.7496],[21.0004,35.2499],[21.2504,35.0001],[21.7501,35.0004],[22,35.0005],[22,35.0005],[21.9999,35.2504]]]]}},{"type":"Feature","properties":{"depth":10,"kind":"band"},"geometry":{"type":"MultiPolygon","coordinates":[[[[21.9999,35.2504],[21.9996,35.7501],[21.7496,35.9999],[21.2499,35.9996],[21.0001,35.7496],[21.0004,35.2499],[21.2504,35.0001],[21.7501,35.0004],[22,35.0005],[22,35.0005],[21.9999,35.2504]]]]}},{"type":"Feature","properties":{"depth":15,"kind":"band"},"geometry":{"type":"MultiPolygon","coordinates":[[[[21.9999,35.2504],[21.9996,35.7501],[21.7496,35.9999],[21.2499,35.9996],[21.0001,35.7496],[21.0004,35.2499],[21.2504,35.0001],[21.7501,35.0004],[22,35.0005],[22,35.0005],[21.9999,35.2504]]]]}},{"type":"Feature","properties":{"depth":20,"kind":"band"},"geometry":{"type":"MultiPolygon","coordinates":[[[[21.9999,35.2504],[21.9996,35.7501],[21.7496,35.9999],[21.2499,35.9996],[21.0001,35.7496],[21.0004,35.2499],[21.2504,35.0001],[21.7501,35.0004],[22,35.0005],[22,35.0005],[21.9999,35.2504]]]]}},{"type":"Feature","properties":{"depth":25,"kind":"band"},"geometry":{"type":"MultiPolygon","coordinates":[[[[21.9999,35.2504],[21.9996,35.7501],[21.7496,35.9999],[21.2499,35.9996],[21.0001,35.7496],[21.0004,35.2499],[21.2504,35.0001],[21.7501,35.0004],[22,35.0005],[22,35.0005],[21.9999,35.2504]]]]}},{"type":"Feature","properties":{"depth":30,"kind":"band"},"geometry":{"type":"MultiPolygon","coordinates":[[[[21.9999,35.2504],[21.9996,35.7501],[21.7496,35.9999],[21.2499,35.9996],[21.0001,35.7496],[21.0004,35.2499],[21.2504,35.0001],[21.7501,35.0004],[22,35.0005],[22,35.0005],[21.9999,35.2504]]]]}},{"type":"Feature","properties":{"depth":40,"kind":"band"},"geometry":{"type":"MultiPolygon","coordinates":[[[[21.9999,35.2504],[21.9996,35.7501],[21.7496,35.9999],[21.2499,35.9996],[21.0001,35.7496],[21.0004,35.2499],[21.2504,35.0001],[21.7501,35.0004],[22,35.0005],[22,35.0005],[21.9999,35.2504]]]]}},{"type":"Feature","properties":{"depth":50,"kind":"band"},"geometry":{"type":"MultiPolygon","coordinates":[[[[21.9999,35.2504],[21.9996,35.7501],[21.7496,35.9999],[21.2499,35.9996],[21.0001,35.7496],[21.0004,35.2499],[21.2504,35.0001],[21.7501,35.0004],[22,35.0005],[22,35.0005],[21.9999,35.2504]]]]}},{"type":"Feature","properties":{"depth":60,"kind":"band"},"geometry":{"type":"MultiPolygon","coordinates":[[[[21.9999,35.2504],[21.9996,35.7501],[21.7496,35.9999],[21.2499,35.9996],[21.0001,35.7496],[21.0004,35.2499],[21.2504,35.0001],[21.7501,35.0004],[22,35.0005],[22,35.0005],[21.9999,35.2504]]]]}},{"type":"Feature","properties":{"depth":75,"kind":"band"},"geometry":{"type":"MultiPolygon","coordinates":[[[[21.9999,35.2504],[21.9996,35.7501],[21.7496,35.9999],[21.2499,35.9996],[21.0001,35.7496],[21.0004,35.2499],[21.2504,35.0001],[21.7501,35.0004],[22,35.0005],[22,35.0005],[21.9999,35.2504]]]]}},{"type":"Feature","properties":{"depth":100,"kind":"band"},"geometry":{"type":"MultiPolygon","coordinates":[[[[21.9999,35.2504],[21.9996,35.7501],[21.7496,35.9999],[21.2499,35.9996],[21.0001,35.7496],[21.0004,35.2499],[21.2504,35.0001],[21.7501,35.0004],[22,35.0005],[22,35.0005],[21.9999,35.2504]]]]}},{"type":"Feature","properties":{"depth":150,"kind":"band"},"geometry":{"type":"MultiPolygon","coordinates":[[[[21.9999,35.2504],[21.9996,35.7501],[21.7496,35.9999],[21.2499,35.9996],[21.0001,35.7496],[21.0004,35.2499],[21.2504,35.0001],[21.7501,35.0004],[22,35.0005],[22,35.0005],[21.9999,35.2504]]]]}},{"type":"Feature","properties":{"depth":200,"kind":"band"},"geometry":{"type":"MultiPolygon","coordinates":[[[[21.9999,35.2504],[21.9996,35.7501],[21.7496,35.9999],[21.2499,35.9996],[21.0001,35.7496],[21.0004,35.2499],[21.2504,35.0001],[21.7501,35.0004],[22,35.0005],[22,35.0005],[21.9999,35.2504]]]]}},{"type":"Feature","properties":{"depth":300,"kind":"band"},"geometry":{"type":"MultiPolygon","coordinates":[[[[21.9999,35.2504],[21.9996,35.7501],[21.7496,35.9999],[21.2499,35.9996],[21.0001,35.7496],[21.0004,35.2499],[21.2504,35.0001],[21.7501,35.0004],[22,35.0005],[22,35.0005],[21.9999,35.2504]]]]}},{"type":"Feature","properties":{"depth":500,"kind":"band"},"geometry":{"type":"MultiPolygon","coordinates":[[[[21.9999,35.2504],[21.9996,35.7501],[21.7496,35.9999],[21.2499,35.9996],[21.0001,35.7496],[21.0004,35.2499],[21.2504,35.0001],[21.7501,35.0004],[22,35.0005],[22,35.0005],[21.9999,35.2504]]]]}},{"type":"Feature","properties":{"depth":750,"kind":"band"},"geometry":{"type":"MultiPolygon","coordinates":[[[[21.9999,35.2504],[21.9996,35.7501],[21.7496,35.9999],[21.2499,35.9996],[21.0001,35.7496],[21.0004,35.2499],[21.2504,35.0001],[21.7501,35.0004],[22,35.0005],[22,35.0005],[21.9999,35.2504]]]]}},{"type":"Feature","properties":{"depth":1000,"kind":"band"},"geometry":{"type":"MultiPolygon","coordinates":[[[[21.9999,35.2504],[21.9996,35.7501],[21.7496,35.9999],[21.2499,35.9996],[21.0001,35.7496],[21.0004,35.2499],[21.2504,35.0001],[21.7501,35.0004],[22,35.0005],[22,35.0005],[21.9999,35.2504]]]]}},{"type":"Feature","properties":{"depth":1500,"kind":"band"},"geometry":{"type":"MultiPolygon","coordinates":[[[[21.9999,35.2504],[21.9996,35.7501],[21.7496,35.9999],[21.2499,35.9996],[21.0001,35.7496],[21.0004,35.2499],[21.2504,35.0001],[21.7501,35.0004],[22,35.0005],[22,35.0005],[21.9999,35.2504]]]]}},{"type":"Feature","properties":{"depth":2000,"kind":"band"},"geometry":{"type":"MultiPolygon","coordinates":[[[[21.9999,35.2504],[21.9996,35.7501],[21.7496,35.9999],[21.2499,35.9996],[21.0001,35.7496],[21.0004,35.2499],[21.2504,35.0001],[21.7501,35.0004],[22,35.0005],[22,35.0005],[21.9999,35.2504]]]]}},{"type":"Feature","properties":{"depth":3000,"kind":"band"},"geometry":{"type":"MultiPolygon","coordinates":[[[[21.0149,35.7198],[21.013,35.7209],[21.013,35.7209],[21.0149,35.7198],[21.0158,35.7193],[21.0158,35.7193],[21.0149,35.7198]]],[[[21.0041,35.7016],[21.0014,35.7037],[21.0014,35.7037],[21.0041,35.7016],[21.0055,35.7005],[21.0055,35.7005],[21.0041,35.7016]]],[[[21.0852,35.655],[21.0831,35.6555],[21.0831,35.6555],[21.0852,35.655],[21.0862,35.6547],[21.0862,35.6547],[21.0852,35.655]]],[[[21.193,35.5102],[21.1907,35.5107],[21.1907,35.5107],[21.193,35.5102],[21.1941,35.5099],[21.1941,35.5099],[21.193,35.5102]]],[[[21.1629,35.4901],[21.1614,35.4922],[21.1614,35.4922],[21.1629,35.4901],[21.1637,35.4891],[21.1637,35.4891],[21.1629,35.4901]]],[[[21.1815,35.4732],[21.1841,35.4747],[21.1845,35.4797],[21.1826,35.488],[21.1827,35.4932],[21.1848,35.4952],[21.1877,35.495],[21.1914,35.4926],[21.1942,35.4937],[21.1961,35.4982],[21.1905,35.5062],[21.1776,35.5177],[21.1705,35.5281],[21.1692,35.5375],[21.1631,35.5495],[21.152,35.564],[21.1409,35.5709],[21.13,35.5704],[21.1305,35.5621],[21.1424,35.546],[21.1497,35.5392],[21.1523,35.5417],[21.1556,35.5417],[21.1595,35.5392],[21.1601,35.5356],[21.1575,35.531],[21.1577,35.5242],[21.1608,35.5153],[21.1606,35.5114],[21.1572,35.5125],[21.1553,35.5112],[21.1548,35.5075],[21.161,35.4974],[21.1738,35.4807],[21.1802,35.4724],[21.1802,35.4724],[21.1815,35.4732]],[[21.1656,35.5191],[21.1646,35.521],[21.1646,35.521],[21.1656,35.5191],[21.1661,35.5181],[21.1661,35.5181],[21.1656,35.5191]],[[21.175,35.4835],[21.1739,35.4854],[21.1739,35.4854],[21.175,35.4835],[21.1755,35.4826],[21.1755,35.4826],[21.175,35.4835]]],[[[21.1704,35.4424],[21.1683,35.4451],[21.1683,35.4451],[21.1704,35.4424],[21.1714,35.4411],[21.1714,35.4411],[21.1704,35.4424]]],[[[21.2685,35.4284],[21.2773,35.4341],[21.2762,35.4382],[21.2653,35.4406],[21.2571,35.4401],[21.2516,35.4366],[21.2527,35.4326],[21.2604,35.4279],[21.2642,35.4255],[21.2642,35.4255],[21.2685,35.4284]]],[[[21.1663,35.4219],[21.1676,35.4271],[21.1661,35.4312],[21.162,35.4343],[21.1614,35.4317],[21.1643,35.4234],[21.1657,35.4193],[21.1657,35.4193],[21.1663,35.4219]]],[[[21.2219,35.411],[21.2188,35.4131],[21.2188,35.4131],[21.2219,35.411],[21.2235,35.4099],[21.2235,35.4099],[21.2219,35.411]]],[[[21.0793,35.4081],[21.0754,35.4129],[21.0723,35.4145],[21.07,35.4128],[21.072,35.4104],[21.0782,35.4073],[21.0813,35.4057],[21.0813,35.4057],[21.0793,35.4081]]],[[[21.0549,35.3385],[21.0531,35.3396],[21.0531,35.3396],[21.0549,35.3385],[21.0558,35.338],[21.0558,35.338],[21.0549,35.3385]]],[[[21.0586,35.2941],[21.0574,35.296],[21.0574,35.296],[21.0586,35.2941],[21.0592,35.2932],[21.0592,35.2932],[21.0586,35.2941]]],[[[21.0917,35.119],[21.0881,35.1206],[21.0881,35.1206],[21.0917,35.119],[21.0935,35.1182],[21.0935,35.1182],[21.0917,35.119]]],[[[21.0538,35.1018],[21.053,35.1043],[21.053,35.1043],[21.0538,35.1018],[21.0542,35.1005],[21.0542,35.1005],[21.0538,35.1018]]],[[[21.3312,35.0373],[21.3287,35.0377],[21.3287,35.0377],[21.3312,35.0373],[21.3324,35.037],[21.3324,35.037],[21.3312,35.0373]]],[[[21.9999,35.2504],[21.9996,35.7501],[21.7496,35.9999],[21.2499,35.9996],[21.0004,35.9943],[21.0012,35.9838],[21.0037,35.98],[21.0078,35.9828],[21.0143,35.9809],[21.0232,35.9741],[21.032,35.9715],[21.0409,35.9728],[21.0459,35.9713],[21.0471,35.9672],[21.05,35.9643],[21.0547,35.9628],[21.0572,35.9594],[21.0575,35.9542],[21.0546,35.951],[21.0484,35.95],[21.0448,35.9517],[21.0437,35.9561],[21.038,35.961],[21.0276,35.9662],[21.0202,35.9666],[21.0159,35.9621],[21.0166,35.9557],[21.0224,35.9474],[21.0244,35.9409],[21.0225,35.9362],[21.0249,35.9348],[21.0316,35.9366],[21.0357,35.935],[21.0373,35.9301],[21.036,35.9247],[21.0318,35.9188],[21.0223,35.918],[21.0074,35.9223],[21,35.9185],[21,35.9065],[21.0022,35.8997],[21.0067,35.898],[21.0077,35.8991],[21.0052,35.9028],[21.0068,35.9043],[21.0123,35.9034],[21.0144,35.9013],[21.0131,35.898],[21.0145,35.893],[21.0186,35.8862],[21.0192,35.8813],[21.0165,35.8782],[21.014,35.8787],[21.012,35.883],[21.0083,35.8849],[21.0031,35.8846],[21.0004,35.8832],[21.0001,35.8809],[21.0037,35.8781],[21.0111,35.875],[21.0152,35.8705],[21.0159,35.8649],[21.0184,35.861],[21.0225,35.8588],[21.0247,35.8589],[21.0253,35.8611],[21.0281,35.8588],[21.0332,35.8519],[21.0321,35.8466],[21.025,35.8432],[21.0201,35.8443],[21.0174,35.85],[21.0134,35.8534],[21.0079,35.8543],[21.0079,35.8572],[21.0134,35.8623],[21.0133,35.8658],[21.0076,35.8678],[21.0054,35.8674],[21.0067,35.8645],[21.0055,35.8625],[21.0018,35.8614],[21,35.8456],[21,35.8149],[21.0018,35.7966],[21.0053,35.7909],[21.0053,35.7883],[21.0018,35.7888],[21,35.7774],[21,35.7539],[21.0017,35.7425],[21.0051,35.743],[21.0082,35.7411],[21.0108,35.737],[21.0091,35.7347],[21.0031,35.7342],[21.0014,35.7316],[21.0043,35.7269],[21.0052,35.7231],[21.0041,35.7201],[21.0027,35.7204],[21.0009,35.7238],[21,35.7211],[21,35.7122],[21.0061,35.7044],[21.0184,35.6975],[21.024,35.6965],[21.0229,35.7016],[21.0237,35.7023],[21.0263,35.6988],[21.0287,35.6989],[21.0307,35.7025],[21.0394,35.6979],[21.0545,35.6852],[21.0636,35.6816],[21.0667,35.6873],[21.0709,35.6893],[21.0764,35.6878],[21.0823,35.6818],[21.0885,35.6713],[21.0912,35.663],[21.0901,35.6567],[21.0938,35.652],[21.1023,35.649],[21.1113,35.6399],[21.1207,35.6248],[21.1268,35.624],[21.1294,35.6376],[21.1378,35.6334],[21.1519,35.6115],[21.1581,35.5984],[21.1564,35.5943],[21.1597,35.5873],[21.168,35.5774],[21.1735,35.5636],[21.1762,35.546],[21.1829,35.5317],[21.1934,35.5206],[21.1992,35.5133],[21.2002,35.5096],[21.199,35.5073],[21.1957,35.5062],[21.1956,35.5035],[21.1989,35.4989],[21.2032,35.4963],[21.2087,35.4957],[21.2116,35.491],[21.2118,35.4824],[21.2078,35.4816],[21.1993,35.4887],[21.1959,35.4885],[21.1976,35.4813],[21.2021,35.4762],[21.2094,35.4733],[21.2133,35.4754],[21.2138,35.4826],[21.2201,35.4834],[21.232,35.4778],[21.2417,35.4781],[21.249,35.4842],[21.2628,35.4802],[21.2831,35.4663],[21.2929,35.4574],[21.2925,35.4535],[21.2891,35.45],[21.2828,35.4469],[21.2863,35.4445],[21.2994,35.443],[21.3054,35.4397],[21.3042,35.4347],[21.3,35.4303],[21.2927,35.4264],[21.2941,35.4201],[21.3043,35.4112],[21.3082,35.4031],[21.3059,35.3959],[21.307,35.3893],[21.3115,35.3836],[21.3079,35.3791],[21.296,35.3757],[21.2886,35.3753],[21.2854,35.3778],[21.2826,35.3753],[21.2799,35.3677],[21.2765,35.3639],[21.2724,35.3635],[21.2708,35.3698],[21.2717,35.3827],[21.2679,35.3896],[21.2596,35.3906],[21.2554,35.3875],[21.2553,35.3802],[21.2515,35.3797],[21.2438,35.386],[21.2401,35.3909],[21.2402,35.3946],[21.2368,35.3967],[21.23,35.3974],[21.2269,35.3957],[21.2274,35.3918],[21.2253,35.3911],[21.2206,35.3937],[21.2188,35.3974],[21.22,35.4023],[21.219,35.4071],[21.2157,35.4118],[21.2114,35.411],[21.206,35.4047],[21.2065,35.3996],[21.2129,35.3954],[21.2161,35.3915],[21.2161,35.3876],[21.2107,35.3887],[21.1997,35.395],[21.1927,35.3979],[21.1896,35.3976],[21.1872,35.3942],[21.1857,35.3879],[21.1788,35.391],[21.1665,35.4036],[21.1603,35.4201],[21.1599,35.4403],[21.1552,35.4523],[21.146,35.456],[21.139,35.4627],[21.1342,35.4725],[21.1305,35.4767],[21.1279,35.4752],[21.1314,35.4664],[21.1409,35.4503],[21.1471,35.4328],[21.1498,35.4141],[21.1586,35.3964],[21.1736,35.3797],[21.1791,35.3714],[21.1752,35.3714],[21.1771,35.3659],[21.1848,35.355],[21.1924,35.3464],[21.1999,35.3401],[21.2,35.3359],[21.1927,35.3336],[21.1868,35.3341],[21.1821,35.3374],[21.1742,35.3382],[21.1633,35.3363],[21.1567,35.3367],[21.1544,35.3397],[21.1547,35.3418],[21.1575,35.3433],[21.1556,35.3459],[21.1489,35.3497],[21.1466,35.3525],[21.1485,35.3544],[21.1427,35.3573],[21.1292,35.3612],[21.1254,35.3597],[21.1314,35.3529],[21.1309,35.3494],[21.1238,35.3491],[21.1214,35.3474],[21.1235,35.3443],[21.1188,35.3436],[21.1073,35.3453],[21.1028,35.3439],[21.1051,35.3393],[21.1045,35.3373],[21.1012,35.3378],[21.1015,35.3359],[21.1054,35.3318],[21.1041,35.3292],[21.0976,35.3283],[21.0878,35.334],[21.0747,35.3464],[21.0676,35.3539],[21.0665,35.3565],[21.0683,35.3607],[21.073,35.3664],[21.0713,35.3733],[21.063,35.3812],[21.0568,35.3812],[21.0525,35.3733],[21.0519,35.3666],[21.0552,35.3611],[21.0552,35.3582],[21.0521,35.3579],[21.0514,35.3557],[21.0532,35.3516],[21.0528,35.349],[21.0501,35.3479],[21.0527,35.3448],[21.0606,35.3396],[21.0632,35.3357],[21.0605,35.3331],[21.0613,35.3297],[21.0654,35.3255],[21.0674,35.3193],[21.0673,35.311],[21.0653,35.3045],[21.0616,35.2998],[21.0617,35.2948],[21.0658,35.2896],[21.0661,35.2876],[21.0626,35.2888],[21.0604,35.2871],[21.0594,35.2827],[21.056,35.2829],[21.0503,35.2878],[21.0472,35.2891],[21.0467,35.2867],[21.0425,35.2852],[21.0346,35.2845],[21.0294,35.2859],[21.0268,35.2894],[21.027,35.2911],[21.0301,35.2911],[21.0317,35.2925],[21.0318,35.2954],[21.0279,35.298],[21.02,35.3004],[21.0121,35.2995],[21.004,35.2953],[21.0008,35.2443],[21.0024,35.1464],[21.0058,35.0956],[21.0108,35.0919],[21.0149,35.0948],[21.0178,35.1042],[21.0208,35.109],[21.0239,35.1093],[21.0318,35.1062],[21.0442,35.0998],[21.0474,35.101],[21.041,35.1097],[21.0398,35.1126],[21.0435,35.1097],[21.0461,35.1099],[21.0476,35.1133],[21.0521,35.1147],[21.0593,35.114],[21.0625,35.117],[21.0614,35.1237],[21.062,35.1249],[21.0641,35.1208],[21.0672,35.1204],[21.0713,35.1239],[21.076,35.124],[21.0813,35.1208],[21.0834,35.1208],[21.0824,35.1239],[21.0838,35.1258],[21.0877,35.1263],[21.0895,35.1279],[21.0892,35.1304],[21.0959,35.1291],[21.1094,35.1242],[21.1158,35.1261],[21.1154,35.1351],[21.1182,35.1365],[21.1245,35.1304],[21.1294,35.1277],[21.1331,35.1282],[21.1349,35.1306],[21.1349,35.1351],[21.137,35.1362],[21.1411,35.1339],[21.1413,35.1404],[21.1373,35.1555],[21.137,35.1656],[21.1402,35.1708],[21.1434,35.1754],[21.1468,35.1795],[21.1555,35.181],[21.1696,35.1801],[21.1775,35.1846],[21.1794,35.1945],[21.1833,35.1992],[21.1892,35.1985],[21.1943,35.2002],[21.1984,35.2044],[21.2057,35.2059],[21.2162,35.2048],[21.225,35.1987],[21.2323,35.1876],[21.2377,35.1837],[21.2414,35.1871],[21.2453,35.1879],[21.2495,35.186],[21.2537,35.1816],[21.2578,35.1745],[21.2685,35.1688],[21.2857,35.1645],[21.2953,35.1665],[21.2974,35.175],[21.2995,35.1772],[21.3016,35.1733],[21.3068,35.1698],[21.3151,35.1667],[21.3164,35.1585],[21.3107,35.1452],[21.3029,35.1413],[21.293,35.147],[21.2844,35.1495],[21.2771,35.1488],[21.2727,35.1469],[21.2712,35.1438],[21.2747,35.136],[21.2832,35.1235],[21.2865,35.1148],[21.2845,35.1102],[21.2875,35.1013],[21.2954,35.0883],[21.3064,35.0803],[21.3205,35.0772],[21.33,35.0719],[21.3349,35.0646],[21.3425,35.0601],[21.3528,35.0586],[21.3562,35.0542],[21.3525,35.0469],[21.3522,35.0438],[21.3553,35.0451],[21.3571,35.0441],[21.3576,35.0408],[21.3542,35.0393],[21.3469,35.0396],[21.3416,35.0368],[21.3385,35.0306],[21.3424,35.0207],[21.3534,35.0069],[21.5192,35.0001],[21.8397,35.0004],[22,35.0005],[22,35.0005],[21.9999,35.2504]],[[21.0435,35.905],[21.0378,35.9061],[21.0346,35.9083],[21.0339,35.9114],[21.0363,35.9138],[21.0416,35.9153],[21.0448,35.9132],[21.0459,35.9073],[21.0464,35.9044],[21.0464,35.9044],[21.0435,35.905]],[[21.0491,35.9055],[21.0483,35.9078],[21.0483,35.9078],[21.0491,35.9055],[21.0495,35.9044],[21.0495,35.9044],[21.0491,35.9055]],[[21.0558,35.8922],[21.0537,35.8943],[21.0539,35.8956],[21.0565,35.8961],[21.0576,35.8951],[21.0571,35.8924],[21.0568,35.8911],[21.0568,35.8911],[21.0558,35.8922]],[[21.0362,35.8873],[21.0347,35.8906],[21.0347,35.8906],[21.0362,35.8873],[21.037,35.8856],[21.037,35.8856],[21.0362,35.8873]],[[21.0375,35.8796],[21.0302,35.8845],[21.0281,35.8879],[21.0313,35.8896],[21.0349,35.8872],[21.039,35.8804],[21.0411,35.8771],[21.0411,35.8771],[21.0375,35.8796]],[[21.0305,35.8634],[21.0259,35.8652],[21.0238,35.8685],[21.0243,35.8732],[21.0266,35.8723],[21.0307,35.8658],[21.0328,35.8625],[21.0328,35.8625],[21.0305,35.8634]],[[21.0336,35.7966],[21.0331,35.7996],[21.0331,35.7996],[21.0336,35.7966],[21.0339,35.7951],[21.0339,35.7951],[21.0336,35.7966]],[[21.0347,35.787],[21.0341,35.7915],[21.0341,35.7915],[21.0347,35.787],[21.0349,35.7848],[21.0349,35.7848],[21.0347,35.787]],[[21.0044,35.7447],[21.0039,35.7473],[21.0039,35.7473],[21.0044,35.7447],[21.0047,35.7434],[21.0047,35.7434],[21.0044,35.7447]],[[21.0116,35.7081],[21.0066,35.7142],[21.0058,35.7171],[21.0092,35.7168],[21.0105,35.7189],[21.0096,35.7233],[21.0099,35.7245],[21.0113,35.7224],[21.0128,35.7234],[21.0143,35.7273],[21.0153,35.728],[21.0159,35.7254],[21.0166,35.7259],[21.0177,35.7296],[21.0219,35.7284],[21.0292,35.7223],[21.0313,35.7171],[21.0281,35.7127],[21.0251,35.7114],[21.022,35.7132],[21.0215,35.7126],[21.0235,35.7096],[21.0214,35.7103],[21.0151,35.7146],[21.0125,35.7138],[21.0136,35.7079],[21.0141,35.705],[21.0141,35.705],[21.0116,35.7081]],[[21.019,35.7029],[21.0164,35.7071],[21.0164,35.7071],[21.019,35.7029],[21.0203,35.7008],[21.0203,35.7008],[21.019,35.7029]],[[21.1248,35.6497],[21.1193,35.6558],[21.1182,35.6586],[21.1217,35.658],[21.1245,35.6549],[21.1266,35.6494],[21.1276,35.6466],[21.1276,35.6466],[21.1248,35.6497]],[[21.2482,35.4876],[21.2477,35.4897],[21.2477,35.4897],[21.2482,35.4876],[21.2484,35.4866],[21.2484,35.4866],[21.2482,35.4876]],[[21.2287,35.4822],[21.2268,35.4847],[21.2268,35.4847],[21.2287,35.4822],[21.2297,35.4809],[21.2297,35.4809],[21.2287,35.4822]],[[21.267,35.3727],[21.2645,35.3739],[21.2645,35.3739],[21.267,35.3727],[21.2682,35.3721],[21.2682,35.3721],[21.267,35.3727]],[[21.2095,35.3724],[21.2004,35.3787],[21.2004,35.3819],[21.2095,35.382],[21.2141,35.3789],[21.2141,35.3724],[21.2141,35.3692],[21.2141,35.3692],[21.2095,35.3724]],[[21.257,35.3682],[21.2533,35.371],[21.2533,35.371],[21.257,35.3682],[21.2589,35.3668],[21.2589,35.3668],[21.257,35.3682]],[[21.2232,35.3655],[21.2206,35.368],[21.2206,35.368],[21.2232,35.3655],[21.2245,35.3642],[21.2245,35.3642],[21.2232,35.3655]],[[21.1902,35.3633],[21.1841,35.3673],[21.1838,35.3688],[21.1894,35.3679],[21.1925,35.3659],[21.193,35.3628],[21.1932,35.3613],[21.1932,35.3613],[21.1902,35.3633]],[[21.1148,35.3355],[21.11,35.3414],[21.1107,35.3422],[21.117,35.338],[21.1194,35.3351],[21.1179,35.3334],[21.1172,35.3326],[21.1172,35.3326],[21.1148,35.3355]],[[21.0922,35.313],[21.0879,35.3151],[21.0886,35.3181],[21.0945,35.3222],[21.1022,35.3235],[21.1116,35.3221],[21.1114,35.3211],[21.1014,35.3206],[21.0959,35.3182],[21.0948,35.314],[21.0943,35.3119],[21.0943,35.3119],[21.0922,35.313]],[[21.0177,35.2911],[21.0166,35.2941],[21.0166,35.2941],[21.0177,35.2911],[21.0182,35.2896],[21.0182,35.2896],[21.0177,35.2911]],[[21.0211,35.2887],[21.0206,35.2906],[21.0206,35.2906],[21.0211,35.2887],[21.0214,35.2877],[21.0214,35.2877],[21.0211,35.2887]],[[21.065,35.2772],[21.0628,35.2789],[21.0628,35.2789],[21.065,35.2772],[21.0661,35.2763],[21.0661,35.2763],[21.065,35.2772]],[[21.0711,35.2776],[21.0706,35.28],[21.0706,35.28],[21.0711,35.2776],[21.0714,35.2764],[21.0714,35.2764],[21.0711,35.2776]],[[21.0492,35.2753],[21.0466,35.277],[21.0466,35.277],[21.0492,35.2753],[21.0505,35.2744],[21.0505,35.2744],[21.0492,35.2753]],[[21.0319,35.2715],[21.03,35.2742],[21.03,35.2742],[21.0319,35.2715],[21.0328,35.2702],[21.0328,35.2702],[21.0319,35.2715]],[[21.0394,35.2706],[21.0361,35.2767],[21.0361,35.2767],[21.0394,35.2706],[21.0411,35.2676],[21.0411,35.2676],[21.0394,35.2706]],[[21.0382,35.2661],[21.0365,35.2689],[21.0365,35.2689],[21.0382,35.2661],[21.0391,35.2647],[21.0391,35.2647],[21.0382,35.2661]],[[21.0074,35.2546],[21.0044,35.2575],[21.0044,35.2575],[21.0074,35.2546],[21.0089,35.2532],[21.0089,35.2532],[21.0074,35.2546]],[[21.0654,35.2514],[21.0641,35.2528],[21.0641,35.2528],[21.0654,35.2514],[21.0661,35.2506],[21.0661,35.2506],[21.0654,35.2514]],[[21.1362,35.1399],[21.1367,35.1422],[21.1367,35.1422],[21.1362,35.1399],[21.1359,35.1387],[21.1359,35.1387],[21.1362,35.1399]],[[21.1109,35.1267],[21.1109,35.13],[21.1109,35.13],[21.1109,35.1267],[21.1109,35.1251],[21.1109,35.1251],[21.1109,35.1267]],[[21.4026,35.0515],[21.4047,35.0537],[21.4047,35.0537],[21.4026,35.0515],[21.4016,35.0504],[21.4016,35.0504],[21.4026,35.0515]],[[21.3843,35.0136],[21.381,35.0153],[21.3808,35.0187],[21.3835,35.024],[21.3851,35.0231],[21.3857,35.0162],[21.3859,35.0127],[21.3859,35.0127],[21.3843,35.0136]]]]}},{"type":"Feature","properties":{"depth":3000,"kind":"isobath"},"geometry":{"type":"MultiLineString","coordinates":[[[21.0158,35.7193],[21.0149,35.7198],[21.013,35.7209],[21.013,35.7209],[21.0149,35.7198],[21.0158,35.7193]],[[21.0055,35.7005],[21.0055,35.7005]],[[21.0862,35.6547],[21.0852,35.655],[21.0831,35.6555],[21.0831,35.6555],[21.0852,35.655],[21.0862,35.6547]],[[21.1941,35.5099],[21.193,35.5102],[21.1907,35.5107],[21.1907,35.5107],[21.193,35.5102],[21.1941,35.5099]],[[21.1637,35.4891],[21.1629,35.4901],[21.1614,35.4922],[21.1614,35.4922],[21.1629,35.4901],[21.1637,35.4891]],[[21.1802,35.4724],[21.1815,35.4732],[21.1841,35.4747],[21.1845,35.4797],[21.1826,35.488],[21.1827,35.4932],[21.1848,35.4952],[21.1877,35.495],[21.1914,35.4926],[21.1942,35.4937],[21.1961,35.4982],[21.1905,35.5062],[21.1776,35.5177],[21.1705,35.5281],[21.1692,35.5375],[21.1631,35.5495],[21.152,35.564],[21.1409,35.5709],[21.13,35.5704],[21.1305,35.5621],[21.1424,35.546],[21.1497,35.5392],[21.1523,35.5417],[21.1556,35.5417],[21.1595,35.5392],[21.1601,35.5356],[21.1575,35.531],[21.1577,35.5242],[21.1608,35.5153],[21.1606,35.5114],[21.1572,35.5125],[21.1553,35.5112],[21.1548,35.5075],[21.161,35.4974],[21.1738,35.4807],[21.1802,35.4724]],[[21.1661,35.5181],[21.1656,35.5191],[21.1646,35.521],[21.1646,35.521],[21.1656,35.5191],[21.1661,35.5181]],[[21.1755,35.4826],[21.175,35.4835],[21.1739,35.4854],[21.1739,35.4854],[21.175,35.4835],[21.1755,35.4826]],[[21.1714,35.4411],[21.1704,35.4424],[21.1683,35.4451],[21.1683,35.4451],[21.1704,35.4424],[21.1714,35.4411]],[[21.2642,35.4255],[21.2685,35.4284],[21.2773,35.4341],[21.2762,35.4382],[21.2653,35.4406],[21.2571,35.4401],[21.2516,35.4366],[21.2527,35.4326],[21.2604,35.4279],[21.2642,35.4255]],[[21.1657,35.4193],[21.1663,35.4219],[21.1676,35.4271],[21.1661,35.4312],[21.162,35.4343],[21.1614,35.4317],[21.1643,35.4234],[21.1657,35.4193]],[[21.2235,35.4099],[21.2219,35.411],[21.2188,35.4131],[21.2188,35.4131],[21.2219,35.411],[21.2235,35.4099]],[[21.0813,35.4057],[21.0793,35.4081],[21.0754,35.4129],[21.0723,35.4145],[21.07,35.4128],[21.072,35.4104],[21.0782,35.4073],[21.0813,35.4057]],[[21.0558,35.338],[21.0549,35.3385],[21.0531,35.3396],[21.0531,35.3396],[21.0549,35.3385],[21.0558,35.338]],[[21.0592,35.2932],[21.0586,35.2941],[21.0574,35.296],[21.0574,35.296],[21.0586,35.2941],[21.0592,35.2932]],[[21.0935,35.1182],[21.0917,35.119],[21.0881,35.1206],[21.0881,35.1206],[21.0917,35.119],[21.0935,35.1182]],[[21.0542,35.1005],[21.0538,35.1018],[21.053,35.1043],[21.053,35.1043],[21.0538,35.1018],[21.0542,35.1005]],[[21.3324,35.037],[21.3312,35.0373],[21.3287,35.0377],[21.3287,35.0377],[21.3312,35.0373],[21.3324,35.037]],[[21.0016,35.9786],[21.0037,35.98],[21.0078,35.9828],[21.0143,35.9809],[21.0232,35.9741],[21.032,35.9715],[21.0409,35.9728],[21.0459,35.9713],[21.0471,35.9672],[21.05,35.9643],[21.0547,35.9628],[21.0572,35.9594],[21.0575,35.9542],[21.0546,35.951],[21.0484,35.95],[21.0448,35.9517],[21.0437,35.9561],[21.038,35.961],[21.0276,35.9662],[21.0202,35.9666],[21.0159,35.9621],[21.0166,35.9557],[21.0224,35.9474],[21.0244,35.9409],[21.0225,35.9362],[21.0249,35.9348],[21.0316,35.9366],[21.0357,35.935],[21.0373,35.9301],[21.036,35.9247],[21.0318,35.9188],[21.0297,35.9158]],[[21.0089,35.8972],[21.0077,35.8991],[21.0052,35.9028],[21.0068,35.9043],[21.0123,35.9034],[21.0144,35.9013],[21.0131,35.898],[21.0145,35.893],[21.0186,35.8862],[21.0192,35.8813],[21.0165,35.8782],[21.014,35.8787],[21.012,35.883],[21.0083,35.8849],[21.0031,35.8846],[21.0005,35.8844]],[[21.0148,35.8734],[21.0152,35.8705],[21.0159,35.8649],[21.0184,35.861],[21.0225,35.8588],[21.0247,35.8589],[21.0253,35.8611],[21.0281,35.8588],[21.0332,35.8519],[21.0321,35.8466],[21.025,35.8432],[21.0201,35.8443],[21.0174,35.85],[21.0134,35.8534],[21.0079,35.8543],[21.0079,35.8572],[21.0134,35.8623],[21.0133,35.8658],[21.0076,35.8678],[21.0054,35.8674],[21.0067,35.8645],[21.0073,35.863]],[[21.0068,35.7432],[21.0122,35.7349]],[[21.0057,35.7245],[21.0036,35.7187]],[[21.0245,35.694],[21.024,35.6965],[21.0229,35.7016],[21.0237,35.7023],[21.0263,35.6988],[21.0287,35.6989],[21.0307,35.7025],[21.0394,35.6979],[21.0545,35.6852],[21.0636,35.6816],[21.0667,35.6873],[21.0709,35.6893],[21.0764,35.6878],[21.0823,35.6818],[21.0885,35.6713],[21.0912,35.663],[21.0901,35.6567],[21.0938,35.652],[21.1023,35.649],[21.1113,35.6399],[21.1207,35.6248],[21.1268,35.624],[21.1294,35.6376],[21.1378,35.6334],[21.1519,35.6115],[21.1581,35.5984],[21.1564,35.5943],[21.1597,35.5873],[21.168,35.5774],[21.1735,35.5636],[21.1762,35.546],[21.1829,35.5317],[21.1934,35.5206],[21.1992,35.5133],[21.2002,35.5096],[21.199,35.5073],[21.1957,35.5062],[21.1956,35.5035],[21.1989,35.4989],[21.2032,35.4963],[21.2087,35.4957],[21.2116,35.491],[21.2118,35.4824],[21.2078,35.4816],[21.1993,35.4887],[21.1959,35.4885],[21.1976,35.4813],[21.2021,35.4762],[21.2094,35.4733],[21.2133,35.4754],[21.2138,35.4826],[21.2201,35.4834],[21.232,35.4778],[21.2417,35.4781],[21.249,35.4842],[21.2628,35.4802],[21.2831,35.4663],[21.2929,35.4574],[21.2925,35.4535],[21.2891,35.45],[21.2828,35.4469],[21.2863,35.4445],[21.2994,35.443],[21.3054,35.4397],[21.3042,35.4347],[21.3,35.4303],[21.2927,35.4264],[21.2941,35.4201],[21.3043,35.4112],[21.3082,35.4031],[21.3059,35.3959],[21.307,35.3893],[21.3115,35.3836],[21.3079,35.3791],[21.296,35.3757],[21.2886,35.3753],[21.2854,35.3778],[21.2826,35.3753],[21.2799,35.3677],[21.2765,35.3639],[21.2724,35.3635],[21.2708,35.3698],[21.2717,35.3827],[21.2679,35.3896],[21.2596,35.3906],[21.2554,35.3875],[21.2553,35.3802],[21.2515,35.3797],[21.2438,35.386],[21.2401,35.3909],[21.2402,35.3946],[21.2368,35.3967],[21.23,35.3974],[21.2269,35.3957],[21.2274,35.3918],[21.2253,35.3911],[21.2206,35.3937],[21.2188,35.3974],[21.22,35.4023],[21.219,35.4071],[21.2157,35.4118],[21.2114,35.411],[21.206,35.4047],[21.2065,35.3996],[21.2129,35.3954],[21.2161,35.3915],[21.2161,35.3876],[21.2107,35.3887],[21.1997,35.395],[21.1927,35.3979],[21.1896,35.3976],[21.1872,35.3942],[21.1857,35.3879],[21.1788,35.391],[21.1665,35.4036],[21.1603,35.4201],[21.1599,35.4403],[21.1552,35.4523],[21.146,35.456],[21.139,35.4627],[21.1342,35.4725],[21.1305,35.4767],[21.1279,35.4752],[21.1314,35.4664],[21.1409,35.4503],[21.1471,35.4328],[21.1498,35.4141],[21.1586,35.3964],[21.1736,35.3797],[21.1791,35.3714],[21.1752,35.3714],[21.1771,35.3659],[21.1848,35.355],[21.1924,35.3464],[21.1999,35.3401],[21.2,35.3359],[21.1927,35.3336],[21.1868,35.3341],[21.1821,35.3374],[21.1742,35.3382],[21.1633,35.3363],[21.1567,35.3367],[21.1544,35.3397],[21.1547,35.3418],[21.1575,35.3433],[21.1556,35.3459],[21.1489,35.3497],[21.1466,35.3525],[21.1485,35.3544],[21.1427,35.3573],[21.1292,35.3612],[21.1254,35.3597],[21.1314,35.3529],[21.1309,35.3494],[21.1238,35.3491],[21.1214,35.3474],[21.1235,35.3443],[21.1188,35.3436],[21.1073,35.3453],[21.1028,35.3439],[21.1051,35.3393],[21.1045,35.3373],[21.1012,35.3378],[21.1015,35.3359],[21.1054,35.3318],[21.1041,35.3292],[21.0976,35.3283],[21.0878,35.334],[21.0747,35.3464],[21.0676,35.3539],[21.0665,35.3565],[21.0683,35.3607],[21.073,35.3664],[21.0713,35.3733],[21.063,35.3812],[21.0568,35.3812],[21.0525,35.3733],[21.0519,35.3666],[21.0552,35.3611],[21.0552,35.3582],[21.0521,35.3579],[21.0514,35.3557],[21.0532,35.3516],[21.0528,35.349],[21.0501,35.3479],[21.0527,35.3448],[21.0606,35.3396],[21.0632,35.3357],[21.0605,35.3331],[21.0613,35.3297],[21.0654,35.3255],[21.0674,35.3193],[21.0673,35.311],[21.0653,35.3045],[21.0616,35.2998],[21.0617,35.2948],[21.0658,35.2896],[21.0661,35.2876],[21.0626,35.2888],[21.0604,35.2871],[21.0594,35.2827],[21.056,35.2829],[21.0503,35.2878],[21.0472,35.2891],[21.0467,35.2867],[21.0425,35.2852],[21.0346,35.2845],[21.0294,35.2859],[21.0268,35.2894],[21.027,35.2911],[21.0301,35.2911],[21.0317,35.2925],[21.0318,35.2954],[21.0279,35.298],[21.02,35.3004],[21.0161,35.3016]],[[21.0032,35.0974],[21.0058,35.0956],[21.0108,35.0919],[21.0149,35.0948],[21.0178,35.1042],[21.0208,35.109],[21.0239,35.1093],[21.0318,35.1062],[21.0442,35.0998],[21.0474,35.101],[21.041,35.1097],[21.0398,35.1126],[21.0435,35.1097],[21.0461,35.1099],[21.0476,35.1133],[21.0521,35.1147],[21.0593,35.114],[21.0625,35.117],[21.0614,35.1237],[21.062,35.1249],[21.0641,35.1208],[21.0672,35.1204],[21.0713,35.1239],[21.076,35.124],[21.0813,35.1208],[21.0834,35.1208],[21.0824,35.1239],[21.0838,35.1258],[21.0877,35.1263],[21.0895,35.1279],[21.0892,35.1304],[21.0959,35.1291],[21.1094,35.1242],[21.1158,35.1261],[21.1154,35.1351],[21.1182,35.1365],[21.1245,35.1304],[21.1294,35.1277],[21.1331,35.1282],[21.1349,35.1306],[21.1349,35.1351],[21.137,35.1362],[21.1411,35.1339],[21.1413,35.1404],[21.1373,35.1555],[21.137,35.1656],[21.1402,35.1708],[21.1434,35.1754],[21.1468,35.1795],[21.1555,35.181],[21.1696,35.1801],[21.1775,35.1846],[21.1794,35.1945],[21.1833,35.1992],[21.1892,35.1985],[21.1943,35.2002],[21.1984,35.2044],[21.2057,35.2059],[21.2162,35.2048],[21.225,35.1987],[21.2323,35.1876],[21.2377,35.1837],[21.2414,35.1871],[21.2453,35.1879],[21.2495,35.186],[21.2537,35.1816],[21.2578,35.1745],[21.2685,35.1688],[21.2857,35.1645],[21.2953,35.1665],[21.2974,35.175],[21.2995,35.1772],[21.3016,35.1733],[21.3068,35.1698],[21.3151,35.1667],[21.3164,35.1585],[21.3107,35.1452],[21.3029,35.1413],[21.293,35.147],[21.2844,35.1495],[21.2771,35.1488],[21.2727,35.1469],[21.2712,35.1438],[21.2747,35.136],[21.2832,35.1235],[21.2865,35.1148],[21.2845,35.1102],[21.2875,35.1013],[21.2954,35.0883],[21.3064,35.0803],[21.3205,35.0772],[21.33,35.0719],[21.3349,35.0646],[21.3425,35.0601],[21.3528,35.0586],[21.3562,35.0542],[21.3525,35.0469],[21.3522,35.0438],[21.3553,35.0451],[21.3571,35.0441],[21.3576,35.0408],[21.3542,35.0393],[21.3469,35.0396],[21.3416,35.0368],[21.3385,35.0306],[21.3369,35.0276]],[[21.0464,35.9044],[21.0435,35.905],[21.0378,35.9061],[21.0346,35.9083],[21.0339,35.9114],[21.0363,35.9138],[21.0416,35.9153],[21.0448,35.9132],[21.0459,35.9073],[21.0464,35.9044]],[[21.0495,35.9044],[21.0491,35.9055],[21.0483,35.9078],[21.0483,35.9078],[21.0491,35.9055],[21.0495,35.9044]],[[21.0568,35.8911],[21.0558,35.8922],[21.0537,35.8943],[21.0539,35.8956],[21.0565,35.8961],[21.0576,35.8951],[21.0571,35.8924],[21.0568,35.8911]],[[21.037,35.8856],[21.0362,35.8873],[21.0347,35.8906],[21.0347,35.8906],[21.0362,35.8873],[21.037,35.8856]],[[21.0411,35.8771],[21.0375,35.8796],[21.0302,35.8845],[21.0281,35.8879],[21.0313,35.8896],[21.0349,35.8872],[21.039,35.8804],[21.0411,35.8771]],[[21.0328,35.8625],[21.0305,35.8634],[21.0259,35.8652],[21.0238,35.8685],[21.0243,35.8732],[21.0266,35.8723],[21.0307,35.8658],[21.0328,35.8625]],[[21.0339,35.7951],[21.0336,35.7966],[21.0331,35.7996],[21.0331,35.7996],[21.0336,35.7966],[21.0339,35.7951]],[[21.0349,35.7848],[21.0347,35.787],[21.0341,35.7915],[21.0341,35.7915],[21.0347,35.787],[21.0349,35.7848]],[[21.0047,35.7434],[21.0044,35.7447],[21.0039,35.7473],[21.0039,35.7473],[21.0044,35.7447],[21.0047,35.7434]],[[21.0141,35.705],[21.0116,35.7081],[21.0066,35.7142],[21.0058,35.7171],[21.0092,35.7168],[21.0105,35.7189],[21.0096,35.7233],[21.0099,35.7245],[21.0113,35.7224],[21.0128,35.7234],[21.0143,35.7273],[21.0153,35.728],[21.0159,35.7254],[21.0166,35.7259],[21.0177,35.7296],[21.0219,35.7284],[21.0292,35.7223],[21.0313,35.7171],[21.0281,35.7127],[21.0251,35.7114],[21.022,35.7132],[21.0215,35.7126],[21.0235,35.7096],[21.0214,35.7103],[21.0151,35.7146],[21.0125,35.7138],[21.0136,35.7079],[21.0141,35.705]],[[21.0203,35.7008],[21.019,35.7029],[21.0164,35.7071],[21.0164,35.7071],[21.019,35.7029],[21.0203,35.7008]],[[21.1276,35.6466],[21.1248,35.6497],[21.1193,35.6558],[21.1182,35.6586],[21.1217,35.658],[21.1245,35.6549],[21.1266,35.6494],[21.1276,35.6466]],[[21.2484,35.4866],[21.2482,35.4876],[21.2477,35.4897],[21.2477,35.4897],[21.2482,35.4876],[21.2484,35.4866]],[[21.2297,35.4809],[21.2287,35.4822],[21.2268,35.4847],[21.2268,35.4847],[21.2287,35.4822],[21.2297,35.4809]],[[21.2682,35.3721],[21.267,35.3727],[21.2645,35.3739],[21.2645,35.3739],[21.267,35.3727],[21.2682,35.3721]],[[21.2141,35.3692],[21.2095,35.3724],[21.2004,35.3787],[21.2004,35.3819],[21.2095,35.382],[21.2141,35.3789],[21.2141,35.3724],[21.2141,35.3692]],[[21.2589,35.3668],[21.257,35.3682],[21.2533,35.371],[21.2533,35.371],[21.257,35.3682],[21.2589,35.3668]],[[21.2245,35.3642],[21.2232,35.3655],[21.2206,35.368],[21.2206,35.368],[21.2232,35.3655],[21.2245,35.3642]],[[21.1932,35.3613],[21.1902,35.3633],[21.1841,35.3673],[21.1838,35.3688],[21.1894,35.3679],[21.1925,35.3659],[21.193,35.3628],[21.1932,35.3613]],[[21.1172,35.3326],[21.1148,35.3355],[21.11,35.3414],[21.1107,35.3422],[21.117,35.338],[21.1194,35.3351],[21.1179,35.3334],[21.1172,35.3326]],[[21.0943,35.3119],[21.0922,35.313],[21.0879,35.3151],[21.0886,35.3181],[21.0945,35.3222],[21.1022,35.3235],[21.1116,35.3221],[21.1114,35.3211],[21.1014,35.3206],[21.0959,35.3182],[21.0948,35.314],[21.0943,35.3119]],[[21.0182,35.2896],[21.0177,35.2911],[21.0166,35.2941],[21.0166,35.2941],[21.0177,35.2911],[21.0182,35.2896]],[[21.0214,35.2877],[21.0211,35.2887],[21.0206,35.2906],[21.0206,35.2906],[21.0211,35.2887],[21.0214,35.2877]],[[21.0661,35.2763],[21.065,35.2772],[21.0628,35.2789],[21.0628,35.2789],[21.065,35.2772],[21.0661,35.2763]],[[21.0714,35.2764],[21.0711,35.2776],[21.0706,35.28],[21.0706,35.28],[21.0711,35.2776],[21.0714,35.2764]],[[21.0505,35.2744],[21.0492,35.2753],[21.0466,35.277],[21.0466,35.277],[21.0492,35.2753],[21.0505,35.2744]],[[21.0328,35.2702],[21.0319,35.2715],[21.03,35.2742],[21.03,35.2742],[21.0319,35.2715],[21.0328,35.2702]],[[21.0411,35.2676],[21.0394,35.2706],[21.0361,35.2767],[21.0361,35.2767],[21.0394,35.2706],[21.0411,35.2676]],[[21.0391,35.2647],[21.0382,35.2661],[21.0365,35.2689],[21.0365,35.2689],[21.0382,35.2661],[21.0391,35.2647]],[[21.0089,35.2532],[21.0074,35.2546],[21.0044,35.2575],[21.0044,35.2575],[21.0074,35.2546],[21.0089,35.2532]],[[21.0661,35.2506],[21.0654,35.2514],[21.0641,35.2528],[21.0641,35.2528],[21.0654,35.2514],[21.0661,35.2506]],[[21.1359,35.1387],[21.1362,35.1399],[21.1367,35.1422],[21.1367,35.1422],[21.1362,35.1399],[21.1359,35.1387]],[[21.1109,35.1251],[21.1109,35.1267],[21.1109,35.13],[21.1109,35.13],[21.1109,35.1267],[21.1109,35.1251]],[[21.4016,35.0504],[21.4026,35.0515],[21.4047,35.0537],[21.4047,35.0537],[21.4026,35.0515],[21.4016,35.0504]],[[21.3859,35.0127],[21.3843,35.0136],[21.381,35.0153],[21.3808,35.0187],[21.3835,35.024],[21.3851,35.0231],[21.3857,35.0162],[21.3859,35.0127]]]}},{"type":"Feature","properties":{"depth":4000,"kind":"band"},"geometry":{"type":"MultiPolygon","coordinates":[[[[21.9648,35.9628],[21.9848,35.9727],[21.9853,35.9816],[21.9663,35.9895],[21.9357,35.9951],[21.8935,35.9984],[21.8593,35.9973],[21.8331,35.9918],[21.8222,35.9864],[21.8265,35.981],[21.8338,35.9762],[21.8443,35.9721],[21.8758,35.967],[21.9285,35.9609],[21.9548,35.9578],[21.9548,35.9578],[21.9648,35.9628]]],[[[21.2383,35.9451],[21.2406,35.9466],[21.2397,35.9508],[21.2354,35.9575],[21.2336,35.9635],[21.2341,35.9688],[21.2367,35.9737],[21.2414,35.9784],[21.242,35.9838],[21.2385,35.9901],[21.2385,35.9948],[21.242,35.9979],[21.2381,35.9996],[21.227,35.9999],[21.2225,35.9908],[21.2248,35.9723],[21.2287,35.9583],[21.2343,35.949],[21.2371,35.9443],[21.2371,35.9443],[21.2383,35.9451]]],[[[21.2841,35.8977],[21.2847,35.9002],[21.2847,35.9002],[21.2841,35.8977],[21.2839,35.8964],[21.2839,35.8964],[21.2841,35.8977]]],[[[21.3432,35.8925],[21.3482,35.8992],[21.3491,35.9045],[21.3459,35.9084],[21.3429,35.9091],[21.3401,35.9069],[21.3392,35.9016],[21.3402,35.8933],[21.3407,35.8891],[21.3407,35.8891],[21.3432,35.8925]]],[[[21.412,35.8877],[21.4099,35.8912],[21.4183,35.8932],[21.437,35.8935],[21.4453,35.8951],[21.443,35.898],[21.4445,35.9016],[21.4496,35.9057],[21.4502,35.907],[21.4463,35.9055],[21.4448,35.906],[21.4458,35.9086],[21.4489,35.9093],[21.4542,35.9081],[21.4578,35.9107],[21.4599,35.9171],[21.4632,35.9206],[21.4677,35.9211],[21.4541,35.9404],[21.4224,35.9784],[21.4019,35.9981],[21.3926,35.9994],[21.3966,35.9887],[21.4139,35.966],[21.422,35.9509],[21.4209,35.9432],[21.4156,35.9338],[21.4063,35.9227],[21.4017,35.9219],[21.4018,35.9312],[21.3999,35.9409],[21.3958,35.9508],[21.3955,35.9572],[21.3988,35.9601],[21.3978,35.9595],[21.3924,35.9556],[21.3898,35.9436],[21.39,35.9236],[21.3928,35.908],[21.3982,35.8967],[21.4039,35.8898],[21.41,35.8872],[21.413,35.8859],[21.413,35.8859],[21.412,35.8877]],[[21.4125,35.9124],[21.4116,35.9156],[21.4132,35.9181],[21.4173,35.9198],[21.4177,35.9182],[21.4146,35.9133],[21.413,35.9108],[21.413,35.9108],[21.4125,35.9124]]],[[[21.3507,35.868],[21.3513,35.8717],[21.3513,35.8717],[21.3507,35.868],[21.3504,35.8661],[21.3504,35.8661],[21.3507,35.868]]],[[[21.3718,35.849],[21.3777,35.8542],[21.3797,35.8595],[21.3776,35.8648],[21.3733,35.868],[21.3667,35.8689],[21.3617,35.868],[21.3583,35.8654],[21.3597,35.8597],[21.3658,35.8508],[21.3688,35.8464],[21.3688,35.8464],[21.3718,35.849]]],[[[21.2339,35.8057],[21.2339,35.8078],[21.2339,35.8078],[21.2339,35.8057],[21.2339,35.8047],[21.2339,35.8047],[21.2339,35.8057]]],[[[21.5239,35.7988],[21.5278,35.8016],[21.5384,35.8021],[21.5557,35.8004],[21.559,35.8062],[21.5485,35.8195],[21.5442,35.8276],[21.5464,35.8303],[21.5531,35.8285],[21.5646,35.8223],[21.5719,35.8193],[21.575,35.8194],[21.5766,35.8213],[21.5766,35.8251],[21.5771,35.8252],[21.5781,35.8217],[21.5824,35.8187],[21.5898,35.8163],[21.5904,35.8203],[21.5841,35.8307],[21.5824,35.845],[21.5853,35.8633],[21.5845,35.8753],[21.5799,35.881],[21.5804,35.8899],[21.586,35.9018],[21.5961,35.9102],[21.6106,35.9149],[21.6178,35.9188],[21.6174,35.9219],[21.6056,35.9205],[21.5821,35.9146],[21.5625,35.9171],[21.5469,35.928],[21.5334,35.9285],[21.5219,35.9184],[21.5122,35.9065],[21.5043,35.8928],[21.5025,35.8836],[21.5068,35.8789],[21.509,35.8691],[21.5091,35.854],[21.5044,35.8425],[21.4947,35.8346],[21.4912,35.8268],[21.4942,35.819],[21.4938,35.8133],[21.4903,35.8096],[21.4931,35.81],[21.5022,35.8143],[21.5065,35.812],[21.5058,35.8029],[21.5095,35.7982],[21.5179,35.7977],[21.522,35.7974],[21.522,35.7974],[21.5239,35.7988]],[[21.573,35.8282],[21.572,35.8306],[21.572,35.8306],[21.573,35.8282],[21.5734,35.827],[21.5734,35.827],[21.573,35.8282]]],[[[21.5315,35.7964],[21.5294,35.7964],[21.5294,35.7964],[21.5315,35.7964],[21.5325,35.7964],[21.5325,35.7964],[21.5315,35.7964]]],[[[21.2808,35.7368],[21.278,35.7406],[21.278,35.7406],[21.2808,35.7368],[21.2822,35.7349],[21.2822,35.7349],[21.2808,35.7368]]],[[[21.2625,35.7349],[21.255,35.739],[21.2522,35.7395],[21.2539,35.7362],[21.2576,35.7342],[21.2633,35.7333],[21.2662,35.7328],[21.2662,35.7328],[21.2625,35.7349]]],[[[21.3223,35.7274],[21.3279,35.7289],[21.334,35.7336],[21.3405,35.7414],[21.3418,35.7542],[21.3377,35.7719],[21.3383,35.7862],[21.3435,35.7971],[21.3386,35.8078],[21.3236,35.8182],[21.3157,35.8276],[21.3149,35.8359],[21.3165,35.8416],[21.3204,35.8445],[21.3266,35.8415],[21.3349,35.8328],[21.3418,35.828],[21.3471,35.8271],[21.3464,35.83],[21.3396,35.8367],[21.3382,35.85],[21.3423,35.8697],[21.3365,35.8733],[21.3208,35.8607],[21.307,35.8541],[21.2951,35.8534],[21.2829,35.85],[21.2704,35.8439],[21.2631,35.8429],[21.2609,35.8471],[21.2544,35.8431],[21.2435,35.8311],[21.232,35.8244],[21.2199,35.8231],[21.2155,35.8159],[21.2187,35.8028],[21.2266,35.8024],[21.2391,35.8147],[21.2497,35.8187],[21.2586,35.8145],[21.2651,35.8134],[21.2693,35.8155],[21.273,35.8217],[21.276,35.8321],[21.2855,35.8338],[21.3014,35.8269],[21.303,35.8165],[21.2903,35.8027],[21.2766,35.7929],[21.262,35.7872],[21.254,35.78],[21.2526,35.7715],[21.2529,35.7657],[21.2548,35.7627],[21.2578,35.762],[21.262,35.7635],[21.267,35.7627],[21.2727,35.7595],[21.2818,35.7626],[21.2942,35.7721],[21.3026,35.7754],[21.3068,35.7725],[21.3099,35.7726],[21.312,35.7757],[21.314,35.7734],[21.3159,35.7658],[21.3154,35.7607],[21.3124,35.7581],[21.3099,35.7577],[21.3078,35.7594],[21.3028,35.7553],[21.2948,35.7451],[21.2922,35.7382],[21.295,35.7345],[21.3022,35.7311],[21.3137,35.7281],[21.3195,35.7266],[21.3195,35.7266],[21.3223,35.7274]]],[[[21.4953,35.7321],[21.5013,35.7429],[21.5025,35.75],[21.4991,35.7533],[21.4934,35.751],[21.4854,35.743],[21.4842,35.736],[21.4896,35.7297],[21.4924,35.7266],[21.4924,35.7266],[21.4953,35.7321]]],[[[21.4087,35.6927],[21.4145,35.6938],[21.4185,35.6961],[21.4206,35.6998],[21.4178,35.706],[21.4101,35.7149],[21.4064,35.7219],[21.4067,35.7272],[21.4112,35.7308],[21.4201,35.7329],[21.4282,35.7319],[21.4355,35.7279],[21.4468,35.7297],[21.4623,35.7373],[21.4672,35.7409],[21.4617,35.7406],[21.4513,35.7456],[21.4362,35.7559],[21.4216,35.7534],[21.4075,35.738],[21.3963,35.7325],[21.388,35.7369],[21.3849,35.7307],[21.387,35.7138],[21.3925,35.7021],[21.4014,35.6955],[21.4058,35.6922],[21.4058,35.6922],[21.4087,35.6927]]],[[[21.5275,35.654],[21.5262,35.6567],[21.5262,35.6567],[21.5275,35.654],[21.5282,35.6526],[21.5282,35.6526],[21.5275,35.654]]],[[[21.543,35.6518],[21.5475,35.6586],[21.548,35.6664],[21.5445,35.6753],[21.5447,35.6831],[21.5485,35.6898],[21.5497,35.6949],[21.5482,35.6982],[21.545,35.6995],[21.5401,35.6988],[21.5373,35.6957],[21.5364,35.6902],[21.5338,35.6876],[21.5297,35.6877],[21.5227,35.6889],[21.5129,35.6911],[21.5033,35.6975],[21.4938,35.708],[21.4852,35.7126],[21.4773,35.7111],[21.4677,35.7122],[21.4562,35.7159],[21.4477,35.7163],[21.4422,35.7134],[21.4409,35.708],[21.4438,35.6999],[21.4482,35.6963],[21.4539,35.6972],[21.4589,35.6954],[21.463,35.6909],[21.4685,35.6893],[21.4752,35.6907],[21.489,35.6857],[21.5099,35.6743],[21.5214,35.6693],[21.5235,35.6707],[21.5264,35.667],[21.5301,35.658],[21.5341,35.6523],[21.5386,35.6497],[21.5408,35.6484],[21.5408,35.6484],[21.543,35.6518]]],[[[21.4683,35.632],[21.4703,35.6345],[21.469,35.6363],[21.4642,35.6374],[21.4632,35.6362],[21.4659,35.6325],[21.4672,35.6307],[21.4672,35.6307],[21.4683,35.632]]],[[[21.4991,35.6292],[21.4996,35.6448],[21.4967,35.6552],[21.4902,35.6604],[21.4815,35.664],[21.4706,35.6659],[21.4648,35.6632],[21.4643,35.6559],[21.4689,35.6492],[21.4786,35.6431],[21.4828,35.638],[21.4815,35.6339],[21.4854,35.6292],[21.4943,35.624],[21.4988,35.6214],[21.4988,35.6214],[21.4991,35.6292]]],[[[21.7524,35.5307],[21.7651,35.5388],[21.7801,35.542],[21.7974,35.5401],[21.8193,35.5541],[21.8457,35.584],[21.8683,35.6023],[21.8871,35.6088],[21.8949,35.6133],[21.8917,35.616],[21.8854,35.6163],[21.8761,35.6142],[21.8805,35.6155],[21.8987,35.6201],[21.9076,35.6251],[21.907,35.6305],[21.9128,35.633],[21.9247,35.6325],[21.9317,35.6337],[21.9336,35.6366],[21.9267,35.6388],[21.9112,35.6403],[21.911,35.6408],[21.9263,35.6401],[21.9365,35.6425],[21.9417,35.6478],[21.9541,35.651],[21.9739,35.6521],[21.9878,35.6555],[21.9959,35.6612],[22,35.6711],[22,35.6852],[21.9882,35.6979],[21.9645,35.7093],[21.9448,35.717],[21.9292,35.7209],[21.9141,35.7203],[21.8995,35.7152],[21.8797,35.713],[21.8547,35.7139],[21.8391,35.7188],[21.8328,35.7278],[21.8123,35.7323],[21.7773,35.7325],[21.7583,35.7349],[21.7551,35.7398],[21.7541,35.7503],[21.7552,35.7666],[21.7489,35.7782],[21.7354,35.7851],[21.7234,35.7893],[21.713,35.7906],[21.7084,35.7889],[21.7095,35.7842],[21.7132,35.7802],[21.7193,35.7769],[21.721,35.7743],[21.718,35.7724],[21.7191,35.7717],[21.724,35.7721],[21.7245,35.7708],[21.7208,35.7677],[21.721,35.7612],[21.7251,35.7513],[21.7258,35.7467],[21.7232,35.7472],[21.7198,35.7404],[21.7156,35.7263],[21.7199,35.7119],[21.7327,35.697],[21.7464,35.6871],[21.7609,35.6823],[21.7708,35.6749],[21.776,35.6649],[21.7805,35.6594],[21.7842,35.6583],[21.7863,35.6534],[21.7866,35.6445],[21.7813,35.6318],[21.7704,35.6151],[21.7659,35.6006],[21.7678,35.5881],[21.764,35.5787],[21.7547,35.5724],[21.7488,35.5654],[21.7463,35.5575],[21.7442,35.5471],[21.7423,35.5341],[21.7425,35.5274],[21.7449,35.5269],[21.746,35.5266],[21.746,35.5266],[21.7524,35.5307]]],[[[21.6719,35.4479],[21.6772,35.4531],[21.6802,35.4594],[21.6811,35.4667],[21.6784,35.4727],[21.6724,35.4776],[21.6695,35.4755],[21.6698,35.4665],[21.668,35.4589],[21.6643,35.4526],[21.6641,35.4485],[21.6676,35.4464],[21.6693,35.4453],[21.6693,35.4453],[21.6719,35.4479]]]]}},{"type":"Feature","properties":{"depth":4000,"kind":"isobath"},"geometry":{"type":"MultiLineString","coordinates":[[[21.82,35.9891],[21.8222,35.9864],[21.8265,35.981],[21.8338,35.9762],[21.8443,35.9721],[21.8758,35.967],[21.9285,35.9609],[21.9548,35.9578],[21.9548,35.9578],[21.9648,35.9628],[21.9848,35.9727],[21.9853,35.9816],[21.9663,35.9895],[21.9568,35.9934]],[[21.2259,35.963],[21.2287,35.9583],[21.2343,35.949],[21.2371,35.9443],[21.2371,35.9443],[21.2383,35.9451],[21.2406,35.9466],[21.2397,35.9508],[21.2354,35.9575],[21.2336,35.9635],[21.2341,35.9688],[21.2367,35.9737],[21.2414,35.9784],[21.242,35.9838],[21.2385,35.9901],[21.2385,35.9948],[21.242,35.9979],[21.2437,35.9995]],[[21.2839,35.8964],[21.2841,35.8977],[21.2847,35.9002],[21.2847,35.9002],[21.2841,35.8977],[21.2839,35.8964]],[[21.3407,35.8891],[21.3432,35.8925],[21.3482,35.8992],[21.3491,35.9045],[21.3459,35.9084],[21.3429,35.9091],[21.3401,35.9069],[21.3392,35.9016],[21.3402,35.8933],[21.3407,35.8891]],[[21.4225,35.9547],[21.422,35.9509],[21.4209,35.9432],[21.4156,35.9338],[21.4063,35.9227],[21.4017,35.9219],[21.4018,35.9312],[21.3999,35.9409],[21.3958,35.9508],[21.3955,35.9572],[21.3988,35.9601],[21.3978,35.9595],[21.3924,35.9556],[21.3898,35.9436],[21.39,35.9236],[21.3928,35.908],[21.3982,35.8967],[21.4039,35.8898],[21.41,35.8872],[21.413,35.8859],[21.413,35.8859],[21.412,35.8877],[21.4099,35.8912],[21.4183,35.8932],[21.437,35.8935],[21.4453,35.8951],[21.443,35.898],[21.4445,35.9016],[21.4496,35.9057],[21.4502,35.907],[21.4463,35.9055],[21.4448,35.906],[21.4458,35.9086],[21.4489,35.9093],[21.4542,35.9081],[21.4578,35.9107],[21.4599,35.9171],[21.4632,35.9206],[21.4677,35.9211],[21.4541,35.9404],[21.4224,35.9784],[21.4065,35.9974]],[[21.413,35.9108],[21.4125,35.9124],[21.4116,35.9156],[21.4132,35.9181],[21.4173,35.9198],[21.4177,35.9182],[21.4146,35.9133],[21.413,35.9108]],[[21.3504,35.8661],[21.3507,35.868],[21.3513,35.8717],[21.3513,35.8717],[21.3507,35.868],[21.3504,35.8661]],[[21.3688,35.8464],[21.3718,35.849],[21.3777,35.8542],[21.3797,35.8595],[21.3776,35.8648],[21.3733,35.868],[21.3667,35.8689],[21.3617,35.868],[21.3583,35.8654],[21.3597,35.8597],[21.3658,35.8508],[21.3688,35.8464]],[[21.2339,35.8047],[21.2339,35.8057],[21.2339,35.8078],[21.2339,35.8078],[21.2339,35.8057],[21.2339,35.8047]],[[21.522,35.7974],[21.5239,35.7988],[21.5278,35.8016],[21.5384,35.8021],[21.5557,35.8004],[21.559,35.8062],[21.5485,35.8195],[21.5442,35.8276],[21.5464,35.8303],[21.5531,35.8285],[21.5646,35.8223],[21.5719,35.8193],[21.575,35.8194],[21.5766,35.8213],[21.5766,35.8251],[21.5771,35.8252],[21.5781,35.8217],[21.5824,35.8187],[21.5898,35.8163],[21.5904,35.8203],[21.5841,35.8307],[21.5824,35.845],[21.5853,35.8633],[21.5845,35.8753],[21.5799,35.881],[21.5804,35.8899],[21.586,35.9018],[21.5961,35.9102],[21.6106,35.9149],[21.6178,35.9188],[21.6174,35.9219],[21.6056,35.9205],[21.5821,35.9146],[21.5625,35.9171],[21.5469,35.928],[21.5334,35.9285],[21.5219,35.9184],[21.5122,35.9065],[21.5043,35.8928],[21.5025,35.8836],[21.5068,35.8789],[21.509,35.8691],[21.5091,35.854],[21.5044,35.8425],[21.4947,35.8346],[21.4912,35.8268],[21.4942,35.819],[21.4938,35.8133],[21.4903,35.8096],[21.4931,35.81],[21.5022,35.8143],[21.5065,35.812],[21.5058,35.8029],[21.5095,35.7982],[21.5179,35.7977],[21.522,35.7974]],[[21.5734,35.827],[21.573,35.8282],[21.572,35.8306],[21.572,35.8306],[21.573,35.8282],[21.5734,35.827]],[[21.5325,35.7964],[21.5315,35.7964],[21.5294,35.7964],[21.5294,35.7964],[21.5315,35.7964],[21.5325,35.7964]],[[21.2822,35.7349],[21.2808,35.7368],[21.278,35.7406],[21.278,35.7406],[21.2808,35.7368],[21.2822,35.7349]],[[21.2662,35.7328],[21.2625,35.7349],[21.255,35.739],[21.2522,35.7395],[21.2539,35.7362],[21.2576,35.7342],[21.2633,35.7333],[21.2662,35.7328]],[[21.3195,35.7266],[21.3223,35.7274],[21.3279,35.7289],[21.334,35.7336],[21.3405,35.7414],[21.3418,35.7542],[21.3377,35.7719],[21.3383,35.7862],[21.3435,35.7971],[21.3386,35.8078],[21.3236,35.8182],[21.3157,35.8276],[21.3149,35.8359],[21.3165,35.8416],[21.3204,35.8445],[21.3266,35.8415],[21.3349,35.8328],[21.3418,35.828],[21.3471,35.8271],[21.3464,35.83],[21.3396,35.8367],[21.3382,35.85],[21.3423,35.8697],[21.3365,35.8733],[21.3208,35.8607],[21.307,35.8541],[21.2951,35.8534],[21.2829,35.85],[21.2704,35.8439],[21.2631,35.8429],[21.2609,35.8471],[21.2544,35.8431],[21.2435,35.8311],[21.232,35.8244],[21.2199,35.8231],[21.2155,35.8159],[21.2187,35.8028],[21.2266,35.8024],[21.2391,35.8147],[21.2497,35.8187],[21.2586,35.8145],[21.2651,35.8134],[21.2693,35.8155],[21.273,35.8217],[21.276,35.8321],[21.2855,35.8338],[21.3014,35.8269],[21.303,35.8165],[21.2903,35.8027],[21.2766,35.7929],[21.262,35.7872],[21.254,35.78],[21.2526,35.7715],[21.2529,35.7657],[21.2548,35.7627],[21.2578,35.762],[21.262,35.7635],[21.267,35.7627],[21.2727,35.7595],[21.2818,35.7626],[21.2942,35.7721],[21.3026,35.7754],[21.3068,35.7725],[21.3099,35.7726],[21.312,35.7757],[21.314,35.7734],[21.3159,35.7658],[21.3154,35.7607],[21.3124,35.7581],[21.3099,35.7577],[21.3078,35.7594],[21.3028,35.7553],[21.2948,35.7451],[21.2922,35.7382],[21.295,35.7345],[21.3022,35.7311],[21.3137,35.7281],[21.3195,35.7266]],[[21.4924,35.7266],[21.4953,35.7321],[21.5013,35.7429],[21.5025,35.75],[21.4991,35.7533],[21.4934,35.751],[21.4854,35.743],[21.4842,35.736],[21.4896,35.7297],[21.4924,35.7266]],[[21.4058,35.6922],[21.4087,35.6927],[21.4145,35.6938],[21.4185,35.6961],[21.4206,35.6998],[21.4178,35.706],[21.4101,35.7149],[21.4064,35.7219],[21.4067,35.7272],[21.4112,35.7308],[21.4201,35.7329],[21.4282,35.7319],[21.4355,35.7279],[21.4468,35.7297],[21.4623,35.7373],[21.4672,35.7409],[21.4617,35.7406],[21.4513,35.7456],[21.4362,35.7559],[21.4216,35.7534],[21.4075,35.738],[21.3963,35.7325],[21.388,35.7369],[21.3849,35.7307],[21.387,35.7138],[21.3925,35.7021],[21.4014,35.6955],[21.4058,35.6922]],[[21.5282,35.6526],[21.5275,35.654],[21.5262,35.6567],[21.5262,35.6567],[21.5275,35.654],[21.5282,35.6526]],[[21.5408,35.6484],[21.543,35.6518],[21.5475,35.6586],[21.548,35.6664],[21.5445,35.6753],[21.5447,35.6831],[21.5485,35.6898],[21.5497,35.6949],[21.5482,35.6982],[21.545,35.6995],[21.5401,35.6988],[21.5373,35.6957],[21.5364,35.6902],[21.5338,35.6876],[21.5297,35.6877],[21.5227,35.6889],[21.5129,35.6911],[21.5033,35.6975],[21.4938,35.708],[21.4852,35.7126],[21.4773,35.7111],[21.4677,35.7122],[21.4562,35.7159],[21.4477,35.7163],[21.4422,35.7134],[21.4409,35.708],[21.4438,35.6999],[21.4482,35.6963],[21.4539,35.6972],[21.4589,35.6954],[21.463,35.6909],[21.4685,35.6893],[21.4752,35.6907],[21.489,35.6857],[21.5099,35.6743],[21.5214,35.6693],[21.5235,35.6707],[21.5264,35.667],[21.5301,35.658],[21.5341,35.6523],[21.5386,35.6497],[21.5408,35.6484]],[[21.4672,35.6307],[21.4683,35.632],[21.4703,35.6345],[21.469,35.6363],[21.4642,35.6374],[21.4632,35.6362],[21.4659,35.6325],[21.4672,35.6307]],[[21.4988,35.6214],[21.4991,35.6292],[21.4996,35.6448],[21.4967,35.6552],[21.4902,35.6604],[21.4815,35.664],[21.4706,35.6659],[21.4648,35.6632],[21.4643,35.6559],[21.4689,35.6492],[21.4786,35.6431],[21.4828,35.638],[21.4815,35.6339],[21.4854,35.6292],[21.4943,35.624],[21.4988,35.6214]],[[21.9526,35.715],[21.9448,35.717],[21.9292,35.7209],[21.9141,35.7203],[21.8995,35.7152],[21.8797,35.713],[21.8547,35.7139],[21.8391,35.7188],[21.8328,35.7278],[21.8123,35.7323],[21.7773,35.7325],[21.7583,35.7349],[21.7551,35.7398],[21.7541,35.7503],[21.7552,35.7666],[21.7489,35.7782],[21.7354,35.7851],[21.7234,35.7893],[21.713,35.7906],[21.7084,35.7889],[21.7095,35.7842],[21.7132,35.7802],[21.7193,35.7769],[21.721,35.7743],[21.718,35.7724],[21.7191,35.7717],[21.724,35.7721],[21.7245,35.7708],[21.7208,35.7677],[21.721,35.7612],[21.7251,35.7513],[21.7258,35.7467],[21.7232,35.7472],[21.7198,35.7404],[21.7156,35.7263],[21.7199,35.7119],[21.7327,35.697],[21.7464,35.6871],[21.7609,35.6823],[21.7708,35.6749],[21.776,35.6649],[21.7805,35.6594],[21.7842,35.6583],[21.7863,35.6534],[21.7866,35.6445],[21.7813,35.6318],[21.7704,35.6151],[21.7659,35.6006],[21.7678,35.5881],[21.764,35.5787],[21.7547,35.5724],[21.7488,35.5654],[21.7463,35.5575],[21.7442,35.5471],[21.7423,35.5341],[21.7425,35.5274],[21.7449,35.5269],[21.746,35.5266],[21.746,35.5266],[21.7524,35.5307],[21.7651,35.5388],[21.7801,35.542],[21.7974,35.5401],[21.8193,35.5541],[21.8457,35.584],[21.8683,35.6023],[21.8871,35.6088],[21.8949,35.6133],[21.8917,35.616],[21.8854,35.6163],[21.8761,35.6142],[21.8805,35.6155],[21.8987,35.6201],[21.9076,35.6251],[21.907,35.6305],[21.9128,35.633],[21.9247,35.6325],[21.9317,35.6337],[21.9336,35.6366],[21.9267,35.6388],[21.9112,35.6403],[21.911,35.6408],[21.9263,35.6401],[21.9365,35.6425],[21.9417,35.6478],[21.9541,35.651],[21.9739,35.6521],[21.9837,35.6526]],[[21.6693,35.4453],[21.6719,35.4479],[21.6772,35.4531],[21.6802,35.4594],[21.6811,35.4667],[21.6784,35.4727],[21.6724,35.4776],[21.6695,35.4755],[21.6698,35.4665],[21.668,35.4589],[21.6643,35.4526],[21.6641,35.4485],[21.6676,35.4464],[21.6693,35.4453]]]}}]}