{"type":"FeatureCollection","features":[{"type":"Feature","properties":{"depth":5,"kind":"band"},"geometry":{"type":"MultiPolygon","coordinates":[[[[21.9999,34.2504],[21.9996,34.7501],[21.7496,34.9999],[21.2499,34.9996],[21.0001,34.7496],[21.0004,34.2499],[21.2504,34.0001],[21.7501,34.0004],[22,34.0005],[22,34.0005],[21.9999,34.2504]]]]}},{"type":"Feature","properties":{"depth":10,"kind":"band"},"geometry":{"type":"MultiPolygon","coordinates":[[[[21.9999,34.2504],[21.9996,34.7501],[21.7496,34.9999],[21.2499,34.9996],[21.0001,34.7496],[21.0004,34.2499],[21.2504,34.0001],[21.7501,34.0004],[22,34.0005],[22,34.0005],[21.9999,34.2504]]]]}},{"type":"Feature","properties":{"depth":15,"kind":"band"},"geometry":{"type":"MultiPolygon","coordinates":[[[[21.9999,34.2504],[21.9996,34.7501],[21.7496,34.9999],[21.2499,34.9996],[21.0001,34.7496],[21.0004,34.2499],[21.2504,34.0001],[21.7501,34.0004],[22,34.0005],[22,34.0005],[21.9999,34.2504]]]]}},{"type":"Feature","properties":{"depth":20,"kind":"band"},"geometry":{"type":"MultiPolygon","coordinates":[[[[21.9999,34.2504],[21.9996,34.7501],[21.7496,34.9999],[21.2499,34.9996],[21.0001,34.7496],[21.0004,34.2499],[21.2504,34.0001],[21.7501,34.0004],[22,34.0005],[22,34.0005],[21.9999,34.2504]]]]}},{"type":"Feature","properties":{"depth":25,"kind":"band"},"geometry":{"type":"MultiPolygon","coordinates":[[[[21.9999,34.2504],[21.9996,34.7501],[21.7496,34.9999],[21.2499,34.9996],[21.0001,34.7496],[21.0004,34.2499],[21.2504,34.0001],[21.7501,34.0004],[22,34.0005],[22,34.0005],[21.9999,34.2504]]]]}},{"type":"Feature","properties":{"depth":30,"kind":"band"},"geometry":{"type":"MultiPolygon","coordinates":[[[[21.9999,34.2504],[21.9996,34.7501],[21.7496,34.9999],[21.2499,34.9996],[21.0001,34.7496],[21.0004,34.2499],[21.2504,34.0001],[21.7501,34.0004],[22,34.0005],[22,34.0005],[21.9999,34.2504]]]]}},{"type":"Feature","properties":{"depth":40,"kind":"band"},"geometry":{"type":"MultiPolygon","coordinates":[[[[21.9999,34.2504],[21.9996,34.7501],[21.7496,34.9999],[21.2499,34.9996],[21.0001,34.7496],[21.0004,34.2499],[21.2504,34.0001],[21.7501,34.0004],[22,34.0005],[22,34.0005],[21.9999,34.2504]]]]}},{"type":"Feature","properties":{"depth":50,"kind":"band"},"geometry":{"type":"MultiPolygon","coordinates":[[[[21.9999,34.2504],[21.9996,34.7501],[21.7496,34.9999],[21.2499,34.9996],[21.0001,34.7496],[21.0004,34.2499],[21.2504,34.0001],[21.7501,34.0004],[22,34.0005],[22,34.0005],[21.9999,34.2504]]]]}},{"type":"Feature","properties":{"depth":60,"kind":"band"},"geometry":{"type":"MultiPolygon","coordinates":[[[[21.9999,34.2504],[21.9996,34.7501],[21.7496,34.9999],[21.2499,34.9996],[21.0001,34.7496],[21.0004,34.2499],[21.2504,34.0001],[21.7501,34.0004],[22,34.0005],[22,34.0005],[21.9999,34.2504]]]]}},{"type":"Feature","properties":{"depth":75,"kind":"band"},"geometry":{"type":"MultiPolygon","coordinates":[[[[21.9999,34.2504],[21.9996,34.7501],[21.7496,34.9999],[21.2499,34.9996],[21.0001,34.7496],[21.0004,34.2499],[21.2504,34.0001],[21.7501,34.0004],[22,34.0005],[22,34.0005],[21.9999,34.2504]]]]}},{"type":"Feature","properties":{"depth":100,"kind":"band"},"geometry":{"type":"MultiPolygon","coordinates":[[[[21.9999,34.2504],[21.9996,34.7501],[21.7496,34.9999],[21.2499,34.9996],[21.0001,34.7496],[21.0004,34.2499],[21.2504,34.0001],[21.7501,34.0004],[22,34.0005],[22,34.0005],[21.9999,34.2504]]]]}},{"type":"Feature","properties":{"depth":150,"kind":"band"},"geometry":{"type":"MultiPolygon","coordinates":[[[[21.9999,34.2504],[21.9996,34.7501],[21.7496,34.9999],[21.2499,34.9996],[21.0001,34.7496],[21.0004,34.2499],[21.2504,34.0001],[21.7501,34.0004],[22,34.0005],[22,34.0005],[21.9999,34.2504]]]]}},{"type":"Feature","properties":{"depth":200,"kind":"band"},"geometry":{"type":"MultiPolygon","coordinates":[[[[21.9999,34.2504],[21.9996,34.7501],[21.7496,34.9999],[21.2499,34.9996],[21.0001,34.7496],[21.0004,34.2499],[21.2504,34.0001],[21.7501,34.0004],[22,34.0005],[22,34.0005],[21.9999,34.2504]]]]}},{"type":"Feature","properties":{"depth":300,"kind":"band"},"geometry":{"type":"MultiPolygon","coordinates":[[[[21.9999,34.2504],[21.9996,34.7501],[21.7496,34.9999],[21.2499,34.9996],[21.0001,34.7496],[21.0004,34.2499],[21.2504,34.0001],[21.7501,34.0004],[22,34.0005],[22,34.0005],[21.9999,34.2504]]]]}},{"type":"Feature","properties":{"depth":500,"kind":"band"},"geometry":{"type":"MultiPolygon","coordinates":[[[[21.9999,34.2504],[21.9996,34.7501],[21.7496,34.9999],[21.2499,34.9996],[21.0001,34.7496],[21.0004,34.2499],[21.2504,34.0001],[21.7501,34.0004],[22,34.0005],[22,34.0005],[21.9999,34.2504]]]]}},{"type":"Feature","properties":{"depth":750,"kind":"band"},"geometry":{"type":"MultiPolygon","coordinates":[[[[21.9999,34.2504],[21.9996,34.7501],[21.7496,34.9999],[21.2499,34.9996],[21.0001,34.7496],[21.0004,34.2499],[21.2504,34.0001],[21.7501,34.0004],[22,34.0005],[22,34.0005],[21.9999,34.2504]]]]}},{"type":"Feature","properties":{"depth":1000,"kind":"band"},"geometry":{"type":"MultiPolygon","coordinates":[[[[21.9999,34.2504],[21.9996,34.7501],[21.7496,34.9999],[21.2499,34.9996],[21.0001,34.7496],[21.0004,34.2499],[21.2504,34.0001],[21.7501,34.0004],[22,34.0005],[22,34.0005],[21.9999,34.2504]]]]}},{"type":"Feature","properties":{"depth":1500,"kind":"band"},"geometry":{"type":"MultiPolygon","coordinates":[[[[21.9999,34.2504],[21.9996,34.7501],[21.7496,34.9999],[21.2499,34.9996],[21.0001,34.7496],[21.0004,34.2499],[21.2504,34.0001],[21.7501,34.0004],[22,34.0005],[22,34.0005],[21.9999,34.2504]]]]}},{"type":"Feature","properties":{"depth":2000,"kind":"band"},"geometry":{"type":"MultiPolygon","coordinates":[[[[21.9999,34.2504],[21.9996,34.7501],[21.7496,34.9999],[21.2499,34.9996],[21.0001,34.7496],[21.0004,34.2499],[21.2504,34.0001],[21.7501,34.0004],[22,34.0005],[22,34.0005],[21.9999,34.2504]]]]}},{"type":"Feature","properties":{"depth":3000,"kind":"band"},"geometry":{"type":"MultiPolygon","coordinates":[[[[21.4597,34.9057],[21.455,34.9139],[21.455,34.9139],[21.4597,34.9057],[21.462,34.9016],[21.462,34.9016],[21.4597,34.9057]]],[[[21.4365,34.8984],[21.4312,34.9065],[21.4262,34.9109],[21.4213,34.9116],[21.4219,34.9078],[21.4278,34.8995],[21.4328,34.8951],[21.437,34.8946],[21.4391,34.8943],[21.4391,34.8943],[21.4365,34.8984]]],[[[21.9999,34.7848],[21.9996,34.9283],[21.8394,35],[21.519,35],[21.3654,34.9957],[21.3784,34.9871],[21.3945,34.9799],[21.4138,34.974],[21.4261,34.9683],[21.4314,34.9627],[21.4337,34.9563],[21.4329,34.949],[21.4364,34.9425],[21.4443,34.9368],[21.4488,34.9316],[21.4499,34.927],[21.4568,34.9232],[21.4693,34.9201],[21.4748,34.9136],[21.4733,34.9035],[21.4755,34.8935],[21.4812,34.8836],[21.482,34.8784],[21.4779,34.8779],[21.4771,34.8732],[21.4795,34.8643],[21.4776,34.8604],[21.4713,34.8614],[21.4685,34.8595],[21.469,34.8546],[21.4722,34.8526],[21.4779,34.8535],[21.4833,34.8513],[21.4885,34.8463],[21.4908,34.849],[21.4904,34.8597],[21.4986,34.8674],[21.5155,34.8721],[21.5237,34.8776],[21.523,34.8839],[21.5207,34.8873],[21.5168,34.8877],[21.5157,34.8937],[21.5174,34.9051],[21.5247,34.9107],[21.5378,34.9104],[21.5528,34.9041],[21.5699,34.892],[21.579,34.8781],[21.5801,34.8625],[21.5746,34.8538],[21.5628,34.8521],[21.5547,34.8475],[21.5505,34.8402],[21.5448,34.8378],[21.5375,34.8403],[21.532,34.8399],[21.5283,34.8365],[21.526,34.8331],[21.5253,34.8294],[21.5292,34.8239],[21.5379,34.8167],[21.5422,34.8096],[21.5422,34.8028],[21.5474,34.8018],[21.5578,34.8067],[21.5674,34.8098],[21.5763,34.8112],[21.5815,34.8107],[21.5831,34.8083],[21.5909,34.8089],[21.605,34.8126],[21.6138,34.8133],[21.6175,34.8111],[21.6263,34.8124],[21.6404,34.8171],[21.6583,34.8167],[21.6802,34.8114],[21.6979,34.8093],[21.7114,34.8104],[21.7188,34.8097],[21.72,34.807],[21.7166,34.8015],[21.7087,34.7932],[21.7017,34.7893],[21.6957,34.7898],[21.6911,34.7883],[21.6878,34.7846],[21.6882,34.7806],[21.6923,34.7761],[21.699,34.7726],[21.7083,34.7703],[21.7125,34.7672],[21.7114,34.7634],[21.7307,34.76],[21.7703,34.7569],[21.7914,34.7527],[21.794,34.7474],[21.8016,34.7448],[21.814,34.745],[21.8242,34.7411],[21.832,34.7331],[21.8388,34.7296],[21.8445,34.7306],[21.8474,34.7286],[21.8474,34.7236],[21.8521,34.7197],[21.8614,34.7168],[21.8713,34.7148],[21.8818,34.7136],[21.887,34.7147],[21.887,34.7181],[21.8886,34.7185],[21.8916,34.7159],[21.8948,34.7173],[21.8979,34.7226],[21.9032,34.7234],[21.9105,34.7199],[21.9141,34.7198],[21.9141,34.7231],[21.9185,34.7267],[21.9274,34.7306],[21.9427,34.731],[21.9646,34.7281],[21.9816,34.7232],[21.9939,34.7164],[22,34.713],[22,34.713],[21.9999,34.7848]],[[21.4914,34.8764],[21.4919,34.8791],[21.4919,34.8791],[21.4914,34.8764],[21.4911,34.8751],[21.4911,34.8751],[21.4914,34.8764]],[[21.4833,34.8653],[21.4864,34.8672],[21.4862,34.8695],[21.4828,34.8721],[21.4821,34.874],[21.484,34.8752],[21.4862,34.8733],[21.4888,34.8682],[21.488,34.8653],[21.4839,34.8647],[21.4818,34.8643],[21.4818,34.8643],[21.4833,34.8653]]]]}},{"type":"Feature","properties":{"depth":3000,"kind":"isobath"},"geometry":{"type":"MultiLineString","coordinates":[[[21.462,34.9016],[21.4597,34.9057],[21.455,34.9139],[21.455,34.9139],[21.4597,34.9057],[21.462,34.9016]],[[21.4391,34.8943],[21.4365,34.8984],[21.4312,34.9065],[21.4262,34.9109],[21.4213,34.9116],[21.4219,34.9078],[21.4278,34.8995],[21.4328,34.8951],[21.437,34.8946],[21.4391,34.8943]],[[21.3849,34.9828],[21.3945,34.9799],[21.4138,34.974],[21.4261,34.9683],[21.4314,34.9627],[21.4337,34.9563],[21.4329,34.949],[21.4364,34.9425],[21.4443,34.9368],[21.4488,34.9316],[21.4499,34.927],[21.4568,34.9232],[21.4693,34.9201],[21.4748,34.9136],[21.4733,34.9035],[21.4755,34.8935],[21.4812,34.8836],[21.482,34.8784],[21.4779,34.8779],[21.4771,34.8732],[21.4795,34.8643],[21.4776,34.8604],[21.4713,34.8614],[21.4685,34.8595],[21.469,34.8546],[21.4722,34.8526],[21.4779,34.8535],[21.4833,34.8513],[21.4885,34.8463],[21.4908,34.849],[21.4904,34.8597],[21.4986,34.8674],[21.5155,34.8721],[21.5237,34.8776],[21.523,34.8839],[21.5207,34.8873],[21.5168,34.8877],[21.5157,34.8937],[21.5174,34.9051],[21.5247,34.9107],[21.5378,34.9104],[21.5528,34.9041],[21.5699,34.892],[21.579,34.8781],[21.5801,34.8625],[21.5746,34.8538],[21.5628,34.8521],[21.5547,34.8475],[21.5505,34.8402],[21.5448,34.8378],[21.5375,34.8403],[21.532,34.8399],[21.5283,34.8365],[21.526,34.8331],[21.5253,34.8294],[21.5292,34.8239],[21.5379,34.8167],[21.5422,34.8096],[21.5422,34.8028],[21.5474,34.8018],[21.5578,34.8067],[21.5674,34.8098],[21.5763,34.8112],[21.5815,34.8107],[21.5831,34.8083],[21.5909,34.8089],[21.605,34.8126],[21.6138,34.8133],[21.6175,34.8111],[21.6263,34.8124],[21.6404,34.8171],[21.6583,34.8167],[21.6802,34.8114],[21.6979,34.8093],[21.7114,34.8104],[21.7188,34.8097],[21.72,34.807],[21.7166,34.8015],[21.7087,34.7932],[21.7017,34.7893],[21.6957,34.7898],[21.6911,34.7883],[21.6878,34.7846],[21.6882,34.7806],[21.6923,34.7761],[21.699,34.7726],[21.7083,34.7703],[21.7125,34.7672],[21.7114,34.7634],[21.7307,34.76],[21.7703,34.7569],[21.7914,34.7527],[21.794,34.7474],[21.8016,34.7448],[21.814,34.745],[21.8242,34.7411],[21.832,34.7331],[21.8388,34.7296],[21.8445,34.7306],[21.8474,34.7286],[21.8474,34.7236],[21.8521,34.7197],[21.8614,34.7168],[21.8713,34.7148],[21.8818,34.7136],[21.887,34.7147],[21.887,34.7181],[21.8886,34.7185],[21.8916,34.7159],[21.8948,34.7173],[21.8979,34.7226],[21.9032,34.7234],[21.9105,34.7199],[21.9141,34.7198],[21.9141,34.7231],[21.9185,34.7267],[21.9274,34.7306],[21.9427,34.731],[21.9646,34.7281],[21.9755,34.7266]],[[21.4911,34.8751],[21.4914,34.8764],[21.4919,34.8791],[21.4919,34.8791],[21.4914,34.8764],[21.4911,34.8751]],[[21.4818,34.8643],[21.4833,34.8653],[21.4864,34.8672],[21.4862,34.8695],[21.4828,34.8721],[21.4821,34.874],[21.484,34.8752],[21.4862,34.8733],[21.4888,34.8682],[21.488,34.8653],[21.4839,34.8647],[21.4818,34.8643]]]}}]}