{"type":"FeatureCollection","features":[{"type":"Feature","properties":{"depth":5,"kind":"band"},"geometry":{"type":"MultiPolygon","coordinates":[[[[21.0851,39.0403],[21.085,39.0407],[21.085,39.0407],[21.0851,39.0403],[21.0851,39.0401],[21.0851,39.0401],[21.0851,39.0403]]],[[[21.0542,39.037],[21.0535,39.037],[21.0535,39.037],[21.0542,39.037],[21.0545,39.037],[21.0545,39.037],[21.0542,39.037]]],[[[21.0853,39.037],[21.0848,39.037],[21.0848,39.037],[21.0853,39.037],[21.0855,39.037],[21.0855,39.037],[21.0853,39.037]]],[[[21.0705,39.0352],[21.0708,39.0356],[21.0708,39.0361],[21.0705,39.0366],[21.07,39.0366],[21.0693,39.0361],[21.0693,39.0355],[21.07,39.0346],[21.0703,39.0343],[21.0703,39.0347],[21.0703,39.0349],[21.0703,39.0349],[21.0705,39.0352]]],[[[21.0594,39.034],[21.0591,39.0342],[21.0589,39.034],[21.0589,39.0333],[21.0591,39.0332],[21.0594,39.0337],[21.0596,39.0339],[21.0596,39.0339],[21.0594,39.034]]],[[[21.0546,39.0318],[21.0539,39.0318],[21.0539,39.0318],[21.0546,39.0318],[21.0549,39.0318],[21.0549,39.0318],[21.0546,39.0318]]],[[[21.1406,39.0031],[21.1372,39.0083],[21.1341,39.0127],[21.1311,39.0161],[21.1281,39.0191],[21.125,39.0215],[21.1205,39.026],[21.1149,39.0325],[21.112,39.0364],[21.112,39.0378],[21.1107,39.0394],[21.1081,39.0411],[21.105,39.0423],[21.1013,39.0428],[21.0982,39.043],[21.0956,39.0427],[21.0935,39.0422],[21.0919,39.0415],[21.0909,39.0415],[21.0904,39.0423],[21.0898,39.0427],[21.0893,39.0426],[21.0881,39.0422],[21.0862,39.0415],[21.0855,39.0409],[21.0862,39.0404],[21.0864,39.0394],[21.0861,39.0381],[21.0862,39.0373],[21.0867,39.0372],[21.0874,39.0373],[21.0881,39.0378],[21.0881,39.0377],[21.0874,39.0373],[21.0868,39.0361],[21.0862,39.0344],[21.0857,39.0337],[21.0852,39.0342],[21.0843,39.034],[21.0832,39.0332],[21.0821,39.0302],[21.081,39.025],[21.0796,39.0208],[21.0778,39.0177],[21.077,39.0146],[21.0772,39.0115],[21.0766,39.0091],[21.0752,39.0075],[21.0729,39.0062],[21.0698,39.0052],[21.0654,39.0047],[21.0597,39.0047],[21.0545,39.0051],[21.0498,39.0058],[21.0466,39.0058],[21.0451,39.0051],[21.0443,39.0045],[21.0443,39.0039],[21.0434,39.0031],[21.0417,39.0021],[21.0399,39.0014],[21.038,39.0009],[21.0347,39.0013],[21.03,39.0025],[21.0263,39.0032],[21.0237,39.0033],[21.0213,39.0031],[21.0193,39.0026],[21.0174,39.0026],[21.0159,39.0031],[21.0138,39.0033],[21.0112,39.0034],[21.0085,39.0027],[21.0057,39.0012],[21.0388,39.0005],[21.1078,39.0005],[21.1423,39.0005],[21.1423,39.0005],[21.1406,39.0031]]]]}},{"type":"Feature","properties":{"depth":5,"kind":"isobath"},"geometry":{"type":"MultiLineString","coordinates":[[[21.0851,39.0401],[21.0851,39.0403],[21.085,39.0407],[21.085,39.0407],[21.0851,39.0403],[21.0851,39.0401]],[[21.0545,39.037],[21.0542,39.037],[21.0535,39.037],[21.0535,39.037],[21.0542,39.037],[21.0545,39.037]],[[21.0855,39.037],[21.0853,39.037],[21.0848,39.037],[21.0848,39.037],[21.0853,39.037],[21.0855,39.037]],[[21.0703,39.0349],[21.0705,39.0352],[21.0708,39.0356],[21.0708,39.0361],[21.0705,39.0366],[21.07,39.0366],[21.0693,39.0361],[21.0693,39.0355],[21.07,39.0346],[21.0703,39.0343],[21.0703,39.0347],[21.0703,39.0349]],[[21.0596,39.0339],[21.0594,39.034],[21.0591,39.0342],[21.0589,39.034],[21.0589,39.0333],[21.0591,39.0332],[21.0594,39.0337],[21.0596,39.0339]],[[21.0549,39.0318],[21.0546,39.0318],[21.0539,39.0318],[21.0539,39.0318],[21.0546,39.0318],[21.0549,39.0318]],[[21.1423,39.0005],[21.1406,39.0031],[21.1372,39.0083],[21.1341,39.0127],[21.1311,39.0161],[21.1281,39.0191],[21.125,39.0215],[21.1205,39.026],[21.1149,39.0325],[21.112,39.0364],[21.112,39.0378],[21.1107,39.0394],[21.1081,39.0411],[21.105,39.0423],[21.1013,39.0428],[21.0982,39.043],[21.0956,39.0427],[21.0935,39.0422],[21.0919,39.0415],[21.0909,39.0415],[21.0904,39.0423],[21.0898,39.0427],[21.0893,39.0426],[21.0881,39.0422],[21.0862,39.0415],[21.0855,39.0409],[21.0862,39.0404],[21.0864,39.0394],[21.0861,39.0381],[21.0862,39.0373],[21.0867,39.0372],[21.0874,39.0373],[21.0881,39.0378],[21.0881,39.0377],[21.0874,39.0373],[21.0868,39.0361],[21.0862,39.0344],[21.0857,39.0337],[21.0852,39.0342],[21.0843,39.034],[21.0832,39.0332],[21.0821,39.0302],[21.081,39.025],[21.0796,39.0208],[21.0778,39.0177],[21.077,39.0146],[21.0772,39.0115],[21.0766,39.0091],[21.0752,39.0075],[21.0729,39.0062],[21.0698,39.0052],[21.0654,39.0047],[21.0597,39.0047],[21.0545,39.0051],[21.0498,39.0058],[21.0466,39.0058],[21.0451,39.0051],[21.0443,39.0045],[21.0443,39.0039],[21.0434,39.0031],[21.0417,39.0021],[21.0399,39.0014],[21.038,39.0009],[21.0347,39.0013],[21.03,39.0025],[21.0263,39.0032],[21.0237,39.0033],[21.0213,39.0031],[21.0193,39.0026],[21.0174,39.0026],[21.0159,39.0031],[21.0138,39.0033],[21.0112,39.0034],[21.0085,39.0027],[21.0057,39.0012],[21.0388,39.0005],[21.1078,39.0005],[21.1423,39.0005]]]}},{"type":"Feature","properties":{"depth":10,"kind":"band"},"geometry":{"type":"MultiPolygon","coordinates":[[[[21.0703,39.0352],[21.0703,39.0357],[21.0703,39.0357],[21.0703,39.0352],[21.0703,39.0349],[21.0703,39.0349],[21.0703,39.0352]]],[[[21.1376,39.0031],[21.1344,39.0084],[21.1317,39.0123],[21.1296,39.0148],[21.127,39.0174],[21.1237,39.0201],[21.1202,39.0235],[21.1163,39.0276],[21.1132,39.031],[21.1109,39.0336],[21.1098,39.0353],[21.1099,39.0362],[21.1089,39.0373],[21.1067,39.0388],[21.1047,39.0397],[21.1026,39.0401],[21.1003,39.0401],[21.0977,39.0397],[21.0956,39.0396],[21.094,39.0399],[21.0927,39.0398],[21.0916,39.0393],[21.0902,39.0377],[21.0883,39.0352],[21.0869,39.033],[21.0863,39.031],[21.0855,39.0297],[21.0849,39.029],[21.0835,39.0255],[21.0814,39.0192],[21.0802,39.0143],[21.0801,39.0107],[21.0791,39.0079],[21.0775,39.006],[21.0743,39.0043],[21.0696,39.0028],[21.0628,39.0021],[21.0539,39.0022],[21.0487,39.0022],[21.0472,39.0019],[21.0462,39.0014],[21.0457,39.0008],[21.0689,39.0005],[21.1158,39.0005],[21.1392,39.0005],[21.1392,39.0005],[21.1376,39.0031]]]]}},{"type":"Feature","properties":{"depth":10,"kind":"isobath"},"geometry":{"type":"MultiLineString","coordinates":[[[21.0703,39.0349],[21.0703,39.0352],[21.0703,39.0357],[21.0703,39.0357],[21.0703,39.0352],[21.0703,39.0349]],[[21.1392,39.0005],[21.1376,39.0031],[21.1344,39.0084],[21.1317,39.0123],[21.1296,39.0148],[21.127,39.0174],[21.1237,39.0201],[21.1202,39.0235],[21.1163,39.0276],[21.1132,39.031],[21.1109,39.0336],[21.1098,39.0353],[21.1099,39.0362],[21.1089,39.0373],[21.1067,39.0388],[21.1047,39.0397],[21.1026,39.0401],[21.1003,39.0401],[21.0977,39.0397],[21.0956,39.0396],[21.094,39.0399],[21.0927,39.0398],[21.0916,39.0393],[21.0902,39.0377],[21.0883,39.0352],[21.0869,39.033],[21.0863,39.031],[21.0855,39.0297],[21.0849,39.029],[21.0835,39.0255],[21.0814,39.0192],[21.0802,39.0143],[21.0801,39.0107],[21.0791,39.0079],[21.0775,39.006],[21.0743,39.0043],[21.0696,39.0028],[21.0628,39.0021],[21.0539,39.0022],[21.0487,39.0022],[21.0472,39.0019],[21.0462,39.0014],[21.0457,39.0008],[21.0689,39.0005],[21.1158,39.0005],[21.1392,39.0005]]]}},{"type":"Feature","properties":{"depth":15,"kind":"band"},"geometry":{"type":"MultiPolygon","coordinates":[[[[21.1357,39.0022],[21.1338,39.0057],[21.1315,39.0091],[21.1289,39.0124],[21.1258,39.0155],[21.1221,39.0186],[21.1175,39.0233],[21.112,39.0296],[21.1089,39.0328],[21.1082,39.0327],[21.1078,39.0332],[21.1077,39.0343],[21.1066,39.0355],[21.1046,39.0368],[21.1028,39.0375],[21.1013,39.0379],[21.0995,39.038],[21.0974,39.0379],[21.0953,39.0375],[21.0932,39.0367],[21.0913,39.0354],[21.0894,39.0337],[21.0883,39.0324],[21.0881,39.0317],[21.0878,39.0315],[21.0872,39.0318],[21.087,39.0311],[21.0871,39.0294],[21.0862,39.0255],[21.0843,39.0192],[21.0831,39.0138],[21.0826,39.0091],[21.0814,39.0059],[21.0795,39.004],[21.0769,39.0025],[21.0735,39.0012],[21.088,39.0005],[21.1205,39.0005],[21.1367,39.0005],[21.1367,39.0005],[21.1357,39.0022]]]]}},{"type":"Feature","properties":{"depth":15,"kind":"isobath"},"geometry":{"type":"MultiLineString","coordinates":[[[21.1367,39.0005],[21.1357,39.0022],[21.1338,39.0057],[21.1315,39.0091],[21.1289,39.0124],[21.1258,39.0155],[21.1221,39.0186],[21.1175,39.0233],[21.112,39.0296],[21.1089,39.0328],[21.1082,39.0327],[21.1078,39.0332],[21.1077,39.0343],[21.1066,39.0355],[21.1046,39.0368],[21.1028,39.0375],[21.1013,39.0379],[21.0995,39.038],[21.0974,39.0379],[21.0953,39.0375],[21.0932,39.0367],[21.0913,39.0354],[21.0894,39.0337],[21.0883,39.0324],[21.0881,39.0317],[21.0878,39.0315],[21.0872,39.0318],[21.087,39.0311],[21.0871,39.0294],[21.0862,39.0255],[21.0843,39.0192],[21.0831,39.0138],[21.0826,39.0091],[21.0814,39.0059],[21.0795,39.004],[21.0769,39.0025],[21.0735,39.0012],[21.088,39.0005],[21.1205,39.0005],[21.1367,39.0005]]]}},{"type":"Feature","properties":{"depth":20,"kind":"band"},"geometry":{"type":"MultiPolygon","coordinates":[[[[21.1322,39.0034],[21.1285,39.0092],[21.1237,39.0147],[21.1179,39.0198],[21.1124,39.0252],[21.1073,39.0309],[21.1031,39.0341],[21.1,39.0351],[21.0971,39.0352],[21.0945,39.0346],[21.0926,39.0337],[21.0914,39.0324],[21.0897,39.0279],[21.0875,39.02],[21.0863,39.0138],[21.086,39.0091],[21.0854,39.006],[21.0844,39.0043],[21.0828,39.0027],[21.0805,39.0012],[21.093,39.0005],[21.1204,39.0005],[21.134,39.0005],[21.134,39.0005],[21.1322,39.0034]]]]}},{"type":"Feature","properties":{"depth":20,"kind":"isobath"},"geometry":{"type":"MultiLineString","coordinates":[[[21.134,39.0005],[21.1322,39.0034],[21.1285,39.0092],[21.1237,39.0147],[21.1179,39.0198],[21.1124,39.0252],[21.1073,39.0309],[21.1031,39.0341],[21.1,39.0351],[21.0971,39.0352],[21.0945,39.0346],[21.0926,39.0337],[21.0914,39.0324],[21.0897,39.0279],[21.0875,39.02],[21.0863,39.0138],[21.086,39.0091],[21.0854,39.006],[21.0844,39.0043],[21.0828,39.0027],[21.0805,39.0012],[21.093,39.0005],[21.1204,39.0005],[21.134,39.0005]]]}},{"type":"Feature","properties":{"depth":25,"kind":"band"},"geometry":{"type":"MultiPolygon","coordinates":[[[[21.13,39.0031],[21.1264,39.0083],[21.1228,39.0125],[21.1191,39.0156],[21.1136,39.0209],[21.1065,39.0281],[21.1018,39.0321],[21.0995,39.0326],[21.0974,39.0326],[21.0953,39.0321],[21.0937,39.0305],[21.0924,39.0279],[21.0911,39.0243],[21.09,39.0196],[21.0893,39.0143],[21.089,39.0086],[21.0879,39.0044],[21.086,39.0018],[21.0968,39.0005],[21.1201,39.0005],[21.1317,39.0005],[21.1317,39.0005],[21.13,39.0031]]]]}},{"type":"Feature","properties":{"depth":25,"kind":"isobath"},"geometry":{"type":"MultiLineString","coordinates":[[[21.1317,39.0005],[21.13,39.0031],[21.1264,39.0083],[21.1228,39.0125],[21.1191,39.0156],[21.1136,39.0209],[21.1065,39.0281],[21.1018,39.0321],[21.0995,39.0326],[21.0974,39.0326],[21.0953,39.0321],[21.0937,39.0305],[21.0924,39.0279],[21.0911,39.0243],[21.09,39.0196],[21.0893,39.0143],[21.089,39.0086],[21.0879,39.0044],[21.086,39.0018],[21.0968,39.0005],[21.1201,39.0005],[21.1317,39.0005]]]}},{"type":"Feature","properties":{"depth":30,"kind":"band"},"geometry":{"type":"MultiPolygon","coordinates":[[[[21.1274,39.0029],[21.1243,39.0076],[21.1179,39.0143],[21.1081,39.0232],[21.1024,39.0283],[21.1005,39.0296],[21.0987,39.0302],[21.097,39.0298],[21.0951,39.0263],[21.0931,39.0195],[21.0921,39.0135],[21.0922,39.0083],[21.0915,39.0044],[21.0901,39.0018],[21.0993,39.0005],[21.1191,39.0005],[21.129,39.0005],[21.129,39.0005],[21.1274,39.0029]]]]}},{"type":"Feature","properties":{"depth":30,"kind":"isobath"},"geometry":{"type":"MultiLineString","coordinates":[[[21.129,39.0005],[21.1274,39.0029],[21.1243,39.0076],[21.1179,39.0143],[21.1081,39.0232],[21.1024,39.0283],[21.1005,39.0296],[21.0987,39.0302],[21.097,39.0298],[21.0951,39.0263],[21.0931,39.0195],[21.0921,39.0135],[21.0922,39.0083],[21.0915,39.0044],[21.0901,39.0018],[21.0993,39.0005],[21.1191,39.0005],[21.129,39.0005]]]}},{"type":"Feature","properties":{"depth":40,"kind":"band"},"geometry":{"type":"MultiPolygon","coordinates":[[[[21.123,39.0023],[21.1203,39.006],[21.1143,39.0117],[21.1051,39.0196],[21.1001,39.0235],[21.0994,39.0234],[21.0986,39.0213],[21.0977,39.0172],[21.0977,39.0127],[21.0988,39.0081],[21.0992,39.0044],[21.0989,39.0018],[21.1051,39.0005],[21.1179,39.0005],[21.1243,39.0005],[21.1243,39.0005],[21.123,39.0023]]]]}},{"type":"Feature","properties":{"depth":40,"kind":"isobath"},"geometry":{"type":"MultiLineString","coordinates":[[[21.1243,39.0005],[21.123,39.0023],[21.1203,39.006],[21.1143,39.0117],[21.1051,39.0196],[21.1001,39.0235],[21.0994,39.0234],[21.0986,39.0213],[21.0977,39.0172],[21.0977,39.0127],[21.0988,39.0081],[21.0992,39.0044],[21.0989,39.0018],[21.1051,39.0005],[21.1179,39.0005],[21.1243,39.0005]]]}},{"type":"Feature","properties":{"depth":50,"kind":"band"},"geometry":{"type":"MultiPolygon","coordinates":[[[[21.1123,39.0071],[21.1114,39.0079],[21.1107,39.0079],[21.1104,39.0071],[21.1104,39.0067],[21.1107,39.0064],[21.1114,39.0064],[21.1123,39.0067],[21.1128,39.0068],[21.1128,39.0068],[21.1123,39.0071]]]]}},{"type":"Feature","properties":{"depth":50,"kind":"isobath"},"geometry":{"type":"MultiLineString","coordinates":[[[21.1128,39.0068],[21.1123,39.0071],[21.1114,39.0079],[21.1107,39.0079],[21.1104,39.0071],[21.1104,39.0067],[21.1107,39.0064],[21.1114,39.0064],[21.1123,39.0067],[21.1128,39.0068]]]}}]}