{"type":"FeatureCollection","features":[{"type":"Feature","properties":{"depth":5,"kind":"band"},"geometry":{"type":"MultiPolygon","coordinates":[[[[22.9999,34.2504],[22.9996,34.7501],[22.7496,34.9999],[22.2499,34.9996],[22.0001,34.7496],[22.0004,34.2499],[22.2504,34.0001],[22.7501,34.0004],[23,34.0005],[23,34.0005],[22.9999,34.2504]]]]}},{"type":"Feature","properties":{"depth":10,"kind":"band"},"geometry":{"type":"MultiPolygon","coordinates":[[[[22.9999,34.2504],[22.9996,34.7501],[22.7496,34.9999],[22.2499,34.9996],[22.0001,34.7496],[22.0004,34.2499],[22.2504,34.0001],[22.7501,34.0004],[23,34.0005],[23,34.0005],[22.9999,34.2504]]]]}},{"type":"Feature","properties":{"depth":15,"kind":"band"},"geometry":{"type":"MultiPolygon","coordinates":[[[[22.9999,34.2504],[22.9996,34.7501],[22.7496,34.9999],[22.2499,34.9996],[22.0001,34.7496],[22.0004,34.2499],[22.2504,34.0001],[22.7501,34.0004],[23,34.0005],[23,34.0005],[22.9999,34.2504]]]]}},{"type":"Feature","properties":{"depth":20,"kind":"band"},"geometry":{"type":"MultiPolygon","coordinates":[[[[22.9999,34.2504],[22.9996,34.7501],[22.7496,34.9999],[22.2499,34.9996],[22.0001,34.7496],[22.0004,34.2499],[22.2504,34.0001],[22.7501,34.0004],[23,34.0005],[23,34.0005],[22.9999,34.2504]]]]}},{"type":"Feature","properties":{"depth":25,"kind":"band"},"geometry":{"type":"MultiPolygon","coordinates":[[[[22.9999,34.2504],[22.9996,34.7501],[22.7496,34.9999],[22.2499,34.9996],[22.0001,34.7496],[22.0004,34.2499],[22.2504,34.0001],[22.7501,34.0004],[23,34.0005],[23,34.0005],[22.9999,34.2504]]]]}},{"type":"Feature","properties":{"depth":30,"kind":"band"},"geometry":{"type":"MultiPolygon","coordinates":[[[[22.9999,34.2504],[22.9996,34.7501],[22.7496,34.9999],[22.2499,34.9996],[22.0001,34.7496],[22.0004,34.2499],[22.2504,34.0001],[22.7501,34.0004],[23,34.0005],[23,34.0005],[22.9999,34.2504]]]]}},{"type":"Feature","properties":{"depth":40,"kind":"band"},"geometry":{"type":"MultiPolygon","coordinates":[[[[22.9999,34.2504],[22.9996,34.7501],[22.7496,34.9999],[22.2499,34.9996],[22.0001,34.7496],[22.0004,34.2499],[22.2504,34.0001],[22.7501,34.0004],[23,34.0005],[23,34.0005],[22.9999,34.2504]]]]}},{"type":"Feature","properties":{"depth":50,"kind":"band"},"geometry":{"type":"MultiPolygon","coordinates":[[[[22.9999,34.2504],[22.9996,34.7501],[22.7496,34.9999],[22.2499,34.9996],[22.0001,34.7496],[22.0004,34.2499],[22.2504,34.0001],[22.7501,34.0004],[23,34.0005],[23,34.0005],[22.9999,34.2504]]]]}},{"type":"Feature","properties":{"depth":60,"kind":"band"},"geometry":{"type":"MultiPolygon","coordinates":[[[[22.9999,34.2504],[22.9996,34.7501],[22.7496,34.9999],[22.2499,34.9996],[22.0001,34.7496],[22.0004,34.2499],[22.2504,34.0001],[22.7501,34.0004],[23,34.0005],[23,34.0005],[22.9999,34.2504]]]]}},{"type":"Feature","properties":{"depth":75,"kind":"band"},"geometry":{"type":"MultiPolygon","coordinates":[[[[22.9999,34.2504],[22.9996,34.7501],[22.7496,34.9999],[22.2499,34.9996],[22.0001,34.7496],[22.0004,34.2499],[22.2504,34.0001],[22.7501,34.0004],[23,34.0005],[23,34.0005],[22.9999,34.2504]]]]}},{"type":"Feature","properties":{"depth":100,"kind":"band"},"geometry":{"type":"MultiPolygon","coordinates":[[[[22.9999,34.2504],[22.9996,34.7501],[22.7496,34.9999],[22.2499,34.9996],[22.0001,34.7496],[22.0004,34.2499],[22.2504,34.0001],[22.7501,34.0004],[23,34.0005],[23,34.0005],[22.9999,34.2504]]]]}},{"type":"Feature","properties":{"depth":150,"kind":"band"},"geometry":{"type":"MultiPolygon","coordinates":[[[[22.9999,34.2504],[22.9996,34.7501],[22.7496,34.9999],[22.2499,34.9996],[22.0001,34.7496],[22.0004,34.2499],[22.2504,34.0001],[22.7501,34.0004],[23,34.0005],[23,34.0005],[22.9999,34.2504]]]]}},{"type":"Feature","properties":{"depth":200,"kind":"band"},"geometry":{"type":"MultiPolygon","coordinates":[[[[22.9999,34.2504],[22.9996,34.7501],[22.7496,34.9999],[22.2499,34.9996],[22.0001,34.7496],[22.0004,34.2499],[22.2504,34.0001],[22.7501,34.0004],[23,34.0005],[23,34.0005],[22.9999,34.2504]]]]}},{"type":"Feature","properties":{"depth":300,"kind":"band"},"geometry":{"type":"MultiPolygon","coordinates":[[[[22.9999,34.2504],[22.9996,34.7501],[22.7496,34.9999],[22.2499,34.9996],[22.0001,34.7496],[22.0004,34.2499],[22.2504,34.0001],[22.7501,34.0004],[23,34.0005],[23,34.0005],[22.9999,34.2504]]]]}},{"type":"Feature","properties":{"depth":500,"kind":"band"},"geometry":{"type":"MultiPolygon","coordinates":[[[[22.9999,34.2504],[22.9996,34.7501],[22.7496,34.9999],[22.2499,34.9996],[22.0001,34.7496],[22.0004,34.2499],[22.2504,34.0001],[22.7501,34.0004],[23,34.0005],[23,34.0005],[22.9999,34.2504]]]]}},{"type":"Feature","properties":{"depth":750,"kind":"band"},"geometry":{"type":"MultiPolygon","coordinates":[[[[22.9999,34.2504],[22.9996,34.7501],[22.7496,34.9999],[22.2499,34.9996],[22.0001,34.7496],[22.0004,34.2499],[22.2504,34.0001],[22.7501,34.0004],[23,34.0005],[23,34.0005],[22.9999,34.2504]]]]}},{"type":"Feature","properties":{"depth":1000,"kind":"band"},"geometry":{"type":"MultiPolygon","coordinates":[[[[22.9999,34.2504],[22.9996,34.7501],[22.7496,34.9999],[22.2499,34.9996],[22.0001,34.7496],[22.0004,34.2499],[22.2504,34.0001],[22.7501,34.0004],[23,34.0005],[23,34.0005],[22.9999,34.2504]]]]}},{"type":"Feature","properties":{"depth":1500,"kind":"band"},"geometry":{"type":"MultiPolygon","coordinates":[[[[22.9999,34.2504],[22.9996,34.7501],[22.7496,34.9999],[22.2499,34.9996],[22.0001,34.7496],[22.0004,34.2499],[22.2504,34.0001],[22.7501,34.0004],[23,34.0005],[23,34.0005],[22.9999,34.2504]]]]}},{"type":"Feature","properties":{"depth":2000,"kind":"band"},"geometry":{"type":"MultiPolygon","coordinates":[[[[22.9999,34.2504],[22.9996,34.7501],[22.7496,34.9999],[22.2499,34.9996],[22.0001,34.7496],[22.0004,34.2499],[22.2504,34.0001],[22.7501,34.0004],[23,34.0005],[23,34.0005],[22.9999,34.2504]],[[22.2841,34.3766],[22.2617,34.3884],[22.2559,34.3933],[22.2667,34.3911],[22.2779,34.3853],[22.2895,34.3755],[22.2953,34.3707],[22.2953,34.3707],[22.2841,34.3766]],[[22.3289,34.3594],[22.3274,34.3627],[22.3231,34.364],[22.3163,34.3633],[22.3121,34.3656],[22.3108,34.3708],[22.3134,34.3724],[22.3201,34.3705],[22.325,34.3666],[22.3281,34.3607],[22.3297,34.3577],[22.3297,34.3577],[22.3289,34.3594]],[[22.4325,34.326],[22.4216,34.3322],[22.4135,34.3337],[22.4083,34.3308],[22.3992,34.3315],[22.3862,34.3358],[22.3702,34.3435],[22.3513,34.3544],[22.3447,34.3613],[22.3507,34.3641],[22.3633,34.3634],[22.3825,34.3591],[22.3916,34.359],[22.3904,34.3631],[22.3928,34.3652],[22.3986,34.3653],[22.4055,34.3625],[22.4133,34.3566],[22.4224,34.346],[22.4328,34.3307],[22.438,34.323],[22.438,34.323],[22.4325,34.326]],[[22.457,34.3036],[22.4492,34.3036],[22.4442,34.3073],[22.4421,34.3148],[22.446,34.3148],[22.456,34.3073],[22.4609,34.3036],[22.4609,34.3036],[22.457,34.3036]],[[22.5503,34.2632],[22.5518,34.2655],[22.5518,34.2655],[22.5503,34.2632],[22.5495,34.262],[22.5495,34.262],[22.5503,34.2632]],[[22.6097,34.2556],[22.6091,34.2577],[22.6091,34.2577],[22.6097,34.2556],[22.6099,34.2545],[22.6099,34.2545],[22.6097,34.2556]],[[22.6408,34.2458],[22.6254,34.2497],[22.6168,34.2532],[22.6147,34.2563],[22.6158,34.259],[22.6202,34.2613],[22.6276,34.2618],[22.638,34.2605],[22.6454,34.2575],[22.6497,34.2528],[22.6509,34.2488],[22.6493,34.2455],[22.6484,34.2438],[22.6484,34.2438],[22.6408,34.2458]],[[22.427,34.2294],[22.3945,34.2463],[22.3748,34.2602],[22.3676,34.2711],[22.3662,34.2798],[22.3703,34.2862],[22.3745,34.2868],[22.3786,34.2816],[22.3846,34.2785],[22.3925,34.2774],[22.3967,34.2749],[22.3972,34.2712],[22.4026,34.2707],[22.413,34.2734],[22.4201,34.274],[22.4238,34.2723],[22.428,34.2685],[22.4326,34.2628],[22.437,34.2502],[22.4411,34.2307],[22.4432,34.221],[22.4432,34.221],[22.427,34.2294]],[[22.505,34.1965],[22.4828,34.1978],[22.4693,34.2015],[22.4644,34.2078],[22.4598,34.2198],[22.4557,34.2375],[22.4635,34.2403],[22.4833,34.228],[22.5003,34.2209],[22.5144,34.2189],[22.5232,34.2146],[22.5267,34.208],[22.5253,34.2025],[22.5192,34.1981],[22.5161,34.1959],[22.5161,34.1959],[22.505,34.1965]],[[22.9761,34.0415],[22.9688,34.0425],[22.9637,34.0449],[22.9608,34.0486],[22.9645,34.0481],[22.9746,34.0434],[22.9797,34.041],[22.9797,34.041],[22.9761,34.0415]]]]}},{"type":"Feature","properties":{"depth":2000,"kind":"isobath"},"geometry":{"type":"MultiLineString","coordinates":[[[22.2953,34.3707],[22.2841,34.3766],[22.2617,34.3884],[22.2559,34.3933],[22.2667,34.3911],[22.2779,34.3853],[22.2895,34.3755],[22.2953,34.3707]],[[22.3297,34.3577],[22.3289,34.3594],[22.3274,34.3627],[22.3231,34.364],[22.3163,34.3633],[22.3121,34.3656],[22.3108,34.3708],[22.3134,34.3724],[22.3201,34.3705],[22.325,34.3666],[22.3281,34.3607],[22.3297,34.3577]],[[22.438,34.323],[22.4325,34.326],[22.4216,34.3322],[22.4135,34.3337],[22.4083,34.3308],[22.3992,34.3315],[22.3862,34.3358],[22.3702,34.3435],[22.3513,34.3544],[22.3447,34.3613],[22.3507,34.3641],[22.3633,34.3634],[22.3825,34.3591],[22.3916,34.359],[22.3904,34.3631],[22.3928,34.3652],[22.3986,34.3653],[22.4055,34.3625],[22.4133,34.3566],[22.4224,34.346],[22.4328,34.3307],[22.438,34.323]],[[22.4609,34.3036],[22.457,34.3036],[22.4492,34.3036],[22.4442,34.3073],[22.4421,34.3148],[22.446,34.3148],[22.456,34.3073],[22.4609,34.3036]],[[22.5495,34.262],[22.5503,34.2632],[22.5518,34.2655],[22.5518,34.2655],[22.5503,34.2632],[22.5495,34.262]],[[22.6099,34.2545],[22.6097,34.2556],[22.6091,34.2577],[22.6091,34.2577],[22.6097,34.2556],[22.6099,34.2545]],[[22.6484,34.2438],[22.6408,34.2458],[22.6254,34.2497],[22.6168,34.2532],[22.6147,34.2563],[22.6158,34.259],[22.6202,34.2613],[22.6276,34.2618],[22.638,34.2605],[22.6454,34.2575],[22.6497,34.2528],[22.6509,34.2488],[22.6493,34.2455],[22.6484,34.2438]],[[22.4432,34.221],[22.427,34.2294],[22.3945,34.2463],[22.3748,34.2602],[22.3676,34.2711],[22.3662,34.2798],[22.3703,34.2862],[22.3745,34.2868],[22.3786,34.2816],[22.3846,34.2785],[22.3925,34.2774],[22.3967,34.2749],[22.3972,34.2712],[22.4026,34.2707],[22.413,34.2734],[22.4201,34.274],[22.4238,34.2723],[22.428,34.2685],[22.4326,34.2628],[22.437,34.2502],[22.4411,34.2307],[22.4432,34.221]],[[22.5161,34.1959],[22.505,34.1965],[22.4828,34.1978],[22.4693,34.2015],[22.4644,34.2078],[22.4598,34.2198],[22.4557,34.2375],[22.4635,34.2403],[22.4833,34.228],[22.5003,34.2209],[22.5144,34.2189],[22.5232,34.2146],[22.5267,34.208],[22.5253,34.2025],[22.5192,34.1981],[22.5161,34.1959]],[[22.9797,34.041],[22.9761,34.0415],[22.9688,34.0425],[22.9637,34.0449],[22.9608,34.0486],[22.9645,34.0481],[22.9746,34.0434],[22.9797,34.041]]]}},{"type":"Feature","properties":{"depth":3000,"kind":"band"},"geometry":{"type":"MultiPolygon","coordinates":[[[[22.6712,34.9342],[22.6665,34.9347],[22.6665,34.9347],[22.6712,34.9342],[22.6735,34.9339],[22.6735,34.9339],[22.6712,34.9342]]],[[[22.5609,34.8977],[22.5588,34.8982],[22.5588,34.8982],[22.5609,34.8977],[22.5619,34.8974],[22.5619,34.8974],[22.5609,34.8977]]],[[[22.7479,34.8911],[22.7489,34.8933],[22.7489,34.8933],[22.7479,34.8911],[22.7474,34.8901],[22.7474,34.8901],[22.7479,34.8911]]],[[[22.7513,34.8899],[22.7528,34.8915],[22.7528,34.8915],[22.7513,34.8899],[22.7505,34.8891],[22.7505,34.8891],[22.7513,34.8899]]],[[[22.4799,34.8754],[22.4784,34.8796],[22.4784,34.8796],[22.4799,34.8754],[22.4807,34.8734],[22.4807,34.8734],[22.4799,34.8754]]],[[[22.4766,34.8505],[22.4741,34.8505],[22.4741,34.8505],[22.4766,34.8505],[22.4779,34.8505],[22.4779,34.8505],[22.4766,34.8505]]],[[[22.9665,34.8248],[22.9641,34.8252],[22.9641,34.8252],[22.9665,34.8248],[22.9677,34.8245],[22.9677,34.8245],[22.9665,34.8248]]],[[[22.4855,34.8258],[22.49,34.8326],[22.4934,34.8342],[22.4958,34.8305],[22.4969,34.8318],[22.4966,34.8382],[22.493,34.8413],[22.4863,34.8412],[22.4827,34.8395],[22.4822,34.8365],[22.4833,34.8346],[22.4859,34.8342],[22.485,34.8318],[22.4805,34.8276],[22.4796,34.8247],[22.4821,34.8232],[22.4833,34.8224],[22.4833,34.8224],[22.4855,34.8258]],[[22.49,34.8379],[22.4879,34.838],[22.4879,34.838],[22.49,34.8379],[22.4911,34.8379],[22.4911,34.8379],[22.49,34.8379]]],[[[22.3597,34.8112],[22.3577,34.8117],[22.3577,34.8117],[22.3597,34.8112],[22.3607,34.8109],[22.3607,34.8109],[22.3597,34.8112]]],[[[22.3832,34.8114],[22.381,34.8125],[22.381,34.8125],[22.3832,34.8114],[22.3843,34.8109],[22.3843,34.8109],[22.3832,34.8114]]],[[[22.8895,34.8068],[22.8874,34.8068],[22.8874,34.8068],[22.8895,34.8068],[22.8906,34.8068],[22.8906,34.8068],[22.8895,34.8068]]],[[[22.3683,34.8055],[22.3704,34.8072],[22.3691,34.8083],[22.3644,34.809],[22.3633,34.8082],[22.366,34.8059],[22.3673,34.8047],[22.3673,34.8047],[22.3683,34.8055]]],[[[22.8901,34.8033],[22.888,34.8049],[22.888,34.8049],[22.8901,34.8033],[22.8911,34.8026],[22.8911,34.8026],[22.8901,34.8033]]],[[[22.3778,34.8033],[22.3777,34.8066],[22.3777,34.8066],[22.3778,34.8033],[22.3778,34.8016],[22.3778,34.8016],[22.3778,34.8033]]],[[[22.4204,34.7987],[22.4275,34.7992],[22.4286,34.8005],[22.4238,34.8024],[22.4203,34.8022],[22.418,34.7997],[22.4169,34.7984],[22.4169,34.7984],[22.4204,34.7987]]],[[[22.3942,34.7947],[22.3929,34.7978],[22.3929,34.7978],[22.3942,34.7947],[22.3948,34.7932],[22.3948,34.7932],[22.3942,34.7947]]],[[[22.4622,34.7922],[22.462,34.7943],[22.462,34.7943],[22.4622,34.7922],[22.4622,34.7911],[22.4622,34.7911],[22.4622,34.7922]]],[[[22.9213,34.775],[22.9112,34.7802],[22.9084,34.7841],[22.9128,34.7867],[22.9137,34.7888],[22.9112,34.7904],[22.9044,34.7899],[22.8933,34.7872],[22.8897,34.7833],[22.8934,34.778],[22.8956,34.7777],[22.8961,34.7823],[22.9039,34.7815],[22.9188,34.7754],[22.9263,34.7724],[22.9263,34.7724],[22.9213,34.775]]],[[[22.3316,34.7339],[22.3317,34.7362],[22.3317,34.7362],[22.3316,34.7339],[22.3315,34.7328],[22.3315,34.7328],[22.3316,34.7339]]],[[[22.3431,34.7026],[22.3407,34.7047],[22.3407,34.7047],[22.3431,34.7026],[22.3444,34.7016],[22.3444,34.7016],[22.3431,34.7026]]],[[[22.3198,34.6732],[22.3183,34.6747],[22.3183,34.6747],[22.3198,34.6732],[22.3205,34.6724],[22.3205,34.6724],[22.3198,34.6732]]],[[[22.2846,34.6123],[22.2839,34.617],[22.2868,34.6243],[22.2934,34.6342],[22.2962,34.6443],[22.2955,34.6547],[22.2973,34.6604],[22.3016,34.6615],[22.3027,34.6646],[22.3006,34.67],[22.3011,34.6715],[22.3042,34.6694],[22.3057,34.67],[22.3057,34.6733],[22.3081,34.6747],[22.3128,34.6741],[22.318,34.6761],[22.3237,34.6808],[22.3284,34.6823],[22.3321,34.6806],[22.3334,34.6814],[22.3323,34.6847],[22.3339,34.687],[22.3382,34.6884],[22.339,34.6957],[22.3363,34.709],[22.3318,34.7165],[22.3256,34.7184],[22.323,34.7203],[22.3241,34.7224],[22.3209,34.7268],[22.3134,34.7336],[22.3134,34.7373],[22.3207,34.7378],[22.3268,34.7417],[22.3317,34.749],[22.3325,34.7524],[22.3294,34.7519],[22.3288,34.7541],[22.3308,34.759],[22.3345,34.7593],[22.3398,34.7548],[22.34,34.7495],[22.3351,34.7432],[22.3345,34.7383],[22.3383,34.7346],[22.3425,34.7338],[22.3472,34.7358],[22.3519,34.7353],[22.3568,34.7322],[22.3591,34.7289],[22.359,34.7253],[22.3597,34.7254],[22.3612,34.7293],[22.3636,34.7283],[22.3667,34.7226],[22.3703,34.7209],[22.3745,34.7232],[22.3797,34.7221],[22.386,34.7178],[22.3896,34.7165],[22.3906,34.7184],[22.3884,34.7201],[22.3829,34.7216],[22.3813,34.7248],[22.3835,34.7295],[22.3828,34.7319],[22.3794,34.732],[22.3776,34.7339],[22.3777,34.7374],[22.3837,34.7409],[22.3956,34.7446],[22.3945,34.7453],[22.3804,34.7431],[22.3729,34.7436],[22.3718,34.7468],[22.3764,34.751],[22.3868,34.7563],[22.3908,34.7691],[22.3883,34.7894],[22.395,34.8008],[22.4107,34.8034],[22.4158,34.8093],[22.4105,34.8184],[22.4103,34.8221],[22.4153,34.8202],[22.4187,34.8169],[22.4205,34.8122],[22.4235,34.8111],[22.4276,34.8136],[22.4281,34.8121],[22.425,34.8066],[22.4276,34.8037],[22.4359,34.8034],[22.4383,34.8052],[22.4346,34.809],[22.4359,34.8112],[22.4422,34.8118],[22.4461,34.8095],[22.4476,34.8041],[22.4496,34.8065],[22.4521,34.8164],[22.4568,34.8249],[22.4637,34.8319],[22.4675,34.8338],[22.468,34.8307],[22.4658,34.8269],[22.4609,34.8225],[22.4601,34.8195],[22.4634,34.8179],[22.4673,34.8218],[22.4718,34.8312],[22.4756,34.8362],[22.479,34.8367],[22.4791,34.8378],[22.4761,34.8393],[22.4769,34.8406],[22.4814,34.8417],[22.4816,34.8437],[22.4776,34.8467],[22.4732,34.846],[22.4685,34.8417],[22.4672,34.8428],[22.4693,34.8493],[22.4656,34.8555],[22.4561,34.8612],[22.4563,34.8648],[22.4664,34.8661],[22.4714,34.8679],[22.4714,34.8704],[22.4732,34.8695],[22.4768,34.8652],[22.4757,34.868],[22.4698,34.8779],[22.469,34.8828],[22.4733,34.8828],[22.4759,34.8859],[22.477,34.892],[22.4793,34.8923],[22.4828,34.8867],[22.4853,34.8852],[22.487,34.8878],[22.486,34.8917],[22.4823,34.8969],[22.4831,34.8972],[22.4885,34.8925],[22.4955,34.8899],[22.5045,34.8894],[22.5144,34.8907],[22.5253,34.894],[22.5323,34.8977],[22.5354,34.9016],[22.5385,34.9006],[22.5416,34.8946],[22.5442,34.8925],[22.5464,34.8944],[22.5462,34.8971],[22.5438,34.9008],[22.5443,34.9039],[22.5478,34.9067],[22.549,34.9048],[22.5479,34.8985],[22.549,34.8942],[22.552,34.892],[22.5546,34.8925],[22.5567,34.8958],[22.5562,34.8982],[22.5532,34.8997],[22.5532,34.9019],[22.5563,34.9047],[22.5591,34.9038],[22.5617,34.8993],[22.5647,34.8989],[22.5682,34.9028],[22.5713,34.9036],[22.5741,34.9015],[22.5773,34.9022],[22.581,34.9057],[22.5865,34.9063],[22.5938,34.9042],[22.5979,34.9044],[22.599,34.9069],[22.6039,34.9082],[22.6128,34.9082],[22.618,34.9103],[22.6195,34.9144],[22.6232,34.9159],[22.6289,34.9148],[22.6279,34.9168],[22.6203,34.922],[22.6195,34.9245],[22.6255,34.9245],[22.6351,34.9285],[22.6482,34.9365],[22.6633,34.9403],[22.6805,34.9398],[22.6918,34.9373],[22.697,34.9329],[22.6999,34.9279],[22.7005,34.9222],[22.7048,34.9202],[22.7131,34.922],[22.7154,34.9198],[22.7117,34.9137],[22.712,34.91],[22.7161,34.9089],[22.7187,34.9101],[22.7198,34.9136],[22.7214,34.913],[22.7235,34.9084],[22.7276,34.9049],[22.7339,34.9025],[22.7392,34.9024],[22.7436,34.9046],[22.7477,34.9028],[22.7516,34.8969],[22.7557,34.8951],[22.7599,34.8974],[22.7627,34.8975],[22.764,34.8954],[22.7633,34.8933],[22.7604,34.8912],[22.7612,34.8904],[22.7658,34.8909],[22.7668,34.8899],[22.7643,34.8875],[22.7646,34.8874],[22.7677,34.8895],[22.769,34.8889],[22.7685,34.8855],[22.7719,34.8837],[22.7792,34.8832],[22.7832,34.8811],[22.7839,34.8774],[22.7941,34.8716],[22.8136,34.8638],[22.8237,34.8573],[22.8244,34.8521],[22.8274,34.8495],[22.8327,34.8495],[22.8363,34.8479],[22.8382,34.8447],[22.8435,34.8445],[22.8524,34.8472],[22.8578,34.8472],[22.8599,34.8446],[22.8627,34.845],[22.8664,34.8485],[22.8704,34.8493],[22.8748,34.8474],[22.874,34.8522],[22.8681,34.8637],[22.8703,34.8641],[22.8808,34.8537],[22.8855,34.856],[22.8844,34.8712],[22.8857,34.877],[22.8892,34.8733],[22.8913,34.8654],[22.892,34.8534],[22.8984,34.8318],[22.9107,34.8005],[22.9201,34.7836],[22.9266,34.781],[22.9303,34.7776],[22.9313,34.7733],[22.9404,34.7701],[22.9575,34.7682],[22.9678,34.7698],[22.9712,34.775],[22.9717,34.7805],[22.9692,34.7862],[22.9715,34.7964],[22.9786,34.8109],[22.9769,34.8104],[22.9662,34.7949],[22.9631,34.7928],[22.9674,34.8042],[22.9666,34.8087],[22.9607,34.8063],[22.9564,34.8081],[22.9537,34.8142],[22.9538,34.8177],[22.9568,34.8188],[22.9582,34.8214],[22.9579,34.8255],[22.955,34.8263],[22.9495,34.8237],[22.9499,34.8268],[22.9563,34.8357],[22.9575,34.8415],[22.9536,34.8443],[22.9463,34.8451],[22.9356,34.8438],[22.9337,34.8457],[22.9408,34.8506],[22.9474,34.8527],[22.9535,34.852],[22.9632,34.8481],[22.9763,34.8412],[22.9859,34.8379],[22.9922,34.8383],[22.9965,34.8368],[22.9988,34.8335],[23,34.8737],[23,34.9576],[22.7501,34.9996],[22.2504,34.9999],[22.0004,34.9283],[22.0001,34.7848],[22.0159,34.7039],[22.0478,34.6857],[22.0672,34.677],[22.0741,34.6777],[22.0805,34.6759],[22.0862,34.6717],[22.0972,34.6679],[22.1133,34.6646],[22.1329,34.6572],[22.1557,34.6457],[22.1732,34.6448],[22.1851,34.6544],[22.1973,34.6582],[22.2099,34.6563],[22.2208,34.6578],[22.2302,34.6628],[22.2386,34.6647],[22.2459,34.6636],[22.2524,34.6573],[22.2581,34.646],[22.2649,34.6377],[22.2728,34.6324],[22.2767,34.6261],[22.2768,34.6188],[22.2788,34.6138],[22.2829,34.6112],[22.2849,34.6099],[22.2849,34.6099],[22.2846,34.6123]],[[22.7689,34.9421],[22.766,34.9428],[22.766,34.9428],[22.7689,34.9421],[22.7703,34.9417],[22.7703,34.9417],[22.7689,34.9421]],[[22.7586,34.9409],[22.7562,34.9425],[22.7562,34.9425],[22.7586,34.9409],[22.7599,34.9402],[22.7599,34.9402],[22.7586,34.9409]],[[22.8044,34.9413],[22.8018,34.9424],[22.8018,34.9424],[22.8044,34.9413],[22.8057,34.9407],[22.8057,34.9407],[22.8044,34.9413]],[[22.7868,34.9364],[22.7781,34.9395],[22.7781,34.9395],[22.7868,34.9364],[22.7911,34.9348],[22.7911,34.9348],[22.7868,34.9364]],[[22.611,34.9347],[22.6131,34.9369],[22.6131,34.9369],[22.611,34.9347],[22.6099,34.9336],[22.6099,34.9336],[22.611,34.9347]],[[22.6356,34.9341],[22.6287,34.9353],[22.6297,34.937],[22.6387,34.9392],[22.6422,34.9386],[22.6401,34.9352],[22.6391,34.9335],[22.6391,34.9335],[22.6356,34.9341]],[[22.799,34.9337],[22.7959,34.9345],[22.7959,34.9345],[22.799,34.9337],[22.8005,34.9333],[22.8005,34.9333],[22.799,34.9337]],[[22.6233,34.9283],[22.6188,34.9292],[22.619,34.9303],[22.6241,34.9316],[22.6263,34.9311],[22.6258,34.9289],[22.6255,34.9278],[22.6255,34.9278],[22.6233,34.9283]],[[22.8136,34.928],[22.8107,34.9291],[22.8107,34.9291],[22.8136,34.928],[22.8151,34.9274],[22.8151,34.9274],[22.8136,34.928]],[[22.7803,34.9298],[22.7691,34.9367],[22.7658,34.9404],[22.7704,34.9409],[22.776,34.9374],[22.7826,34.93],[22.7859,34.9263],[22.7859,34.9263],[22.7803,34.9298]],[[22.8127,34.9212],[22.8061,34.9234],[22.8061,34.9234],[22.8127,34.9212],[22.8161,34.9201],[22.8161,34.9201],[22.8127,34.9212]],[[22.7338,34.9088],[22.7317,34.9095],[22.7317,34.9095],[22.7338,34.9088],[22.7349,34.9084],[22.7349,34.9084],[22.7338,34.9088]],[[22.5253,34.9075],[22.5268,34.9098],[22.5268,34.9098],[22.5253,34.9075],[22.5245,34.9064],[22.5245,34.9064],[22.5253,34.9075]],[[22.4614,34.8921],[22.4603,34.8942],[22.4603,34.8942],[22.4614,34.8921],[22.462,34.891],[22.462,34.891],[22.4614,34.8921]],[[22.425,34.8747],[22.4239,34.8774],[22.4239,34.8774],[22.425,34.8747],[22.4255,34.8734],[22.4255,34.8734],[22.425,34.8747]],[[22.4487,34.8738],[22.4409,34.877],[22.4394,34.8803],[22.4441,34.8837],[22.4493,34.8844],[22.455,34.8823],[22.4589,34.8824],[22.4609,34.8845],[22.4624,34.8835],[22.4634,34.8796],[22.461,34.8763],[22.4554,34.8736],[22.4526,34.8722],[22.4526,34.8722],[22.4487,34.8738]],[[22.4675,34.8712],[22.4638,34.8745],[22.4635,34.8763],[22.4665,34.8765],[22.4683,34.8748],[22.469,34.8713],[22.4693,34.8695],[22.4693,34.8695],[22.4675,34.8712]],[[22.3987,34.8545],[22.3992,34.8566],[22.3992,34.8566],[22.3987,34.8545],[22.3984,34.8534],[22.3984,34.8534],[22.3987,34.8545]],[[22.9266,34.8516],[22.9226,34.8557],[22.925,34.8562],[22.9339,34.8532],[22.9359,34.8511],[22.931,34.85],[22.9286,34.8495],[22.9286,34.8495],[22.9266,34.8516]],[[22.4576,34.8446],[22.4549,34.8481],[22.4518,34.8489],[22.4482,34.8469],[22.4474,34.8466],[22.4493,34.8478],[22.4484,34.85],[22.4449,34.8531],[22.4468,34.8543],[22.4541,34.8536],[22.4581,34.8506],[22.4586,34.8455],[22.4589,34.8429],[22.4589,34.8429],[22.4576,34.8446]],[[22.3276,34.8419],[22.3255,34.8448],[22.3255,34.8448],[22.3276,34.8419],[22.3286,34.8404],[22.3286,34.8404],[22.3276,34.8419]],[[22.4701,34.8397],[22.4716,34.8412],[22.4716,34.8412],[22.4701,34.8397],[22.4693,34.8389],[22.4693,34.8389],[22.4701,34.8397]],[[22.9382,34.8336],[22.9405,34.8359],[22.9405,34.8359],[22.9382,34.8336],[22.937,34.8324],[22.937,34.8324],[22.9382,34.8336]],[[22.4506,34.8301],[22.4484,34.8323],[22.4484,34.8323],[22.4506,34.8301],[22.4516,34.8291],[22.4516,34.8291],[22.4506,34.8301]],[[22.3931,34.8245],[22.3908,34.8251],[22.3908,34.8251],[22.3931,34.8245],[22.3943,34.8241],[22.3943,34.8241],[22.3931,34.8245]],[[22.3984,34.8232],[22.3984,34.8253],[22.3984,34.8253],[22.3984,34.8232],[22.3984,34.8221],[22.3984,34.8221],[22.3984,34.8232]],[[22.3421,34.8187],[22.3337,34.824],[22.3331,34.8258],[22.3406,34.8242],[22.3448,34.8216],[22.3459,34.8179],[22.3464,34.8161],[22.3464,34.8161],[22.3421,34.8187]],[[22.3733,34.8169],[22.3708,34.8185],[22.3708,34.8185],[22.3733,34.8169],[22.3745,34.8161],[22.3745,34.8161],[22.3733,34.8169]],[[22.4261,34.8157],[22.4232,34.8167],[22.4232,34.8181],[22.4261,34.8198],[22.4276,34.8192],[22.4276,34.8165],[22.4276,34.8152],[22.4276,34.8152],[22.4261,34.8157]],[[22.4347,34.8168],[22.4324,34.8185],[22.4329,34.8205],[22.4363,34.8228],[22.4375,34.822],[22.4364,34.8179],[22.4359,34.8159],[22.4359,34.8159],[22.4347,34.8168]],[[22.4438,34.8167],[22.4513,34.8246],[22.4513,34.8246],[22.4438,34.8167],[22.4401,34.8127],[22.4401,34.8127],[22.4438,34.8167]],[[22.9388,34.8157],[22.9425,34.8214],[22.9425,34.8214],[22.9388,34.8157],[22.937,34.8129],[22.937,34.8129],[22.9388,34.8157]],[[22.3411,34.8091],[22.3411,34.8122],[22.3411,34.8122],[22.3411,34.8091],[22.3411,34.8075],[22.3411,34.8075],[22.3411,34.8091]],[[22.4,34.8071],[22.3989,34.8099],[22.3989,34.8099],[22.4,34.8071],[22.4005,34.8057],[22.4005,34.8057],[22.4,34.8071]],[[22.9504,34.8071],[22.9522,34.8083],[22.9522,34.8083],[22.9504,34.8071],[22.9495,34.8065],[22.9495,34.8065],[22.9504,34.8071]],[[22.9492,34.8004],[22.9508,34.8024],[22.9508,34.8024],[22.9492,34.8004],[22.9484,34.7994],[22.9484,34.7994],[22.9492,34.8004]],[[22.3781,34.7929],[22.3729,34.7968],[22.3653,34.7969],[22.3552,34.793],[22.3541,34.7935],[22.362,34.7982],[22.3636,34.8008],[22.3587,34.8013],[22.3549,34.805],[22.3522,34.8117],[22.3541,34.8157],[22.3608,34.8168],[22.3667,34.8152],[22.3719,34.8108],[22.3755,34.811],[22.3776,34.8157],[22.3801,34.8174],[22.383,34.8159],[22.3858,34.8122],[22.3886,34.8065],[22.3876,34.8004],[22.383,34.7941],[22.3807,34.7909],[22.3807,34.7909],[22.3781,34.7929]],[[22.3275,34.7852],[22.3254,34.7864],[22.3262,34.787],[22.33,34.787],[22.3311,34.7864],[22.3294,34.7852],[22.3286,34.7846],[22.3286,34.7846],[22.3275,34.7852]],[[22.9542,34.7864],[22.9531,34.7893],[22.9531,34.7893],[22.9542,34.7864],[22.9547,34.7849],[22.9547,34.7849],[22.9542,34.7864]],[[22.3753,34.7799],[22.3768,34.7819],[22.3768,34.7819],[22.3753,34.7799],[22.3745,34.7789],[22.3745,34.7789],[22.3753,34.7799]],[[22.351,34.7678],[22.3458,34.7718],[22.3458,34.7718],[22.351,34.7678],[22.3536,34.7658],[22.3536,34.7658],[22.351,34.7678]],[[22.3701,34.7665],[22.3696,34.7703],[22.3714,34.7718],[22.3755,34.771],[22.3793,34.7729],[22.3826,34.7775],[22.3839,34.7777],[22.3832,34.7736],[22.3797,34.7698],[22.3734,34.7664],[22.3703,34.7647],[22.3703,34.7647],[22.3701,34.7665]],[[22.3172,34.7213],[22.3129,34.722],[22.3129,34.722],[22.3172,34.7213],[22.3193,34.7209],[22.3193,34.7209],[22.3172,34.7213]],[[22.2813,34.6323],[22.2802,34.6347],[22.2802,34.6347],[22.2813,34.6323],[22.2818,34.6311],[22.2818,34.6311],[22.2813,34.6323]]],[[[22.2671,34.5974],[22.2744,34.6015],[22.2787,34.6052],[22.2799,34.6083],[22.279,34.6116],[22.276,34.6149],[22.2717,34.6113],[22.2662,34.6006],[22.2634,34.5953],[22.2634,34.5953],[22.2671,34.5974]]],[[[22.2578,34.5831],[22.2585,34.5857],[22.2565,34.5875],[22.2517,34.5886],[22.2494,34.5874],[22.2495,34.5841],[22.2515,34.5823],[22.2554,34.582],[22.2574,34.5818],[22.2574,34.5818],[22.2578,34.5831]]],[[[22.291,34.4636],[22.2883,34.4667],[22.2847,34.4679],[22.28,34.4672],[22.2778,34.4682],[22.2781,34.471],[22.2755,34.4741],[22.27,34.4774],[22.2651,34.4787],[22.2611,34.478],[22.2603,34.4751],[22.2628,34.4701],[22.2712,34.4662],[22.2853,34.4634],[22.2924,34.462],[22.2924,34.462],[22.291,34.4636]]],[[[22.3417,34.4279],[22.3477,34.4305],[22.3415,34.4379],[22.3233,34.45],[22.3179,34.4497],[22.3256,34.437],[22.3317,34.4297],[22.3364,34.4276],[22.3387,34.4266],[22.3387,34.4266],[22.3417,34.4279]]],[[[22.4193,34.4099],[22.4227,34.414],[22.4192,34.4178],[22.4088,34.4211],[22.4071,34.419],[22.4141,34.4115],[22.4176,34.4078],[22.4176,34.4078],[22.4193,34.4099]]],[[[22.5377,34.3245],[22.5394,34.3266],[22.5325,34.331],[22.5172,34.3377],[22.4968,34.3541],[22.4716,34.3803],[22.4562,34.3925],[22.4507,34.3909],[22.4439,34.3942],[22.4358,34.4023],[22.4303,34.4062],[22.4271,34.4059],[22.4285,34.4023],[22.4345,34.3956],[22.436,34.3891],[22.4332,34.3828],[22.4396,34.3726],[22.4552,34.3584],[22.4664,34.3509],[22.4732,34.35],[22.4849,34.3436],[22.5016,34.3317],[22.5166,34.3252],[22.5302,34.324],[22.5369,34.3234],[22.5369,34.3234],[22.5377,34.3245]]],[[[22.6821,34.3005],[22.6858,34.3026],[22.6676,34.3107],[22.6278,34.3248],[22.6055,34.3306],[22.6008,34.3282],[22.5875,34.3284],[22.5656,34.3311],[22.5536,34.3304],[22.5514,34.3265],[22.5743,34.3214],[22.6224,34.3151],[22.6549,34.3089],[22.6718,34.3026],[22.6803,34.2995],[22.6803,34.2995],[22.6821,34.3005]]]]}},{"type":"Feature","properties":{"depth":3000,"kind":"isobath"},"geometry":{"type":"MultiLineString","coordinates":[[[22.6735,34.9339],[22.6712,34.9342],[22.6665,34.9347],[22.6665,34.9347],[22.6712,34.9342],[22.6735,34.9339]],[[22.5619,34.8974],[22.5609,34.8977],[22.5588,34.8982],[22.5588,34.8982],[22.5609,34.8977],[22.5619,34.8974]],[[22.7474,34.8901],[22.7479,34.8911],[22.7489,34.8933],[22.7489,34.8933],[22.7479,34.8911],[22.7474,34.8901]],[[22.7505,34.8891],[22.7513,34.8899],[22.7528,34.8915],[22.7528,34.8915],[22.7513,34.8899],[22.7505,34.8891]],[[22.4807,34.8734],[22.4799,34.8754],[22.4784,34.8796],[22.4784,34.8796],[22.4799,34.8754],[22.4807,34.8734]],[[22.4779,34.8505],[22.4766,34.8505],[22.4741,34.8505],[22.4741,34.8505],[22.4766,34.8505],[22.4779,34.8505]],[[22.9677,34.8245],[22.9665,34.8248],[22.9641,34.8252],[22.9641,34.8252],[22.9665,34.8248],[22.9677,34.8245]],[[22.4833,34.8224],[22.4855,34.8258],[22.49,34.8326],[22.4934,34.8342],[22.4958,34.8305],[22.4969,34.8318],[22.4966,34.8382],[22.493,34.8413],[22.4863,34.8412],[22.4827,34.8395],[22.4822,34.8365],[22.4833,34.8346],[22.4859,34.8342],[22.485,34.8318],[22.4805,34.8276],[22.4796,34.8247],[22.4821,34.8232],[22.4833,34.8224]],[[22.4911,34.8379],[22.49,34.8379],[22.4879,34.838],[22.4879,34.838],[22.49,34.8379],[22.4911,34.8379]],[[22.3607,34.8109],[22.3597,34.8112],[22.3577,34.8117],[22.3577,34.8117],[22.3597,34.8112],[22.3607,34.8109]],[[22.3843,34.8109],[22.3832,34.8114],[22.381,34.8125],[22.381,34.8125],[22.3832,34.8114],[22.3843,34.8109]],[[22.8906,34.8068],[22.8895,34.8068],[22.8874,34.8068],[22.8874,34.8068],[22.8895,34.8068],[22.8906,34.8068]],[[22.3673,34.8047],[22.3683,34.8055],[22.3704,34.8072],[22.3691,34.8083],[22.3644,34.809],[22.3633,34.8082],[22.366,34.8059],[22.3673,34.8047]],[[22.8911,34.8026],[22.8901,34.8033],[22.888,34.8049],[22.888,34.8049],[22.8901,34.8033],[22.8911,34.8026]],[[22.3778,34.8016],[22.3778,34.8033],[22.3777,34.8066],[22.3777,34.8066],[22.3778,34.8033],[22.3778,34.8016]],[[22.4169,34.7984],[22.4204,34.7987],[22.4275,34.7992],[22.4286,34.8005],[22.4238,34.8024],[22.4203,34.8022],[22.418,34.7997],[22.4169,34.7984]],[[22.3948,34.7932],[22.3942,34.7947],[22.3929,34.7978],[22.3929,34.7978],[22.3942,34.7947],[22.3948,34.7932]],[[22.4622,34.7911],[22.4622,34.7922],[22.462,34.7943],[22.462,34.7943],[22.4622,34.7922],[22.4622,34.7911]],[[22.9263,34.7724],[22.9213,34.775],[22.9112,34.7802],[22.9084,34.7841],[22.9128,34.7867],[22.9137,34.7888],[22.9112,34.7904],[22.9044,34.7899],[22.8933,34.7872],[22.8897,34.7833],[22.8934,34.778],[22.8956,34.7777],[22.8961,34.7823],[22.9039,34.7815],[22.9188,34.7754],[22.9263,34.7724]],[[22.3315,34.7328],[22.3316,34.7339],[22.3317,34.7362],[22.3317,34.7362],[22.3316,34.7339],[22.3315,34.7328]],[[22.3444,34.7016],[22.3431,34.7026],[22.3407,34.7047],[22.3407,34.7047],[22.3431,34.7026],[22.3444,34.7016]],[[22.3205,34.6724],[22.3198,34.6732],[22.3183,34.6747],[22.3183,34.6747],[22.3198,34.6732],[22.3205,34.6724]],[[22.0637,34.6766],[22.0672,34.677],[22.0741,34.6777],[22.0805,34.6759],[22.0862,34.6717],[22.0972,34.6679],[22.1133,34.6646],[22.1329,34.6572],[22.1557,34.6457],[22.1732,34.6448],[22.1851,34.6544],[22.1973,34.6582],[22.2099,34.6563],[22.2208,34.6578],[22.2302,34.6628],[22.2386,34.6647],[22.2459,34.6636],[22.2524,34.6573],[22.2581,34.646],[22.2649,34.6377],[22.2728,34.6324],[22.2767,34.6261],[22.2768,34.6188],[22.2788,34.6138],[22.2829,34.6112],[22.2849,34.6099],[22.2849,34.6099],[22.2846,34.6123],[22.2839,34.617],[22.2868,34.6243],[22.2934,34.6342],[22.2962,34.6443],[22.2955,34.6547],[22.2973,34.6604],[22.3016,34.6615],[22.3027,34.6646],[22.3006,34.67],[22.3011,34.6715],[22.3042,34.6694],[22.3057,34.67],[22.3057,34.6733],[22.3081,34.6747],[22.3128,34.6741],[22.318,34.6761],[22.3237,34.6808],[22.3284,34.6823],[22.3321,34.6806],[22.3334,34.6814],[22.3323,34.6847],[22.3339,34.687],[22.3382,34.6884],[22.339,34.6957],[22.3363,34.709],[22.3318,34.7165],[22.3256,34.7184],[22.323,34.7203],[22.3241,34.7224],[22.3209,34.7268],[22.3134,34.7336],[22.3134,34.7373],[22.3207,34.7378],[22.3268,34.7417],[22.3317,34.749],[22.3325,34.7524],[22.3294,34.7519],[22.3288,34.7541],[22.3308,34.759],[22.3345,34.7593],[22.3398,34.7548],[22.34,34.7495],[22.3351,34.7432],[22.3345,34.7383],[22.3383,34.7346],[22.3425,34.7338],[22.3472,34.7358],[22.3519,34.7353],[22.3568,34.7322],[22.3591,34.7289],[22.359,34.7253],[22.3597,34.7254],[22.3612,34.7293],[22.3636,34.7283],[22.3667,34.7226],[22.3703,34.7209],[22.3745,34.7232],[22.3797,34.7221],[22.386,34.7178],[22.3896,34.7165],[22.3906,34.7184],[22.3884,34.7201],[22.3829,34.7216],[22.3813,34.7248],[22.3835,34.7295],[22.3828,34.7319],[22.3794,34.732],[22.3776,34.7339],[22.3777,34.7374],[22.3837,34.7409],[22.3956,34.7446],[22.3945,34.7453],[22.3804,34.7431],[22.3729,34.7436],[22.3718,34.7468],[22.3764,34.751],[22.3868,34.7563],[22.3908,34.7691],[22.3883,34.7894],[22.395,34.8008],[22.4107,34.8034],[22.4158,34.8093],[22.4105,34.8184],[22.4103,34.8221],[22.4153,34.8202],[22.4187,34.8169],[22.4205,34.8122],[22.4235,34.8111],[22.4276,34.8136],[22.4281,34.8121],[22.425,34.8066],[22.4276,34.8037],[22.4359,34.8034],[22.4383,34.8052],[22.4346,34.809],[22.4359,34.8112],[22.4422,34.8118],[22.4461,34.8095],[22.4476,34.8041],[22.4496,34.8065],[22.4521,34.8164],[22.4568,34.8249],[22.4637,34.8319],[22.4675,34.8338],[22.468,34.8307],[22.4658,34.8269],[22.4609,34.8225],[22.4601,34.8195],[22.4634,34.8179],[22.4673,34.8218],[22.4718,34.8312],[22.4756,34.8362],[22.479,34.8367],[22.4791,34.8378],[22.4761,34.8393],[22.4769,34.8406],[22.4814,34.8417],[22.4816,34.8437],[22.4776,34.8467],[22.4732,34.846],[22.4685,34.8417],[22.4672,34.8428],[22.4693,34.8493],[22.4656,34.8555],[22.4561,34.8612],[22.4563,34.8648],[22.4664,34.8661],[22.4714,34.8679],[22.4714,34.8704],[22.4732,34.8695],[22.4768,34.8652],[22.4757,34.868],[22.4698,34.8779],[22.469,34.8828],[22.4733,34.8828],[22.4759,34.8859],[22.477,34.892],[22.4793,34.8923],[22.4828,34.8867],[22.4853,34.8852],[22.487,34.8878],[22.486,34.8917],[22.4823,34.8969],[22.4831,34.8972],[22.4885,34.8925],[22.4955,34.8899],[22.5045,34.8894],[22.5144,34.8907],[22.5253,34.894],[22.5323,34.8977],[22.5354,34.9016],[22.5385,34.9006],[22.5416,34.8946],[22.5442,34.8925],[22.5464,34.8944],[22.5462,34.8971],[22.5438,34.9008],[22.5443,34.9039],[22.5478,34.9067],[22.549,34.9048],[22.5479,34.8985],[22.549,34.8942],[22.552,34.892],[22.5546,34.8925],[22.5567,34.8958],[22.5562,34.8982],[22.5532,34.8997],[22.5532,34.9019],[22.5563,34.9047],[22.5591,34.9038],[22.5617,34.8993],[22.5647,34.8989],[22.5682,34.9028],[22.5713,34.9036],[22.5741,34.9015],[22.5773,34.9022],[22.581,34.9057],[22.5865,34.9063],[22.5938,34.9042],[22.5979,34.9044],[22.599,34.9069],[22.6039,34.9082],[22.6128,34.9082],[22.618,34.9103],[22.6195,34.9144],[22.6232,34.9159],[22.6289,34.9148],[22.6279,34.9168],[22.6203,34.922],[22.6195,34.9245],[22.6255,34.9245],[22.6351,34.9285],[22.6482,34.9365],[22.6633,34.9403],[22.6805,34.9398],[22.6918,34.9373],[22.697,34.9329],[22.6999,34.9279],[22.7005,34.9222],[22.7048,34.9202],[22.7131,34.922],[22.7154,34.9198],[22.7117,34.9137],[22.712,34.91],[22.7161,34.9089],[22.7187,34.9101],[22.7198,34.9136],[22.7214,34.913],[22.7235,34.9084],[22.7276,34.9049],[22.7339,34.9025],[22.7392,34.9024],[22.7436,34.9046],[22.7477,34.9028],[22.7516,34.8969],[22.7557,34.8951],[22.7599,34.8974],[22.7627,34.8975],[22.764,34.8954],[22.7633,34.8933],[22.7604,34.8912],[22.7612,34.8904],[22.7658,34.8909],[22.7668,34.8899],[22.7643,34.8875],[22.7646,34.8874],[22.7677,34.8895],[22.769,34.8889],[22.7685,34.8855],[22.7719,34.8837],[22.7792,34.8832],[22.7832,34.8811],[22.7839,34.8774],[22.7941,34.8716],[22.8136,34.8638],[22.8237,34.8573],[22.8244,34.8521],[22.8274,34.8495],[22.8327,34.8495],[22.8363,34.8479],[22.8382,34.8447],[22.8435,34.8445],[22.8524,34.8472],[22.8578,34.8472],[22.8599,34.8446],[22.8627,34.845],[22.8664,34.8485],[22.8704,34.8493],[22.8748,34.8474],[22.874,34.8522],[22.8681,34.8637],[22.8703,34.8641],[22.8808,34.8537],[22.8855,34.856],[22.8844,34.8712],[22.8857,34.877],[22.8892,34.8733],[22.8913,34.8654],[22.892,34.8534],[22.8984,34.8318],[22.9107,34.8005],[22.9201,34.7836],[22.9266,34.781],[22.9303,34.7776],[22.9313,34.7733],[22.9404,34.7701],[22.9575,34.7682],[22.9678,34.7698],[22.9712,34.775],[22.9717,34.7805],[22.9692,34.7862],[22.9715,34.7964],[22.9786,34.8109],[22.9769,34.8104],[22.9662,34.7949],[22.9631,34.7928],[22.9674,34.8042],[22.9666,34.8087],[22.9607,34.8063],[22.9564,34.8081],[22.9537,34.8142],[22.9538,34.8177],[22.9568,34.8188],[22.9582,34.8214],[22.9579,34.8255],[22.955,34.8263],[22.9495,34.8237],[22.9499,34.8268],[22.9563,34.8357],[22.9575,34.8415],[22.9536,34.8443],[22.9463,34.8451],[22.9356,34.8438],[22.9337,34.8457],[22.9408,34.8506],[22.9474,34.8527],[22.9535,34.852],[22.9632,34.8481],[22.9763,34.8412],[22.9859,34.8379],[22.9922,34.8383],[22.9953,34.8385]],[[22.7703,34.9417],[22.7689,34.9421],[22.766,34.9428],[22.766,34.9428],[22.7689,34.9421],[22.7703,34.9417]],[[22.7599,34.9402],[22.7586,34.9409],[22.7562,34.9425],[22.7562,34.9425],[22.7586,34.9409],[22.7599,34.9402]],[[22.8057,34.9407],[22.8044,34.9413],[22.8018,34.9424],[22.8018,34.9424],[22.8044,34.9413],[22.8057,34.9407]],[[22.7911,34.9348],[22.7868,34.9364],[22.7781,34.9395],[22.7781,34.9395],[22.7868,34.9364],[22.7911,34.9348]],[[22.6099,34.9336],[22.611,34.9347],[22.6131,34.9369],[22.6131,34.9369],[22.611,34.9347],[22.6099,34.9336]],[[22.6391,34.9335],[22.6356,34.9341],[22.6287,34.9353],[22.6297,34.937],[22.6387,34.9392],[22.6422,34.9386],[22.6401,34.9352],[22.6391,34.9335]],[[22.8005,34.9333],[22.799,34.9337],[22.7959,34.9345],[22.7959,34.9345],[22.799,34.9337],[22.8005,34.9333]],[[22.6255,34.9278],[22.6233,34.9283],[22.6188,34.9292],[22.619,34.9303],[22.6241,34.9316],[22.6263,34.9311],[22.6258,34.9289],[22.6255,34.9278]],[[22.8151,34.9274],[22.8136,34.928],[22.8107,34.9291],[22.8107,34.9291],[22.8136,34.928],[22.8151,34.9274]],[[22.7859,34.9263],[22.7803,34.9298],[22.7691,34.9367],[22.7658,34.9404],[22.7704,34.9409],[22.776,34.9374],[22.7826,34.93],[22.7859,34.9263]],[[22.8161,34.9201],[22.8127,34.9212],[22.8061,34.9234],[22.8061,34.9234],[22.8127,34.9212],[22.8161,34.9201]],[[22.7349,34.9084],[22.7338,34.9088],[22.7317,34.9095],[22.7317,34.9095],[22.7338,34.9088],[22.7349,34.9084]],[[22.5245,34.9064],[22.5253,34.9075],[22.5268,34.9098],[22.5268,34.9098],[22.5253,34.9075],[22.5245,34.9064]],[[22.462,34.891],[22.4614,34.8921],[22.4603,34.8942],[22.4603,34.8942],[22.4614,34.8921],[22.462,34.891]],[[22.4255,34.8734],[22.425,34.8747],[22.4239,34.8774],[22.4239,34.8774],[22.425,34.8747],[22.4255,34.8734]],[[22.4526,34.8722],[22.4487,34.8738],[22.4409,34.877],[22.4394,34.8803],[22.4441,34.8837],[22.4493,34.8844],[22.455,34.8823],[22.4589,34.8824],[22.4609,34.8845],[22.4624,34.8835],[22.4634,34.8796],[22.461,34.8763],[22.4554,34.8736],[22.4526,34.8722]],[[22.4693,34.8695],[22.4675,34.8712],[22.4638,34.8745],[22.4635,34.8763],[22.4665,34.8765],[22.4683,34.8748],[22.469,34.8713],[22.4693,34.8695]],[[22.3984,34.8534],[22.3987,34.8545],[22.3992,34.8566],[22.3992,34.8566],[22.3987,34.8545],[22.3984,34.8534]],[[22.9286,34.8495],[22.9266,34.8516],[22.9226,34.8557],[22.925,34.8562],[22.9339,34.8532],[22.9359,34.8511],[22.931,34.85],[22.9286,34.8495]],[[22.4589,34.8429],[22.4576,34.8446],[22.4549,34.8481],[22.4518,34.8489],[22.4482,34.8469],[22.4474,34.8466],[22.4493,34.8478],[22.4484,34.85],[22.4449,34.8531],[22.4468,34.8543],[22.4541,34.8536],[22.4581,34.8506],[22.4586,34.8455],[22.4589,34.8429]],[[22.3286,34.8404],[22.3276,34.8419],[22.3255,34.8448],[22.3255,34.8448],[22.3276,34.8419],[22.3286,34.8404]],[[22.4693,34.8389],[22.4701,34.8397],[22.4716,34.8412],[22.4716,34.8412],[22.4701,34.8397],[22.4693,34.8389]],[[22.937,34.8324],[22.9382,34.8336],[22.9405,34.8359],[22.9405,34.8359],[22.9382,34.8336],[22.937,34.8324]],[[22.4516,34.8291],[22.4506,34.8301],[22.4484,34.8323],[22.4484,34.8323],[22.4506,34.8301],[22.4516,34.8291]],[[22.3943,34.8241],[22.3931,34.8245],[22.3908,34.8251],[22.3908,34.8251],[22.3931,34.8245],[22.3943,34.8241]],[[22.3984,34.8221],[22.3984,34.8232],[22.3984,34.8253],[22.3984,34.8253],[22.3984,34.8232],[22.3984,34.8221]],[[22.3464,34.8161],[22.3421,34.8187],[22.3337,34.824],[22.3331,34.8258],[22.3406,34.8242],[22.3448,34.8216],[22.3459,34.8179],[22.3464,34.8161]],[[22.3745,34.8161],[22.3733,34.8169],[22.3708,34.8185],[22.3708,34.8185],[22.3733,34.8169],[22.3745,34.8161]],[[22.4276,34.8152],[22.4261,34.8157],[22.4232,34.8167],[22.4232,34.8181],[22.4261,34.8198],[22.4276,34.8192],[22.4276,34.8165],[22.4276,34.8152]],[[22.4359,34.8159],[22.4347,34.8168],[22.4324,34.8185],[22.4329,34.8205],[22.4363,34.8228],[22.4375,34.822],[22.4364,34.8179],[22.4359,34.8159]],[[22.4401,34.8127],[22.4438,34.8167],[22.4513,34.8246],[22.4513,34.8246],[22.4438,34.8167],[22.4401,34.8127]],[[22.937,34.8129],[22.9388,34.8157],[22.9425,34.8214],[22.9425,34.8214],[22.9388,34.8157],[22.937,34.8129]],[[22.3411,34.8075],[22.3411,34.8091],[22.3411,34.8122],[22.3411,34.8122],[22.3411,34.8091],[22.3411,34.8075]],[[22.4005,34.8057],[22.4,34.8071],[22.3989,34.8099],[22.3989,34.8099],[22.4,34.8071],[22.4005,34.8057]],[[22.9495,34.8065],[22.9504,34.8071],[22.9522,34.8083],[22.9522,34.8083],[22.9504,34.8071],[22.9495,34.8065]],[[22.9484,34.7994],[22.9492,34.8004],[22.9508,34.8024],[22.9508,34.8024],[22.9492,34.8004],[22.9484,34.7994]],[[22.3807,34.7909],[22.3781,34.7929],[22.3729,34.7968],[22.3653,34.7969],[22.3552,34.793],[22.3541,34.7935],[22.362,34.7982],[22.3636,34.8008],[22.3587,34.8013],[22.3549,34.805],[22.3522,34.8117],[22.3541,34.8157],[22.3608,34.8168],[22.3667,34.8152],[22.3719,34.8108],[22.3755,34.811],[22.3776,34.8157],[22.3801,34.8174],[22.383,34.8159],[22.3858,34.8122],[22.3886,34.8065],[22.3876,34.8004],[22.383,34.7941],[22.3807,34.7909]],[[22.3286,34.7846],[22.3275,34.7852],[22.3254,34.7864],[22.3262,34.787],[22.33,34.787],[22.3311,34.7864],[22.3294,34.7852],[22.3286,34.7846]],[[22.9547,34.7849],[22.9542,34.7864],[22.9531,34.7893],[22.9531,34.7893],[22.9542,34.7864],[22.9547,34.7849]],[[22.3745,34.7789],[22.3753,34.7799],[22.3768,34.7819],[22.3768,34.7819],[22.3753,34.7799],[22.3745,34.7789]],[[22.3536,34.7658],[22.351,34.7678],[22.3458,34.7718],[22.3458,34.7718],[22.351,34.7678],[22.3536,34.7658]],[[22.3703,34.7647],[22.3701,34.7665],[22.3696,34.7703],[22.3714,34.7718],[22.3755,34.771],[22.3793,34.7729],[22.3826,34.7775],[22.3839,34.7777],[22.3832,34.7736],[22.3797,34.7698],[22.3734,34.7664],[22.3703,34.7647]],[[22.3193,34.7209],[22.3172,34.7213],[22.3129,34.722],[22.3129,34.722],[22.3172,34.7213],[22.3193,34.7209]],[[22.2818,34.6311],[22.2813,34.6323],[22.2802,34.6347],[22.2802,34.6347],[22.2813,34.6323],[22.2818,34.6311]],[[22.2634,34.5953],[22.2671,34.5974],[22.2744,34.6015],[22.2787,34.6052],[22.2799,34.6083],[22.279,34.6116],[22.276,34.6149],[22.2717,34.6113],[22.2662,34.6006],[22.2634,34.5953]],[[22.2574,34.5818],[22.2578,34.5831],[22.2585,34.5857],[22.2565,34.5875],[22.2517,34.5886],[22.2494,34.5874],[22.2495,34.5841],[22.2515,34.5823],[22.2554,34.582],[22.2574,34.5818]],[[22.2924,34.462],[22.291,34.4636],[22.2883,34.4667],[22.2847,34.4679],[22.28,34.4672],[22.2778,34.4682],[22.2781,34.471],[22.2755,34.4741],[22.27,34.4774],[22.2651,34.4787],[22.2611,34.478],[22.2603,34.4751],[22.2628,34.4701],[22.2712,34.4662],[22.2853,34.4634],[22.2924,34.462]],[[22.3387,34.4266],[22.3417,34.4279],[22.3477,34.4305],[22.3415,34.4379],[22.3233,34.45],[22.3179,34.4497],[22.3256,34.437],[22.3317,34.4297],[22.3364,34.4276],[22.3387,34.4266]],[[22.4176,34.4078],[22.4193,34.4099],[22.4227,34.414],[22.4192,34.4178],[22.4088,34.4211],[22.4071,34.419],[22.4141,34.4115],[22.4176,34.4078]],[[22.5369,34.3234],[22.5377,34.3245],[22.5394,34.3266],[22.5325,34.331],[22.5172,34.3377],[22.4968,34.3541],[22.4716,34.3803],[22.4562,34.3925],[22.4507,34.3909],[22.4439,34.3942],[22.4358,34.4023],[22.4303,34.4062],[22.4271,34.4059],[22.4285,34.4023],[22.4345,34.3956],[22.436,34.3891],[22.4332,34.3828],[22.4396,34.3726],[22.4552,34.3584],[22.4664,34.3509],[22.4732,34.35],[22.4849,34.3436],[22.5016,34.3317],[22.5166,34.3252],[22.5302,34.324],[22.5369,34.3234]],[[22.6803,34.2995],[22.6821,34.3005],[22.6858,34.3026],[22.6676,34.3107],[22.6278,34.3248],[22.6055,34.3306],[22.6008,34.3282],[22.5875,34.3284],[22.5656,34.3311],[22.5536,34.3304],[22.5514,34.3265],[22.5743,34.3214],[22.6224,34.3151],[22.6549,34.3089],[22.6718,34.3026],[22.6803,34.2995]]]}}]}