{"type":"FeatureCollection","features":[{"type":"Feature","properties":{"depth":5,"kind":"band"},"geometry":{"type":"MultiPolygon","coordinates":[[[[23,35.0005],[23,35.9995],[22.9995,36],[22.0005,36],[22,35.9995],[22,35.0005],[22.0005,35],[22.9995,35],[23,35.0005]]]]}},{"type":"Feature","properties":{"depth":10,"kind":"band"},"geometry":{"type":"MultiPolygon","coordinates":[[[[23,35.0005],[23,35.9995],[22.9995,36],[22.0005,36],[22,35.9995],[22,35.0005],[22.0005,35],[22.9995,35],[23,35.0005]]]]}},{"type":"Feature","properties":{"depth":20,"kind":"band"},"geometry":{"type":"MultiPolygon","coordinates":[[[[23,35.0005],[23,35.9995],[22.9995,36],[22.0005,36],[22,35.9995],[22,35.0005],[22.0005,35],[22.9995,35],[23,35.0005]]]]}},{"type":"Feature","properties":{"depth":30,"kind":"band"},"geometry":{"type":"MultiPolygon","coordinates":[[[[23,35.0005],[23,35.9995],[22.9995,36],[22.0005,36],[22,35.9995],[22,35.0005],[22.0005,35],[22.9995,35],[23,35.0005]]]]}},{"type":"Feature","properties":{"depth":40,"kind":"band"},"geometry":{"type":"MultiPolygon","coordinates":[[[[23,35.0005],[23,35.9995],[22.9995,36],[22.0005,36],[22,35.9995],[22,35.0005],[22.0005,35],[22.9995,35],[23,35.0005]]]]}},{"type":"Feature","properties":{"depth":50,"kind":"band"},"geometry":{"type":"MultiPolygon","coordinates":[[[[23,35.0005],[23,35.9995],[22.9995,36],[22.0005,36],[22,35.9995],[22,35.0005],[22.0005,35],[22.9995,35],[23,35.0005]]]]}},{"type":"Feature","properties":{"depth":75,"kind":"band"},"geometry":{"type":"MultiPolygon","coordinates":[[[[23,35.0005],[23,35.9995],[22.9995,36],[22.0005,36],[22,35.9995],[22,35.0005],[22.0005,35],[22.9995,35],[23,35.0005]]]]}},{"type":"Feature","properties":{"depth":100,"kind":"band"},"geometry":{"type":"MultiPolygon","coordinates":[[[[23,35.0005],[23,35.9995],[22.9995,36],[22.0005,36],[22,35.9995],[22,35.0005],[22.0005,35],[22.9995,35],[23,35.0005]]]]}},{"type":"Feature","properties":{"depth":150,"kind":"band"},"geometry":{"type":"MultiPolygon","coordinates":[[[[23,35.0005],[23,35.9995],[22.9995,36],[22.8453,36],[22.8432,35.9994],[22.8424,35.9995],[22.8422,36],[22.0005,36],[22,35.9995],[22,35.0005],[22.0005,35],[22.9995,35],[23,35.0005]]]]}},{"type":"Feature","properties":{"depth":150,"kind":"isobath"},"geometry":{"type":"MultiLineString","coordinates":[[[22.8432,35.9994],[22.8424,35.9995]]]}},{"type":"Feature","properties":{"depth":200,"kind":"band"},"geometry":{"type":"MultiPolygon","coordinates":[[[[23,35.0005],[23,35.9995],[22.9995,36],[22.8505,36],[22.8474,35.9974],[22.8432,35.9965],[22.8391,35.9976],[22.8359,36],[22.0005,36],[22,35.9995],[22,35.0005],[22.0005,35],[22.9995,35],[23,35.0005]]]]}},{"type":"Feature","properties":{"depth":200,"kind":"isobath"},"geometry":{"type":"MultiLineString","coordinates":[[[22.8474,35.9974],[22.8432,35.9965],[22.8391,35.9976]]]}}]}