{"type":"FeatureCollection","features":[{"type":"Feature","properties":{"depth":5,"kind":"band"},"geometry":{"type":"MultiPolygon","coordinates":[[[[23.9982,34.937],[23.9979,34.937],[23.9979,34.937],[23.9982,34.937],[23.9984,34.937],[23.9984,34.937],[23.9982,34.937]]],[[[24,34.2318],[24,34.6942],[23.9999,34.9257],[23.9996,34.9261],[23.9992,34.9258],[23.9987,34.925],[23.9982,34.9248],[23.9977,34.9253],[23.9979,34.9258],[23.9987,34.9263],[23.9989,34.9269],[23.9985,34.9273],[23.9978,34.9273],[23.9969,34.9269],[23.9958,34.9269],[23.9945,34.9273],[23.9937,34.9279],[23.9934,34.9284],[23.9937,34.9289],[23.9946,34.9294],[23.9946,34.9302],[23.9937,34.9313],[23.993,34.9315],[23.9925,34.931],[23.9919,34.931],[23.9914,34.9315],[23.9914,34.9323],[23.9919,34.9334],[23.9915,34.9336],[23.9902,34.9331],[23.9894,34.9331],[23.9892,34.9336],[23.9893,34.9342],[23.9899,34.9347],[23.9896,34.936],[23.9885,34.9381],[23.9885,34.9396],[23.9896,34.9406],[23.9912,34.9406],[23.9933,34.9396],[23.9951,34.9394],[23.9966,34.9399],[23.9981,34.9396],[23.9994,34.9385],[23.9999,34.9535],[23.9996,34.9845],[23.7496,34.9999],[23.2499,34.9996],[23.0001,34.7496],[23.0004,34.2499],[23.2504,34.0001],[23.7501,34.0004],[24,34.0005],[24,34.0005],[24,34.2318]]]]}},{"type":"Feature","properties":{"depth":5,"kind":"isobath"},"geometry":{"type":"MultiLineString","coordinates":[[[23.9984,34.937],[23.9982,34.937],[23.9979,34.937],[23.9979,34.937],[23.9982,34.937],[23.9984,34.937]],[[23.9995,34.9263],[23.9992,34.9258],[23.9987,34.925],[23.9982,34.9248],[23.9977,34.9253],[23.9979,34.9258],[23.9987,34.9263],[23.9989,34.9269],[23.9985,34.9273],[23.9978,34.9273],[23.9969,34.9269],[23.9958,34.9269],[23.9945,34.9273],[23.9937,34.9279],[23.9934,34.9284],[23.9937,34.9289],[23.9946,34.9294],[23.9946,34.9302],[23.9937,34.9313],[23.993,34.9315],[23.9925,34.931],[23.9919,34.931],[23.9914,34.9315],[23.9914,34.9323],[23.9919,34.9334],[23.9915,34.9336],[23.9902,34.9331],[23.9894,34.9331],[23.9892,34.9336],[23.9893,34.9342],[23.9899,34.9347],[23.9896,34.936],[23.9885,34.9381],[23.9885,34.9396],[23.9896,34.9406],[23.9912,34.9406],[23.9933,34.9396],[23.9951,34.9394],[23.9966,34.9399],[23.9974,34.9401]]]}},{"type":"Feature","properties":{"depth":10,"kind":"band"},"geometry":{"type":"MultiPolygon","coordinates":[[[[23.9919,34.9339],[23.9914,34.9339],[23.9911,34.9337],[23.9911,34.9332],[23.9914,34.9332],[23.9919,34.9337],[23.9922,34.9339],[23.9922,34.9339],[23.9919,34.9339]]],[[[24,34.2318],[24,34.6942],[23.9999,34.9256],[23.9996,34.9259],[23.9992,34.9256],[23.9987,34.9247],[23.9982,34.9244],[23.9978,34.9245],[23.9975,34.9248],[23.9975,34.9253],[23.9978,34.9258],[23.9985,34.9263],[23.9987,34.9269],[23.9982,34.9273],[23.9974,34.9273],[23.9963,34.9269],[23.9959,34.9262],[23.9962,34.9256],[23.9954,34.9258],[23.9933,34.9271],[23.9922,34.928],[23.9922,34.9286],[23.9929,34.9291],[23.9942,34.9295],[23.9944,34.9302],[23.9936,34.9313],[23.993,34.9315],[23.9925,34.931],[23.9914,34.931],[23.9899,34.9315],[23.9891,34.9322],[23.9891,34.9334],[23.9893,34.9342],[23.9899,34.9347],[23.9896,34.936],[23.9885,34.9381],[23.9885,34.9396],[23.9896,34.9406],[23.9912,34.9406],[23.9933,34.9396],[23.9951,34.9395],[23.9966,34.9403],[23.9981,34.9403],[23.9994,34.9395],[23.9999,34.9543],[23.9996,34.9848],[23.7496,34.9999],[23.2499,34.9996],[23.0001,34.7496],[23.0004,34.2499],[23.2504,34.0001],[23.7501,34.0004],[24,34.0005],[24,34.0005],[24,34.2318]]]]}},{"type":"Feature","properties":{"depth":10,"kind":"isobath"},"geometry":{"type":"MultiLineString","coordinates":[[[23.9922,34.9339],[23.9919,34.9339],[23.9914,34.9339],[23.9911,34.9337],[23.9911,34.9332],[23.9914,34.9332],[23.9919,34.9337],[23.9922,34.9339]],[[23.9995,34.926],[23.9992,34.9256],[23.9987,34.9247],[23.9982,34.9244],[23.9978,34.9245],[23.9975,34.9248],[23.9975,34.9253],[23.9978,34.9258],[23.9985,34.9263],[23.9987,34.9269],[23.9982,34.9273],[23.9974,34.9273],[23.9963,34.9269],[23.9959,34.9262],[23.9962,34.9256],[23.9954,34.9258],[23.9933,34.9271],[23.9922,34.928],[23.9922,34.9286],[23.9929,34.9291],[23.9942,34.9295],[23.9944,34.9302],[23.9936,34.9313],[23.993,34.9315],[23.9925,34.931],[23.9914,34.931],[23.9899,34.9315],[23.9891,34.9322],[23.9891,34.9334],[23.9893,34.9342],[23.9899,34.9347],[23.9896,34.936],[23.9885,34.9381],[23.9885,34.9396],[23.9896,34.9406],[23.9912,34.9406],[23.9933,34.9396],[23.9951,34.9395],[23.9966,34.9403],[23.9974,34.9407]]]}},{"type":"Feature","properties":{"depth":15,"kind":"band"},"geometry":{"type":"MultiPolygon","coordinates":[[[[23.9919,34.9338],[23.9914,34.9337],[23.9914,34.9337],[23.9919,34.9338],[23.9922,34.9339],[23.9922,34.9339],[23.9919,34.9338]]],[[[23.9942,34.9302],[23.9935,34.9313],[23.9928,34.9313],[23.9919,34.9302],[23.9922,34.9297],[23.9937,34.9297],[23.9945,34.9297],[23.9945,34.9297],[23.9942,34.9302]]],[[[23.9983,34.9269],[23.9977,34.9273],[23.9972,34.9273],[23.9969,34.9269],[23.9969,34.9264],[23.9972,34.9261],[23.9977,34.9261],[23.9983,34.9264],[23.9986,34.9266],[23.9986,34.9266],[23.9983,34.9269]]],[[[23.9999,34.9248],[23.9996,34.9254],[23.9995,34.9252],[23.9995,34.9243],[23.9996,34.924],[23.9999,34.9243],[24,34.9245],[24,34.9245],[23.9999,34.9248]]],[[[24,34.231],[24,34.6919],[23.9988,34.9229],[23.9965,34.924],[23.9951,34.9249],[23.9946,34.9256],[23.9938,34.9258],[23.9927,34.9257],[23.9919,34.9266],[23.9914,34.9286],[23.9908,34.9298],[23.9904,34.9304],[23.9897,34.9307],[23.9889,34.9307],[23.9883,34.9315],[23.9878,34.9331],[23.9882,34.9342],[23.9895,34.9347],[23.9897,34.9352],[23.9888,34.9356],[23.9883,34.9367],[23.9881,34.9383],[23.9883,34.9395],[23.9888,34.9404],[23.9896,34.9409],[23.9906,34.941],[23.992,34.9405],[23.9937,34.9396],[23.9947,34.9391],[23.9951,34.9391],[23.9953,34.9396],[23.9954,34.9406],[23.9956,34.9412],[23.9962,34.9413],[23.9973,34.9411],[23.9991,34.9404],[23.9999,34.9551],[23.9996,34.985],[23.7496,34.9999],[23.2499,34.9996],[23.0001,34.7496],[23.0004,34.2499],[23.2504,34.0001],[23.7501,34.0004],[24,34.0005],[24,34.0005],[24,34.231]]]]}},{"type":"Feature","properties":{"depth":15,"kind":"isobath"},"geometry":{"type":"MultiLineString","coordinates":[[[23.9922,34.9339],[23.9919,34.9338],[23.9914,34.9337],[23.9914,34.9337],[23.9919,34.9338],[23.9922,34.9339]],[[23.9945,34.9297],[23.9942,34.9302],[23.9935,34.9313],[23.9928,34.9313],[23.9919,34.9302],[23.9922,34.9297],[23.9937,34.9297],[23.9945,34.9297]],[[23.9986,34.9266],[23.9983,34.9269],[23.9977,34.9273],[23.9972,34.9273],[23.9969,34.9269],[23.9969,34.9264],[23.9972,34.9261],[23.9977,34.9261],[23.9983,34.9264],[23.9986,34.9266]],[[23.9995,34.9257],[23.9995,34.9238]],[[23.9953,34.9245],[23.9951,34.9249],[23.9946,34.9256],[23.9938,34.9258],[23.9927,34.9257],[23.9919,34.9266],[23.9914,34.9286],[23.9908,34.9298],[23.9904,34.9304],[23.9897,34.9307],[23.9889,34.9307],[23.9883,34.9315],[23.9878,34.9331],[23.9882,34.9342],[23.9895,34.9347],[23.9897,34.9352],[23.9888,34.9356],[23.9883,34.9367],[23.9881,34.9383],[23.9883,34.9395],[23.9888,34.9404],[23.9896,34.9409],[23.9906,34.941],[23.992,34.9405],[23.9937,34.9396],[23.9947,34.9391],[23.9951,34.9391],[23.9953,34.9396],[23.9954,34.9406],[23.9956,34.9412],[23.9962,34.9413],[23.9964,34.9414]]]}},{"type":"Feature","properties":{"depth":20,"kind":"band"},"geometry":{"type":"MultiPolygon","coordinates":[[[[24,34.2305],[24,34.6903],[23.9999,34.9205],[23.9996,34.9209],[23.9992,34.921],[23.9987,34.9208],[23.9979,34.9213],[23.9969,34.9225],[23.9961,34.923],[23.9956,34.923],[23.9951,34.9234],[23.9946,34.9243],[23.9935,34.9248],[23.9919,34.9248],[23.9908,34.9253],[23.9903,34.9262],[23.9903,34.9271],[23.9907,34.9281],[23.9908,34.9289],[23.9903,34.9295],[23.9896,34.9297],[23.9885,34.9296],[23.9878,34.9298],[23.9875,34.9304],[23.9875,34.9312],[23.9878,34.9323],[23.9877,34.9331],[23.9873,34.9336],[23.9869,34.9349],[23.9866,34.937],[23.9866,34.9388],[23.9867,34.9403],[23.9871,34.9414],[23.9877,34.9419],[23.9901,34.9422],[23.9943,34.9422],[23.9972,34.942],[23.9987,34.9415],[23.9996,34.9415],[23.9999,34.942],[23.9999,34.9566],[23.9996,34.9856],[23.7496,34.9999],[23.2499,34.9996],[23.0001,34.7496],[23.0004,34.2499],[23.2504,34.0001],[23.7501,34.0004],[24,34.0005],[24,34.0005],[24,34.2305]]]]}},{"type":"Feature","properties":{"depth":20,"kind":"isobath"},"geometry":{"type":"MultiLineString","coordinates":[[[23.9995,34.9211],[23.9992,34.921],[23.9987,34.9208],[23.9979,34.9213],[23.9969,34.9225],[23.9961,34.923],[23.9956,34.923],[23.9951,34.9234],[23.9946,34.9243],[23.9935,34.9248],[23.9919,34.9248],[23.9908,34.9253],[23.9903,34.9262],[23.9903,34.9271],[23.9907,34.9281],[23.9908,34.9289],[23.9903,34.9295],[23.9896,34.9297],[23.9885,34.9296],[23.9878,34.9298],[23.9875,34.9304],[23.9875,34.9312],[23.9878,34.9323],[23.9877,34.9331],[23.9873,34.9336],[23.9869,34.9349],[23.9866,34.937],[23.9866,34.9388],[23.9867,34.9403],[23.9871,34.9414],[23.9877,34.9419],[23.9901,34.9422],[23.9943,34.9422],[23.9972,34.942],[23.9987,34.9415],[23.9995,34.9413]]]}},{"type":"Feature","properties":{"depth":25,"kind":"band"},"geometry":{"type":"MultiPolygon","coordinates":[[[[24,34.2292],[24,34.6865],[23.9999,34.9154],[23.9996,34.9159],[23.9996,34.9169],[23.9999,34.9185],[23.9999,34.9195],[23.9996,34.92],[23.999,34.9201],[23.9979,34.9199],[23.9971,34.9202],[23.9967,34.9212],[23.9959,34.9215],[23.9948,34.9214],[23.9939,34.9219],[23.9932,34.9229],[23.9924,34.9234],[23.9915,34.9232],[23.9907,34.9235],[23.9899,34.9242],[23.9894,34.9255],[23.9893,34.9276],[23.9887,34.9286],[23.9876,34.9285],[23.9867,34.9287],[23.9862,34.9292],[23.9858,34.9316],[23.9855,34.9359],[23.9856,34.9388],[23.9859,34.9403],[23.9866,34.9415],[23.9875,34.9424],[23.9901,34.9429],[23.9943,34.9431],[23.9972,34.943],[23.9987,34.9425],[23.9996,34.9425],[23.9999,34.943],[23.9999,34.9574],[23.9996,34.9858],[23.7496,34.9999],[23.2499,34.9996],[23.0001,34.7496],[23.0004,34.2499],[23.2504,34.0001],[23.7501,34.0004],[24,34.0005],[24,34.0005],[24,34.2292]]]]}},{"type":"Feature","properties":{"depth":25,"kind":"isobath"},"geometry":{"type":"MultiLineString","coordinates":[[[23.9995,34.9202],[23.999,34.9201],[23.9979,34.9199],[23.9971,34.9202],[23.9967,34.9212],[23.9959,34.9215],[23.9948,34.9214],[23.9939,34.9219],[23.9932,34.9229],[23.9924,34.9234],[23.9915,34.9232],[23.9907,34.9235],[23.9899,34.9242],[23.9894,34.9255],[23.9893,34.9276],[23.9887,34.9286],[23.9876,34.9285],[23.9867,34.9287],[23.9862,34.9292],[23.9858,34.9316],[23.9855,34.9359],[23.9856,34.9388],[23.9859,34.9403],[23.9866,34.9415],[23.9875,34.9424],[23.9901,34.9429],[23.9943,34.9431],[23.9972,34.943],[23.9987,34.9425],[23.9995,34.9423]]]}},{"type":"Feature","properties":{"depth":30,"kind":"band"},"geometry":{"type":"MultiPolygon","coordinates":[[[[23.9881,34.9274],[23.9881,34.9269],[23.9881,34.9269],[23.9881,34.9274],[23.9882,34.9276],[23.9882,34.9276],[23.9881,34.9274]]],[[[24,34.2286],[24,34.6849],[23.9996,34.9135],[23.9989,34.9146],[23.9985,34.9159],[23.9984,34.9174],[23.9979,34.9183],[23.9969,34.9186],[23.9959,34.9192],[23.9948,34.9201],[23.994,34.9205],[23.9935,34.9202],[23.9928,34.9206],[23.992,34.9218],[23.991,34.9224],[23.9897,34.9224],[23.9888,34.9229],[23.9882,34.924],[23.9879,34.925],[23.988,34.926],[23.9872,34.9269],[23.9857,34.9277],[23.9847,34.9303],[23.9843,34.9348],[23.9843,34.938],[23.9847,34.9401],[23.9854,34.9416],[23.9865,34.9425],[23.9888,34.9431],[23.9925,34.9432],[23.9948,34.9435],[23.9959,34.944],[23.9972,34.944],[23.9987,34.9436],[23.9996,34.9436],[23.9999,34.9441],[23.9999,34.9582],[23.9996,34.9861],[23.7496,34.9999],[23.2499,34.9996],[23.0001,34.7496],[23.0004,34.2499],[23.2504,34.0001],[23.7501,34.0004],[24,34.0005],[24,34.0005],[24,34.2286]]]]}},{"type":"Feature","properties":{"depth":30,"kind":"isobath"},"geometry":{"type":"MultiLineString","coordinates":[[[23.9882,34.9276],[23.9881,34.9274],[23.9881,34.9269],[23.9881,34.9269],[23.9881,34.9274],[23.9882,34.9276]],[[23.9985,34.9151],[23.9985,34.9159],[23.9984,34.9174],[23.9979,34.9183],[23.9969,34.9186],[23.9959,34.9192],[23.9948,34.9201],[23.994,34.9205],[23.9935,34.9202],[23.9928,34.9206],[23.992,34.9218],[23.991,34.9224],[23.9897,34.9224],[23.9888,34.9229],[23.9882,34.924],[23.9879,34.925],[23.988,34.926],[23.9872,34.9269],[23.9857,34.9277],[23.9847,34.9303],[23.9843,34.9348],[23.9843,34.938],[23.9847,34.9401],[23.9854,34.9416],[23.9865,34.9425],[23.9888,34.9431],[23.9925,34.9432],[23.9948,34.9435],[23.9959,34.944],[23.9972,34.944],[23.9987,34.9436],[23.9995,34.9434]]]}},{"type":"Feature","properties":{"depth":40,"kind":"band"},"geometry":{"type":"MultiPolygon","coordinates":[[[[24,34.2281],[24,34.6833],[23.9994,34.9111],[23.9981,34.9114],[23.9969,34.9128],[23.9958,34.9151],[23.9951,34.9161],[23.9946,34.916],[23.994,34.9163],[23.9935,34.917],[23.9927,34.9173],[23.9916,34.9172],[23.9906,34.9178],[23.9896,34.9194],[23.9886,34.9201],[23.9875,34.9202],[23.9866,34.9213],[23.9857,34.9234],[23.9849,34.9245],[23.984,34.9245],[23.9833,34.9253],[23.9826,34.9268],[23.9824,34.9281],[23.9826,34.9292],[23.9823,34.9318],[23.9815,34.9359],[23.9814,34.9391],[23.982,34.9412],[23.983,34.9428],[23.9843,34.9441],[23.9867,34.9449],[23.9904,34.9453],[23.993,34.9454],[23.9945,34.9451],[23.9965,34.9454],[23.9988,34.9461],[23.9999,34.9598],[23.9996,34.9866],[23.7496,34.9999],[23.2499,34.9996],[23.0001,34.7496],[23.0004,34.2499],[23.2504,34.0001],[23.7501,34.0004],[24,34.0005],[24,34.0005],[24,34.2281]]]]}},{"type":"Feature","properties":{"depth":40,"kind":"isobath"},"geometry":{"type":"MultiLineString","coordinates":[[[23.9974,34.9116],[23.9969,34.9128],[23.9958,34.9151],[23.9951,34.9161],[23.9946,34.916],[23.994,34.9163],[23.9935,34.917],[23.9927,34.9173],[23.9916,34.9172],[23.9906,34.9178],[23.9896,34.9194],[23.9886,34.9201],[23.9875,34.9202],[23.9866,34.9213],[23.9857,34.9234],[23.9849,34.9245],[23.984,34.9245],[23.9833,34.9253],[23.9826,34.9268],[23.9824,34.9281],[23.9826,34.9292],[23.9823,34.9318],[23.9815,34.9359],[23.9814,34.9391],[23.982,34.9412],[23.983,34.9428],[23.9843,34.9441],[23.9867,34.9449],[23.9904,34.9453],[23.993,34.9454],[23.9945,34.9451],[23.9953,34.945]]]}},{"type":"Feature","properties":{"depth":50,"kind":"band"},"geometry":{"type":"MultiPolygon","coordinates":[[[[24,34.2273],[24,34.681],[23.9996,34.9081],[23.9988,34.9088],[23.9976,34.9092],[23.9961,34.9095],[23.995,34.9099],[23.9945,34.9106],[23.9942,34.9113],[23.9943,34.912],[23.9934,34.9128],[23.9915,34.9137],[23.9904,34.9144],[23.9902,34.9149],[23.9896,34.9153],[23.9885,34.9153],[23.9877,34.916],[23.9873,34.9171],[23.9867,34.9176],[23.9862,34.9175],[23.9854,34.9179],[23.9843,34.9188],[23.9838,34.9198],[23.9838,34.9209],[23.9831,34.9217],[23.9819,34.9222],[23.9809,34.9232],[23.9802,34.9247],[23.9793,34.9284],[23.9783,34.9341],[23.9783,34.9386],[23.9792,34.9416],[23.981,34.9443],[23.9836,34.9465],[23.9862,34.9474],[23.9888,34.9469],[23.9909,34.9469],[23.9924,34.9474],[23.994,34.9474],[23.9956,34.947],[23.9973,34.947],[23.9991,34.9473],[23.9999,34.9606],[23.9996,34.9869],[23.7496,34.9999],[23.2499,34.9996],[23.0001,34.7496],[23.0004,34.2499],[23.2504,34.0001],[23.7501,34.0004],[24,34.0005],[24,34.0005],[24,34.2273]]]]}},{"type":"Feature","properties":{"depth":50,"kind":"isobath"},"geometry":{"type":"MultiLineString","coordinates":[[[23.9984,34.9091],[23.9976,34.9092],[23.9961,34.9095],[23.995,34.9099],[23.9945,34.9106],[23.9942,34.9113],[23.9943,34.912],[23.9934,34.9128],[23.9915,34.9137],[23.9904,34.9144],[23.9902,34.9149],[23.9896,34.9153],[23.9885,34.9153],[23.9877,34.916],[23.9873,34.9171],[23.9867,34.9176],[23.9862,34.9175],[23.9854,34.9179],[23.9843,34.9188],[23.9838,34.9198],[23.9838,34.9209],[23.9831,34.9217],[23.9819,34.9222],[23.9809,34.9232],[23.9802,34.9247],[23.9793,34.9284],[23.9783,34.9341],[23.9783,34.9386],[23.9792,34.9416],[23.981,34.9443],[23.9836,34.9465],[23.9862,34.9474],[23.9888,34.9469],[23.9909,34.9469],[23.9924,34.9474],[23.994,34.9474],[23.9956,34.947],[23.9964,34.9468]]]}},{"type":"Feature","properties":{"depth":60,"kind":"band"},"geometry":{"type":"MultiPolygon","coordinates":[[[[24,34.2266],[24,34.6787],[23.9983,34.9055],[23.9948,34.907],[23.9895,34.9109],[23.9825,34.9172],[23.9779,34.9245],[23.9758,34.9328],[23.9754,34.9388],[23.9767,34.9425],[23.9789,34.9455],[23.9822,34.9479],[23.9879,34.9492],[23.996,34.9494],[23.9999,34.9621],[23.9996,34.9874],[23.7496,34.9999],[23.2499,34.9996],[23.0001,34.7496],[23.0004,34.2499],[23.2504,34.0001],[23.7501,34.0004],[24,34.0005],[24,34.0005],[24,34.2266]]]]}},{"type":"Feature","properties":{"depth":60,"kind":"isobath"},"geometry":{"type":"MultiLineString","coordinates":[[[23.993,34.9078],[23.9895,34.9109],[23.9825,34.9172],[23.9779,34.9245],[23.9758,34.9328],[23.9754,34.9388],[23.9767,34.9425],[23.9789,34.9455],[23.9822,34.9479],[23.9839,34.9491]]]}},{"type":"Feature","properties":{"depth":75,"kind":"band"},"geometry":{"type":"MultiPolygon","coordinates":[[[[24,34.2258],[24,34.6763],[23.9975,34.9022],[23.9926,34.9035],[23.987,34.9063],[23.9807,34.9106],[23.9769,34.9141],[23.9754,34.9168],[23.9736,34.9229],[23.9712,34.9323],[23.9707,34.9388],[23.9718,34.9425],[23.975,34.9463],[23.9802,34.9503],[23.9871,34.9521],[23.9957,34.9518],[23.9999,34.9637],[23.9996,34.9879],[23.7496,34.9999],[23.2499,34.9996],[23.0001,34.7496],[23.0004,34.2499],[23.2504,34.0001],[23.7501,34.0004],[24,34.0005],[24,34.0005],[24,34.2258]]]]}},{"type":"Feature","properties":{"depth":75,"kind":"isobath"},"geometry":{"type":"MultiLineString","coordinates":[[[23.9901,34.9041],[23.987,34.9063],[23.9807,34.9106],[23.9769,34.9141],[23.9754,34.9168],[23.9736,34.9229],[23.9712,34.9323],[23.9707,34.9388],[23.9718,34.9425],[23.975,34.9463],[23.9802,34.9503],[23.9828,34.9523]]]}},{"type":"Feature","properties":{"depth":100,"kind":"band"},"geometry":{"type":"MultiPolygon","coordinates":[[[[24,34.2237],[24,34.67],[23.9957,34.894],[23.9871,34.8956],[23.9803,34.8977],[23.9753,34.9003],[23.9675,34.9082],[23.9569,34.9213],[23.9509,34.9296],[23.9495,34.9331],[23.9493,34.936],[23.9502,34.9381],[23.9516,34.94],[23.9537,34.9419],[23.9584,34.9443],[23.9657,34.9474],[23.9701,34.9496],[23.9716,34.951],[23.975,34.9521],[23.9802,34.953],[23.9836,34.9539],[23.9851,34.9549],[23.9872,34.9553],[23.9898,34.955],[23.9933,34.9554],[23.9978,34.9563],[23.9999,34.9676],[23.9996,34.9892],[23.7496,34.9999],[23.2499,34.9996],[23.0001,34.7496],[23.0004,34.2499],[23.2504,34.0001],[23.7501,34.0004],[24,34.0005],[24,34.0005],[24,34.2237]]]]}},{"type":"Feature","properties":{"depth":100,"kind":"isobath"},"geometry":{"type":"MultiLineString","coordinates":[[[23.9828,34.8964],[23.9803,34.8977],[23.9753,34.9003],[23.9675,34.9082],[23.9569,34.9213],[23.9509,34.9296],[23.9495,34.9331],[23.9493,34.936],[23.9502,34.9381],[23.9516,34.94],[23.9537,34.9419],[23.9584,34.9443],[23.9657,34.9474],[23.9701,34.9496],[23.9716,34.951],[23.975,34.9521],[23.9802,34.953],[23.9836,34.9539],[23.9851,34.9549],[23.9872,34.9553],[23.9898,34.955],[23.9911,34.9549]]]}},{"type":"Feature","properties":{"depth":150,"kind":"band"},"geometry":{"type":"MultiPolygon","coordinates":[[[[23.9466,34.9728],[23.9465,34.9737],[23.9465,34.9737],[23.9466,34.9728],[23.9467,34.9724],[23.9467,34.9724],[23.9466,34.9728]]],[[[23.9823,34.9602],[23.982,34.961],[23.982,34.961],[23.9823,34.9602],[23.9824,34.9599],[23.9824,34.9599],[23.9823,34.9602]]],[[[23.9247,34.9328],[23.9241,34.9328],[23.9241,34.9328],[23.9247,34.9328],[23.9249,34.9328],[23.9249,34.9328],[23.9247,34.9328]]],[[[24,34.2159],[24,34.6466],[23.9972,34.8638],[23.9915,34.8675],[23.9876,34.8703],[23.9856,34.8724],[23.9833,34.876],[23.9807,34.8813],[23.9761,34.8863],[23.9694,34.8912],[23.955,34.9039],[23.9329,34.9246],[23.923,34.936],[23.9254,34.9381],[23.9271,34.9407],[23.9282,34.9438],[23.9307,34.9474],[23.9344,34.9515],[23.9373,34.9557],[23.9393,34.9599],[23.941,34.9627],[23.9425,34.964],[23.9435,34.9646],[23.944,34.9643],[23.9444,34.9662],[23.9445,34.9703],[23.945,34.973],[23.9459,34.9741],[23.9471,34.9746],[23.9486,34.9745],[23.9491,34.9742],[23.9485,34.9737],[23.9486,34.9733],[23.9492,34.9732],[23.9516,34.9731],[23.9557,34.9732],[23.9581,34.9721],[23.9586,34.97],[23.9594,34.9686],[23.9604,34.968],[23.9622,34.9682],[23.9648,34.9693],[23.9664,34.9693],[23.9669,34.9681],[23.9683,34.9675],[23.9703,34.9671],[23.9724,34.966],[23.9745,34.9641],[23.976,34.9634],[23.9771,34.9641],[23.978,34.9635],[23.9787,34.9618],[23.9798,34.9612],[23.9811,34.9619],[23.9826,34.9614],[23.9841,34.9596],[23.9885,34.9609],[23.9956,34.9651],[23.9993,34.9754],[23.9994,34.9918],[23.7496,34.9999],[23.2499,34.9996],[23.0001,34.7496],[23.0004,34.2499],[23.2504,34.0001],[23.7501,34.0004],[24,34.0005],[24,34.0005],[24,34.2159]],[[23.9721,34.9896],[23.9695,34.9915],[23.9682,34.9931],[23.9682,34.9944],[23.969,34.9949],[23.9706,34.9944],[23.9721,34.9934],[23.9734,34.9919],[23.9739,34.9905],[23.9736,34.9893],[23.9734,34.9887],[23.9734,34.9887],[23.9721,34.9896]],[[23.9419,34.9786],[23.9412,34.9786],[23.9412,34.9786],[23.9419,34.9786],[23.9422,34.9786],[23.9422,34.9786],[23.9419,34.9786]],[[23.9122,34.9396],[23.9107,34.9395],[23.9095,34.9401],[23.9088,34.9415],[23.9085,34.9435],[23.9089,34.9461],[23.9105,34.9472],[23.9135,34.9467],[23.9151,34.9451],[23.9153,34.9424],[23.9148,34.9407],[23.9136,34.9401],[23.913,34.9397],[23.913,34.9397],[23.9122,34.9396]]]]}},{"type":"Feature","properties":{"depth":150,"kind":"isobath"},"geometry":{"type":"MultiLineString","coordinates":[[[23.9467,34.9724],[23.9466,34.9728],[23.9465,34.9737],[23.9465,34.9737],[23.9466,34.9728],[23.9467,34.9724]],[[23.9824,34.9599],[23.9823,34.9602],[23.982,34.961],[23.982,34.961],[23.9823,34.9602],[23.9824,34.9599]],[[23.9249,34.9328],[23.9247,34.9328],[23.9241,34.9328],[23.9241,34.9328],[23.9247,34.9328],[23.9249,34.9328]],[[23.9886,34.8693],[23.9876,34.8703],[23.9856,34.8724],[23.9833,34.876],[23.9807,34.8813],[23.9761,34.8863],[23.9694,34.8912],[23.955,34.9039],[23.9329,34.9246],[23.923,34.936],[23.9254,34.9381],[23.9271,34.9407],[23.9282,34.9438],[23.9307,34.9474],[23.9344,34.9515],[23.9373,34.9557],[23.9393,34.9599],[23.941,34.9627],[23.9425,34.964],[23.9435,34.9646],[23.944,34.9643],[23.9444,34.9662],[23.9445,34.9703],[23.945,34.973],[23.9459,34.9741],[23.9471,34.9746],[23.9486,34.9745],[23.9491,34.9742],[23.9485,34.9737],[23.9486,34.9733],[23.9492,34.9732],[23.9516,34.9731],[23.9557,34.9732],[23.9581,34.9721],[23.9586,34.97],[23.9594,34.9686],[23.9604,34.968],[23.9622,34.9682],[23.9648,34.9693],[23.9664,34.9693],[23.9669,34.9681],[23.9683,34.9675],[23.9703,34.9671],[23.9724,34.966],[23.9745,34.9641],[23.976,34.9634],[23.9771,34.9641],[23.978,34.9635],[23.9787,34.9618],[23.9798,34.9612],[23.9811,34.9619],[23.9826,34.9614],[23.9841,34.9596],[23.9885,34.9609],[23.9956,34.9651],[23.9992,34.9672]],[[23.9734,34.9887],[23.9721,34.9896],[23.9695,34.9915],[23.9682,34.9931],[23.9682,34.9944],[23.969,34.9949],[23.9706,34.9944],[23.9721,34.9934],[23.9734,34.9919],[23.9739,34.9905],[23.9736,34.9893],[23.9734,34.9887]],[[23.9422,34.9786],[23.9419,34.9786],[23.9412,34.9786],[23.9412,34.9786],[23.9419,34.9786],[23.9422,34.9786]],[[23.913,34.9397],[23.9122,34.9396],[23.9107,34.9395],[23.9095,34.9401],[23.9088,34.9415],[23.9085,34.9435],[23.9089,34.9461],[23.9105,34.9472],[23.9135,34.9467],[23.9151,34.9451],[23.9153,34.9424],[23.9148,34.9407],[23.9136,34.9401],[23.913,34.9397]]]}},{"type":"Feature","properties":{"depth":200,"kind":"band"},"geometry":{"type":"MultiPolygon","coordinates":[[[[23.9972,34.9894],[23.9991,34.9898],[23.9999,34.9926],[23.9996,34.9975],[23.9925,35],[23.9784,35],[23.9742,34.9976],[23.98,34.9927],[23.9862,34.99],[23.9929,34.9894],[23.9963,34.9891],[23.9963,34.9891],[23.9972,34.9894]]],[[[23.9622,34.9883],[23.9605,34.9888],[23.9605,34.9888],[23.9622,34.9883],[23.963,34.988],[23.963,34.988],[23.9622,34.9883]]],[[[23.9944,34.9789],[23.9919,34.9794],[23.9919,34.9794],[23.9944,34.9789],[23.9957,34.9786],[23.9957,34.9786],[23.9944,34.9789]]],[[[23.9993,34.9776],[23.9978,34.9776],[23.9978,34.9776],[23.9993,34.9776],[24,34.9776],[24,34.9776],[23.9993,34.9776]]],[[[23.9171,34.957],[23.9186,34.9596],[23.9183,34.9601],[23.9162,34.9586],[23.9155,34.9573],[23.9161,34.9562],[23.9164,34.9557],[23.9164,34.9557],[23.9171,34.957]]],[[[24,34.2117],[24,34.6341],[23.9837,34.8612],[23.9512,34.8931],[23.9302,34.9114],[23.9208,34.9161],[23.9156,34.9179],[23.9146,34.9166],[23.9128,34.9165],[23.9102,34.9176],[23.906,34.9209],[23.9003,34.9266],[23.8966,34.9292],[23.895,34.9288],[23.8948,34.9336],[23.8961,34.9435],[23.8962,34.95],[23.8952,34.9531],[23.8973,34.9555],[23.9024,34.957],[23.9036,34.9587],[23.9009,34.9604],[23.8978,34.964],[23.8945,34.9696],[23.894,34.9737],[23.8963,34.9763],[23.8985,34.9815],[23.9005,34.9893],[23.9031,34.9949],[23.9062,34.9983],[23.6809,34.9999],[23.227,34.9996],[23.0001,34.7496],[23.0004,34.2499],[23.2504,34.0001],[23.7501,34.0004],[24,34.0005],[24,34.0005],[24,34.2117]]]]}},{"type":"Feature","properties":{"depth":200,"kind":"isobath"},"geometry":{"type":"MultiLineString","coordinates":[[[23.9828,34.9903],[23.9862,34.99],[23.9929,34.9894],[23.9963,34.9891],[23.9963,34.9891],[23.9963,34.9891]],[[23.963,34.988],[23.9622,34.9883],[23.9605,34.9888],[23.9605,34.9888],[23.9622,34.9883],[23.963,34.988]],[[23.9957,34.9786],[23.9944,34.9789],[23.9919,34.9794],[23.9919,34.9794],[23.9944,34.9789],[23.9957,34.9786]],[[23.9164,34.9557],[23.9171,34.957],[23.9186,34.9596],[23.9183,34.9601],[23.9162,34.9586],[23.9155,34.9573],[23.9161,34.9562],[23.9164,34.9557]],[[23.9349,34.909],[23.9302,34.9114],[23.9208,34.9161],[23.9156,34.9179],[23.9146,34.9166],[23.9128,34.9165],[23.9102,34.9176],[23.906,34.9209],[23.9003,34.9266],[23.8966,34.9292],[23.895,34.9288],[23.8948,34.9336],[23.8961,34.9435],[23.8962,34.95],[23.8952,34.9531],[23.8973,34.9555],[23.9024,34.957],[23.9036,34.9587],[23.9009,34.9604],[23.8978,34.964],[23.8945,34.9696],[23.894,34.9737],[23.8963,34.9763],[23.8985,34.9815],[23.9005,34.9893],[23.9015,34.9932]]]}},{"type":"Feature","properties":{"depth":300,"kind":"band"},"geometry":{"type":"MultiPolygon","coordinates":[[[[23.9999,34.9957],[23.9996,34.9986],[23.9941,34.9999],[23.9834,34.9996],[23.9835,34.9982],[23.9945,34.9956],[24,34.9943],[24,34.9943],[23.9999,34.9957]]],[[[24,34.2034],[24,34.6091],[23.9986,34.8152],[23.9957,34.8215],[23.9933,34.8241],[23.9912,34.8228],[23.9883,34.8229],[23.9846,34.8243],[23.9797,34.8277],[23.9735,34.8332],[23.9707,34.8367],[23.9713,34.8383],[23.9692,34.8397],[23.9644,34.8409],[23.9613,34.8432],[23.9598,34.8467],[23.9564,34.8507],[23.9511,34.8554],[23.9482,34.857],[23.9476,34.8555],[23.9471,34.8563],[23.9467,34.8594],[23.9437,34.8646],[23.9383,34.8719],[23.9303,34.8797],[23.9198,34.888],[23.9094,34.8956],[23.8991,34.9023],[23.8797,34.9121],[23.8513,34.9249],[23.8357,34.9327],[23.8333,34.9356],[23.8319,34.938],[23.8316,34.9401],[23.833,34.9427],[23.8359,34.9458],[23.8385,34.9474],[23.8408,34.9474],[23.8418,34.9485],[23.8417,34.9506],[23.8444,34.956],[23.8499,34.9647],[23.8552,34.9693],[23.8604,34.9699],[23.868,34.9731],[23.8779,34.9789],[23.8833,34.9864],[23.8844,34.9955],[23.6637,34.9999],[23.2212,34.9996],[23.0001,34.7496],[23.0004,34.2499],[23.2504,34.0001],[23.7501,34.0004],[24,34.0005],[24,34.0005],[24,34.2034]]]]}},{"type":"Feature","properties":{"depth":300,"kind":"isobath"},"geometry":{"type":"MultiLineString","coordinates":[[[23.9943,34.8247],[23.9933,34.8241],[23.9912,34.8228],[23.9883,34.8229],[23.9846,34.8243],[23.9797,34.8277],[23.9735,34.8332],[23.9707,34.8367],[23.9713,34.8383],[23.9692,34.8397],[23.9644,34.8409],[23.9613,34.8432],[23.9598,34.8467],[23.9564,34.8507],[23.9511,34.8554],[23.9482,34.857],[23.9476,34.8555],[23.9471,34.8563],[23.9467,34.8594],[23.9437,34.8646],[23.9383,34.8719],[23.9303,34.8797],[23.9198,34.888],[23.9094,34.8956],[23.8991,34.9023],[23.8797,34.9121],[23.8513,34.9249],[23.8357,34.9327],[23.8333,34.9356],[23.8319,34.938],[23.8316,34.9401],[23.833,34.9427],[23.8359,34.9458],[23.8385,34.9474],[23.8408,34.9474],[23.8418,34.9485],[23.8417,34.9506],[23.8444,34.956],[23.8499,34.9647],[23.8552,34.9693],[23.8604,34.9699],[23.868,34.9731],[23.8779,34.9789],[23.8828,34.9818]]]}},{"type":"Feature","properties":{"depth":500,"kind":"band"},"geometry":{"type":"MultiPolygon","coordinates":[[[[23.8524,34.9995],[23.85,34.9995],[23.85,34.9995],[23.8524,34.9995],[23.8537,34.9995],[23.8537,34.9995],[23.8524,34.9995]]],[[[23.8111,34.9464],[23.8089,34.9485],[23.8089,34.9485],[23.8111,34.9464],[23.8122,34.9453],[23.8122,34.9453],[23.8111,34.9464]]],[[[24,34.1906],[24,34.5708],[23.996,34.7648],[23.9878,34.7727],[23.9849,34.7779],[23.9871,34.7805],[23.9847,34.7847],[23.9777,34.7903],[23.9745,34.7958],[23.975,34.801],[23.9663,34.8117],[23.9483,34.8278],[23.9343,34.8447],[23.9243,34.8623],[23.9084,34.879],[23.8864,34.8947],[23.8598,34.9104],[23.8284,34.9261],[23.8097,34.9417],[23.8036,34.9573],[23.8032,34.9686],[23.8083,34.9755],[23.8156,34.9767],[23.825,34.9721],[23.8339,34.9774],[23.8422,34.9925],[23.6348,34.9999],[23.2116,34.9996],[23.0001,34.7496],[23.0004,34.2499],[23.2504,34.0001],[23.7501,34.0004],[24,34.0005],[24,34.0005],[24,34.1906]]]]}},{"type":"Feature","properties":{"depth":500,"kind":"isobath"},"geometry":{"type":"MultiLineString","coordinates":[[[23.8537,34.9995],[23.8524,34.9995],[23.85,34.9995],[23.85,34.9995],[23.8524,34.9995],[23.8537,34.9995]],[[23.8122,34.9453],[23.8111,34.9464],[23.8089,34.9485],[23.8089,34.9485],[23.8111,34.9464],[23.8122,34.9453]],[[23.9838,34.7766],[23.9849,34.7779],[23.9871,34.7805],[23.9847,34.7847],[23.9777,34.7903],[23.9745,34.7958],[23.975,34.801],[23.9663,34.8117],[23.9483,34.8278],[23.9343,34.8447],[23.9243,34.8623],[23.9084,34.879],[23.8864,34.8947],[23.8598,34.9104],[23.8284,34.9261],[23.8097,34.9417],[23.8036,34.9573],[23.8032,34.9686],[23.8083,34.9755],[23.8156,34.9767],[23.825,34.9721],[23.8297,34.9698]]]}},{"type":"Feature","properties":{"depth":750,"kind":"band"},"geometry":{"type":"MultiPolygon","coordinates":[[[[23.7771,34.9987],[23.7736,34.9992],[23.7736,34.9992],[23.7771,34.9987],[23.7788,34.9984],[23.7788,34.9984],[23.7771,34.9987]]],[[[24,34.1812],[24,34.5427],[23.9978,34.7245],[23.9933,34.7266],[23.9923,34.7313],[23.9949,34.7385],[23.9879,34.7495],[23.9713,34.7641],[23.9586,34.7779],[23.9497,34.7908],[23.9412,34.7986],[23.9329,34.8013],[23.93,34.8044],[23.9325,34.8081],[23.9329,34.813],[23.9314,34.8193],[23.9254,34.8242],[23.9151,34.8279],[23.9076,34.8354],[23.9029,34.8469],[23.8979,34.8529],[23.8927,34.8534],[23.8807,34.8637],[23.862,34.8838],[23.8465,34.8971],[23.8344,34.9036],[23.8281,34.9089],[23.8278,34.9131],[23.8172,34.9192],[23.7963,34.9273],[23.781,34.9373],[23.7711,34.9492],[23.7579,34.9581],[23.7414,34.9642],[23.7356,34.9683],[23.7404,34.9704],[23.7405,34.973],[23.7358,34.9761],[23.7365,34.981],[23.7427,34.9877],[23.7519,34.9932],[23.764,34.9974],[23.5776,34.9995],[23.1925,34.9995],[23.0001,34.7496],[23.0004,34.2499],[23.2504,34.0001],[23.7501,34.0004],[24,34.0005],[24,34.0005],[24,34.1812]]]]}},{"type":"Feature","properties":{"depth":750,"kind":"isobath"},"geometry":{"type":"MultiLineString","coordinates":[[[23.7788,34.9984],[23.7771,34.9987],[23.7736,34.9992],[23.7736,34.9992],[23.7771,34.9987],[23.7788,34.9984]],[[23.991,34.7276],[23.9923,34.7313],[23.9949,34.7385],[23.9879,34.7495],[23.9713,34.7641],[23.9586,34.7779],[23.9497,34.7908],[23.9412,34.7986],[23.9329,34.8013],[23.93,34.8044],[23.9325,34.8081],[23.9329,34.813],[23.9314,34.8193],[23.9254,34.8242],[23.9151,34.8279],[23.9076,34.8354],[23.9029,34.8469],[23.8979,34.8529],[23.8927,34.8534],[23.8807,34.8637],[23.862,34.8838],[23.8465,34.8971],[23.8344,34.9036],[23.8281,34.9089],[23.8278,34.9131],[23.8172,34.9192],[23.7963,34.9273],[23.781,34.9373],[23.7711,34.9492],[23.7579,34.9581],[23.7414,34.9642],[23.7356,34.9683],[23.7404,34.9704],[23.7405,34.973],[23.7358,34.9761],[23.7365,34.981],[23.7427,34.9877],[23.7519,34.9932],[23.764,34.9974],[23.7701,34.9995]]]}},{"type":"Feature","properties":{"depth":1000,"kind":"band"},"geometry":{"type":"MultiPolygon","coordinates":[[[[23.7127,34.9995],[23.7102,34.9995],[23.7102,34.9995],[23.7127,34.9995],[23.7139,34.9995],[23.7139,34.9995],[23.7127,34.9995]]],[[[24,34.1784],[24,34.5341],[23.9897,34.7183],[23.9692,34.7309],[23.9524,34.7503],[23.9393,34.7766],[23.9175,34.799],[23.8868,34.8175],[23.8636,34.8334],[23.8479,34.8469],[23.8343,34.8539],[23.8229,34.8543],[23.8091,34.8585],[23.793,34.8664],[23.7852,34.8721],[23.7857,34.8758],[23.7922,34.8771],[23.8048,34.876],[23.8098,34.8794],[23.8071,34.8872],[23.794,34.9],[23.7704,34.9177],[23.7566,34.9301],[23.7525,34.937],[23.7377,34.9465],[23.7123,34.9583],[23.6966,34.9629],[23.6909,34.96],[23.6828,34.9608],[23.6725,34.9651],[23.6678,34.9686],[23.6688,34.9714],[23.6739,34.9732],[23.6831,34.9741],[23.6886,34.9792],[23.6903,34.9885],[23.6934,34.993],[23.6977,34.9925],[23.7013,34.9942],[23.7042,34.9981],[23.5293,34.9999],[23.1764,34.9996],[23.0001,34.7496],[23.0004,34.2499],[23.2504,34.0001],[23.7501,34.0004],[24,34.0005],[24,34.0005],[24,34.1784]],[[23.7228,34.9046],[23.7256,34.9067],[23.7256,34.9067],[23.7228,34.9046],[23.7214,34.9035],[23.7214,34.9035],[23.7228,34.9046]]]]}},{"type":"Feature","properties":{"depth":1000,"kind":"isobath"},"geometry":{"type":"MultiLineString","coordinates":[[[23.7139,34.9995],[23.7127,34.9995],[23.7102,34.9995],[23.7102,34.9995],[23.7127,34.9995],[23.7139,34.9995]],[[23.9589,34.7372],[23.9524,34.7503],[23.9393,34.7766],[23.9175,34.799],[23.8868,34.8175],[23.8636,34.8334],[23.8479,34.8469],[23.8343,34.8539],[23.8229,34.8543],[23.8091,34.8585],[23.793,34.8664],[23.7852,34.8721],[23.7857,34.8758],[23.7922,34.8771],[23.8048,34.876],[23.8098,34.8794],[23.8071,34.8872],[23.794,34.9],[23.7704,34.9177],[23.7566,34.9301],[23.7525,34.937],[23.7377,34.9465],[23.7123,34.9583],[23.6966,34.9629],[23.6909,34.96],[23.6828,34.9608],[23.6725,34.9651],[23.6678,34.9686],[23.6688,34.9714],[23.6739,34.9732],[23.6831,34.9741],[23.6886,34.9792],[23.6903,34.9885],[23.6934,34.993],[23.6977,34.9925],[23.6998,34.9922]],[[23.7214,34.9035],[23.7228,34.9046],[23.7256,34.9067],[23.7256,34.9067],[23.7228,34.9046],[23.7214,34.9035]]]}},{"type":"Feature","properties":{"depth":1500,"kind":"band"},"geometry":{"type":"MultiPolygon","coordinates":[[[[24,34.1635],[24,34.4896],[23.9988,34.6552],[23.9964,34.6604],[23.9845,34.6648],[23.963,34.6685],[23.9508,34.6738],[23.9479,34.6807],[23.9365,34.6835],[23.9167,34.6823],[23.9039,34.6833],[23.898,34.6864],[23.8946,34.6936],[23.8937,34.7049],[23.8989,34.7126],[23.9104,34.7167],[23.9161,34.7209],[23.9162,34.7254],[23.9207,34.7287],[23.9296,34.7308],[23.9307,34.7371],[23.9238,34.7477],[23.9117,34.7614],[23.8945,34.7782],[23.8349,34.8151],[23.7329,34.872],[23.6712,34.913],[23.6499,34.938],[23.6398,34.9607],[23.6411,34.981],[23.6431,34.9933],[23.646,34.9978],[23.4856,34.9999],[23.1619,34.9996],[23.0001,34.7496],[23.0004,34.2499],[23.2504,34.0001],[23.7501,34.0004],[24,34.0005],[24,34.0005],[24,34.1635]]]]}},{"type":"Feature","properties":{"depth":1500,"kind":"isobath"},"geometry":{"type":"MultiLineString","coordinates":[[[23.9952,34.663],[23.9845,34.6648],[23.963,34.6685],[23.9508,34.6738],[23.9479,34.6807],[23.9365,34.6835],[23.9167,34.6823],[23.9039,34.6833],[23.898,34.6864],[23.8946,34.6936],[23.8937,34.7049],[23.8989,34.7126],[23.9104,34.7167],[23.9161,34.7209],[23.9162,34.7254],[23.9207,34.7287],[23.9296,34.7308],[23.9307,34.7371],[23.9238,34.7477],[23.9117,34.7614],[23.8945,34.7782],[23.8349,34.8151],[23.7329,34.872],[23.6712,34.913],[23.6499,34.938],[23.6398,34.9607],[23.6411,34.981],[23.6417,34.9911]]]}},{"type":"Feature","properties":{"depth":2000,"kind":"band"},"geometry":{"type":"MultiPolygon","coordinates":[[[[23.7276,34.1642],[23.7269,34.1665],[23.7269,34.1665],[23.7276,34.1642],[23.7279,34.163],[23.7279,34.163],[23.7276,34.1642]]],[[[23.7498,34.1167],[23.7475,34.12],[23.7475,34.12],[23.7498,34.1167],[23.7509,34.1151],[23.7509,34.1151],[23.7498,34.1167]]],[[[23.6223,34.0022],[23.6224,34.0057],[23.6208,34.0064],[23.6177,34.0043],[23.614,34.0063],[23.6099,34.0124],[23.6112,34.0143],[23.618,34.0118],[23.6271,34.0113],[23.6386,34.0129],[23.6466,34.0159],[23.6513,34.0202],[23.6495,34.0259],[23.6412,34.0328],[23.6323,34.0315],[23.6229,34.0223],[23.6154,34.0179],[23.6097,34.0186],[23.6051,34.0213],[23.6018,34.0262],[23.606,34.0302],[23.6177,34.0333],[23.6215,34.0392],[23.6172,34.0477],[23.6195,34.0513],[23.6284,34.0501],[23.6349,34.0463],[23.639,34.0398],[23.6422,34.037],[23.6443,34.0379],[23.6439,34.043],[23.6411,34.0522],[23.6442,34.0559],[23.6533,34.0542],[23.6607,34.0565],[23.6664,34.0628],[23.674,34.0649],[23.6833,34.0631],[23.6879,34.0647],[23.6876,34.0698],[23.6912,34.074],[23.6986,34.0771],[23.705,34.0842],[23.7103,34.0954],[23.7159,34.0967],[23.7216,34.088],[23.7294,34.0841],[23.7394,34.0848],[23.7448,34.0823],[23.7459,34.0764],[23.7496,34.0752],[23.7559,34.0789],[23.7564,34.082],[23.7511,34.0845],[23.7441,34.0941],[23.7355,34.1109],[23.7289,34.1188],[23.7243,34.1177],[23.7246,34.1135],[23.7297,34.1063],[23.7288,34.1047],[23.7221,34.1088],[23.7183,34.1135],[23.7176,34.1188],[23.7159,34.1201],[23.7132,34.1174],[23.7124,34.113],[23.7135,34.1069],[23.706,34.1111],[23.6899,34.1258],[23.6795,34.1302],[23.6748,34.1245],[23.6698,34.1229],[23.6646,34.1254],[23.6604,34.1256],[23.6573,34.1237],[23.6579,34.1182],[23.6624,34.1092],[23.6645,34.1011],[23.6644,34.0938],[23.663,34.0874],[23.6602,34.082],[23.656,34.0799],[23.6503,34.0811],[23.6426,34.0838],[23.6329,34.088],[23.6298,34.094],[23.6335,34.1018],[23.6333,34.1094],[23.6292,34.1167],[23.6274,34.1229],[23.628,34.1281],[23.6308,34.1304],[23.6359,34.13],[23.6427,34.1338],[23.6514,34.1419],[23.6596,34.1412],[23.6675,34.1315],[23.6722,34.1293],[23.6739,34.1344],[23.6731,34.1365],[23.6699,34.1354],[23.6675,34.1406],[23.666,34.1521],[23.6688,34.1578],[23.6761,34.1578],[23.6794,34.1563],[23.6789,34.1532],[23.6835,34.1496],[23.6935,34.1457],[23.6997,34.1488],[23.7023,34.159],[23.7081,34.1642],[23.7169,34.1645],[23.7244,34.1671],[23.7306,34.172],[23.7266,34.1761],[23.7127,34.1792],[23.7034,34.1787],[23.6987,34.1743],[23.6991,34.1756],[23.7045,34.1825],[23.7049,34.1869],[23.7002,34.1891],[23.6979,34.1919],[23.6981,34.1956],[23.7001,34.2001],[23.7038,34.2056],[23.7123,34.21],[23.7257,34.2134],[23.7384,34.2237],[23.7506,34.2409],[23.7589,34.249],[23.7632,34.2479],[23.7663,34.2442],[23.7683,34.2378],[23.775,34.2329],[23.7865,34.2296],[23.7922,34.2263],[23.7922,34.223],[23.7948,34.2218],[23.8,34.2224],[23.8031,34.2211],[23.8042,34.2176],[23.8091,34.215],[23.818,34.2132],[23.8209,34.2193],[23.8181,34.2331],[23.8145,34.2409],[23.8103,34.2424],[23.8111,34.245],[23.817,34.2487],[23.8203,34.253],[23.821,34.2579],[23.8323,34.2611],[23.8542,34.2624],[23.8651,34.2611],[23.8651,34.2572],[23.8708,34.2557],[23.8823,34.2568],[23.8906,34.2539],[23.8958,34.2472],[23.9057,34.2418],[23.9203,34.2378],[23.9299,34.2358],[23.9344,34.2359],[23.9347,34.2396],[23.9306,34.2469],[23.9345,34.2506],[23.9465,34.2505],[23.9595,34.2532],[23.9736,34.2587],[23.9855,34.2608],[23.9952,34.2595],[24,34.3537],[24,34.5432],[23.9915,34.6389],[23.9746,34.6408],[23.9581,34.6465],[23.942,34.6562],[23.9219,34.6639],[23.8979,34.6698],[23.8778,34.6778],[23.8616,34.6881],[23.8465,34.7018],[23.8324,34.719],[23.8132,34.7353],[23.7888,34.7508],[23.7759,34.7604],[23.7745,34.7642],[23.7763,34.7638],[23.7814,34.7591],[23.7938,34.7551],[23.8135,34.7519],[23.8254,34.7517],[23.8294,34.7544],[23.8316,34.7581],[23.8321,34.7627],[23.8241,34.7737],[23.8077,34.7908],[23.7862,34.8051],[23.7597,34.8168],[23.742,34.8225],[23.7331,34.8223],[23.7226,34.8256],[23.7107,34.8325],[23.7003,34.8403],[23.6915,34.8492],[23.6882,34.8549],[23.6903,34.8576],[23.687,34.862],[23.6785,34.8683],[23.6641,34.8838],[23.644,34.9086],[23.624,34.9257],[23.6042,34.9352],[23.5969,34.9418],[23.6021,34.9456],[23.6047,34.9499],[23.6047,34.9546],[23.6024,34.9601],[23.5977,34.9662],[23.5889,34.9715],[23.5758,34.9758],[23.569,34.9795],[23.5683,34.9824],[23.5741,34.9863],[23.5862,34.991],[23.5951,34.9929],[23.6007,34.9919],[23.6041,34.9936],[23.6052,34.9979],[23.4544,35],[23.1518,35],[23.0004,34.7501],[23.0001,34.2504],[23.1556,34.0005],[23.4667,34.0005],[23.6223,34.0005],[23.6223,34.0005],[23.6223,34.0022]],[[23.8087,34.5212],[23.8062,34.5255],[23.8073,34.5341],[23.8118,34.547],[23.8202,34.5502],[23.8323,34.5435],[23.8388,34.5383],[23.8397,34.5346],[23.838,34.53],[23.8339,34.5245],[23.8263,34.5211],[23.8154,34.5198],[23.8099,34.5191],[23.8099,34.5191],[23.8087,34.5212]],[[23.8996,34.4827],[23.8915,34.4835],[23.8877,34.4878],[23.8882,34.4956],[23.8858,34.5016],[23.8804,34.5057],[23.879,34.5087],[23.8815,34.5104],[23.8862,34.5089],[23.893,34.5041],[23.8943,34.5043],[23.89,34.5094],[23.8885,34.5136],[23.8896,34.5169],[23.894,34.5171],[23.9017,34.5144],[23.9056,34.5109],[23.9057,34.5068],[23.9097,34.5018],[23.9174,34.4961],[23.9168,34.4905],[23.908,34.485],[23.9036,34.4823],[23.9036,34.4823],[23.8996,34.4827]],[[23.9305,34.4812],[23.9258,34.4843],[23.9258,34.4857],[23.9303,34.4852],[23.9326,34.4836],[23.9327,34.4809],[23.9328,34.4796],[23.9328,34.4796],[23.9305,34.4812]],[[23.9252,34.459],[23.9223,34.4617],[23.9227,34.4656],[23.9262,34.4708],[23.9312,34.4731],[23.9375,34.4727],[23.9404,34.4703],[23.9397,34.4662],[23.9361,34.4625],[23.9298,34.4592],[23.9266,34.4576],[23.9266,34.4576],[23.9252,34.459]],[[23.9125,34.4459],[23.9114,34.4492],[23.9138,34.4508],[23.9195,34.4506],[23.9201,34.4489],[23.9154,34.4458],[23.913,34.4442],[23.913,34.4442],[23.9125,34.4459]],[[23.9531,34.2873],[23.9394,34.2947],[23.9373,34.301],[23.9468,34.3063],[23.9631,34.3089],[23.986,34.3089],[23.9967,34.304],[23.9951,34.2942],[23.9857,34.2879],[23.9685,34.285],[23.9599,34.2836],[23.9599,34.2836],[23.9531,34.2873]],[[23.6937,34.2094],[23.6882,34.2098],[23.6879,34.2115],[23.6928,34.2147],[23.6956,34.2146],[23.6961,34.2111],[23.6964,34.2093],[23.6964,34.2093],[23.6937,34.2094]],[[23.7099,34.1685],[23.7118,34.1697],[23.7118,34.1697],[23.7099,34.1685],[23.7089,34.1679],[23.7089,34.1679],[23.7099,34.1685]],[[23.69,34.1077],[23.6879,34.1098],[23.6879,34.1098],[23.69,34.1077],[23.6911,34.1066],[23.6911,34.1066],[23.69,34.1077]],[[23.6984,34.1058],[23.6984,34.1081],[23.6984,34.1081],[23.6984,34.1058],[23.6984,34.1047],[23.6984,34.1047],[23.6984,34.1058]],[[23.6159,34.0947],[23.6134,34.0965],[23.6145,34.0972],[23.6194,34.0967],[23.6206,34.0958],[23.6184,34.0945],[23.6172,34.0938],[23.6172,34.0938],[23.6159,34.0947]],[[23.587,34.0832],[23.5787,34.0886],[23.5776,34.0905],[23.5839,34.0892],[23.588,34.0865],[23.5901,34.0826],[23.5911,34.0806],[23.5911,34.0806],[23.587,34.0832]]]]}},{"type":"Feature","properties":{"depth":2000,"kind":"isobath"},"geometry":{"type":"MultiLineString","coordinates":[[[23.7279,34.163],[23.7276,34.1642],[23.7269,34.1665],[23.7269,34.1665],[23.7276,34.1642],[23.7279,34.163]],[[23.7509,34.1151],[23.7498,34.1167],[23.7475,34.12],[23.7475,34.12],[23.7498,34.1167],[23.7509,34.1151]],[[23.9661,34.6417],[23.9581,34.6465],[23.942,34.6562],[23.9219,34.6639],[23.8979,34.6698],[23.8778,34.6778],[23.8616,34.6881],[23.8465,34.7018],[23.8324,34.719],[23.8132,34.7353],[23.7888,34.7508],[23.7759,34.7604],[23.7745,34.7642],[23.7763,34.7638],[23.7814,34.7591],[23.7938,34.7551],[23.8135,34.7519],[23.8254,34.7517],[23.8294,34.7544],[23.8316,34.7581],[23.8321,34.7627],[23.8241,34.7737],[23.8077,34.7908],[23.7862,34.8051],[23.7597,34.8168],[23.742,34.8225],[23.7331,34.8223],[23.7226,34.8256],[23.7107,34.8325],[23.7003,34.8403],[23.6915,34.8492],[23.6882,34.8549],[23.6903,34.8576],[23.687,34.862],[23.6785,34.8683],[23.6641,34.8838],[23.644,34.9086],[23.624,34.9257],[23.6042,34.9352],[23.5969,34.9418],[23.6021,34.9456],[23.6047,34.9499],[23.6047,34.9546],[23.6024,34.9601],[23.5977,34.9662],[23.5889,34.9715],[23.5758,34.9758],[23.569,34.9795],[23.5683,34.9824],[23.5741,34.9863],[23.5862,34.991],[23.5951,34.9929],[23.6007,34.9919],[23.6036,34.9914]],[[23.6223,34.0005],[23.6223,34.0005],[23.6223,34.0005],[23.6223,34.0022],[23.6224,34.0057],[23.6208,34.0064],[23.6177,34.0043],[23.614,34.0063],[23.6099,34.0124],[23.6112,34.0143],[23.618,34.0118],[23.6271,34.0113],[23.6386,34.0129],[23.6466,34.0159],[23.6513,34.0202],[23.6495,34.0259],[23.6412,34.0328],[23.6323,34.0315],[23.6229,34.0223],[23.6154,34.0179],[23.6097,34.0186],[23.6051,34.0213],[23.6018,34.0262],[23.606,34.0302],[23.6177,34.0333],[23.6215,34.0392],[23.6172,34.0477],[23.6195,34.0513],[23.6284,34.0501],[23.6349,34.0463],[23.639,34.0398],[23.6422,34.037],[23.6443,34.0379],[23.6439,34.043],[23.6411,34.0522],[23.6442,34.0559],[23.6533,34.0542],[23.6607,34.0565],[23.6664,34.0628],[23.674,34.0649],[23.6833,34.0631],[23.6879,34.0647],[23.6876,34.0698],[23.6912,34.074],[23.6986,34.0771],[23.705,34.0842],[23.7103,34.0954],[23.7159,34.0967],[23.7216,34.088],[23.7294,34.0841],[23.7394,34.0848],[23.7448,34.0823],[23.7459,34.0764],[23.7496,34.0752],[23.7559,34.0789],[23.7564,34.082],[23.7511,34.0845],[23.7441,34.0941],[23.7355,34.1109],[23.7289,34.1188],[23.7243,34.1177],[23.7246,34.1135],[23.7297,34.1063],[23.7288,34.1047],[23.7221,34.1088],[23.7183,34.1135],[23.7176,34.1188],[23.7159,34.1201],[23.7132,34.1174],[23.7124,34.113],[23.7135,34.1069],[23.706,34.1111],[23.6899,34.1258],[23.6795,34.1302],[23.6748,34.1245],[23.6698,34.1229],[23.6646,34.1254],[23.6604,34.1256],[23.6573,34.1237],[23.6579,34.1182],[23.6624,34.1092],[23.6645,34.1011],[23.6644,34.0938],[23.663,34.0874],[23.6602,34.082],[23.656,34.0799],[23.6503,34.0811],[23.6426,34.0838],[23.6329,34.088],[23.6298,34.094],[23.6335,34.1018],[23.6333,34.1094],[23.6292,34.1167],[23.6274,34.1229],[23.628,34.1281],[23.6308,34.1304],[23.6359,34.13],[23.6427,34.1338],[23.6514,34.1419],[23.6596,34.1412],[23.6675,34.1315],[23.6722,34.1293],[23.6739,34.1344],[23.6731,34.1365],[23.6699,34.1354],[23.6675,34.1406],[23.666,34.1521],[23.6688,34.1578],[23.6761,34.1578],[23.6794,34.1563],[23.6789,34.1532],[23.6835,34.1496],[23.6935,34.1457],[23.6997,34.1488],[23.7023,34.159],[23.7081,34.1642],[23.7169,34.1645],[23.7244,34.1671],[23.7306,34.172],[23.7266,34.1761],[23.7127,34.1792],[23.7034,34.1787],[23.6987,34.1743],[23.6991,34.1756],[23.7045,34.1825],[23.7049,34.1869],[23.7002,34.1891],[23.6979,34.1919],[23.6981,34.1956],[23.7001,34.2001],[23.7038,34.2056],[23.7123,34.21],[23.7257,34.2134],[23.7384,34.2237],[23.7506,34.2409],[23.7589,34.249],[23.7632,34.2479],[23.7663,34.2442],[23.7683,34.2378],[23.775,34.2329],[23.7865,34.2296],[23.7922,34.2263],[23.7922,34.223],[23.7948,34.2218],[23.8,34.2224],[23.8031,34.2211],[23.8042,34.2176],[23.8091,34.215],[23.818,34.2132],[23.8209,34.2193],[23.8181,34.2331],[23.8145,34.2409],[23.8103,34.2424],[23.8111,34.245],[23.817,34.2487],[23.8203,34.253],[23.821,34.2579],[23.8323,34.2611],[23.8542,34.2624],[23.8651,34.2611],[23.8651,34.2572],[23.8708,34.2557],[23.8823,34.2568],[23.8906,34.2539],[23.8958,34.2472],[23.9057,34.2418],[23.9203,34.2378],[23.9299,34.2358],[23.9344,34.2359],[23.9347,34.2396],[23.9306,34.2469],[23.9345,34.2506],[23.9465,34.2505],[23.9595,34.2532],[23.9736,34.2587],[23.9807,34.2614]],[[23.8099,34.5191],[23.8087,34.5212],[23.8062,34.5255],[23.8073,34.5341],[23.8118,34.547],[23.8202,34.5502],[23.8323,34.5435],[23.8388,34.5383],[23.8397,34.5346],[23.838,34.53],[23.8339,34.5245],[23.8263,34.5211],[23.8154,34.5198],[23.8099,34.5191]],[[23.9036,34.4823],[23.8996,34.4827],[23.8915,34.4835],[23.8877,34.4878],[23.8882,34.4956],[23.8858,34.5016],[23.8804,34.5057],[23.879,34.5087],[23.8815,34.5104],[23.8862,34.5089],[23.893,34.5041],[23.8943,34.5043],[23.89,34.5094],[23.8885,34.5136],[23.8896,34.5169],[23.894,34.5171],[23.9017,34.5144],[23.9056,34.5109],[23.9057,34.5068],[23.9097,34.5018],[23.9174,34.4961],[23.9168,34.4905],[23.908,34.485],[23.9036,34.4823]],[[23.9328,34.4796],[23.9305,34.4812],[23.9258,34.4843],[23.9258,34.4857],[23.9303,34.4852],[23.9326,34.4836],[23.9327,34.4809],[23.9328,34.4796]],[[23.9266,34.4576],[23.9252,34.459],[23.9223,34.4617],[23.9227,34.4656],[23.9262,34.4708],[23.9312,34.4731],[23.9375,34.4727],[23.9404,34.4703],[23.9397,34.4662],[23.9361,34.4625],[23.9298,34.4592],[23.9266,34.4576]],[[23.913,34.4442],[23.9125,34.4459],[23.9114,34.4492],[23.9138,34.4508],[23.9195,34.4506],[23.9201,34.4489],[23.9154,34.4458],[23.913,34.4442]],[[23.9599,34.2836],[23.9531,34.2873],[23.9394,34.2947],[23.9373,34.301],[23.9468,34.3063],[23.9631,34.3089],[23.986,34.3089],[23.9967,34.304],[23.9951,34.2942],[23.9857,34.2879],[23.9685,34.285],[23.9599,34.2836]],[[23.6964,34.2093],[23.6937,34.2094],[23.6882,34.2098],[23.6879,34.2115],[23.6928,34.2147],[23.6956,34.2146],[23.6961,34.2111],[23.6964,34.2093]],[[23.7089,34.1679],[23.7099,34.1685],[23.7118,34.1697],[23.7118,34.1697],[23.7099,34.1685],[23.7089,34.1679]],[[23.6911,34.1066],[23.69,34.1077],[23.6879,34.1098],[23.6879,34.1098],[23.69,34.1077],[23.6911,34.1066]],[[23.6984,34.1047],[23.6984,34.1058],[23.6984,34.1081],[23.6984,34.1081],[23.6984,34.1058],[23.6984,34.1047]],[[23.6172,34.0938],[23.6159,34.0947],[23.6134,34.0965],[23.6145,34.0972],[23.6194,34.0967],[23.6206,34.0958],[23.6184,34.0945],[23.6172,34.0938]],[[23.5911,34.0806],[23.587,34.0832],[23.5787,34.0886],[23.5776,34.0905],[23.5839,34.0892],[23.588,34.0865],[23.5901,34.0826],[23.5911,34.0806]]]}},{"type":"Feature","properties":{"depth":3000,"kind":"band"},"geometry":{"type":"MultiPolygon","coordinates":[[[[23.4082,34.9753],[23.4106,34.9768],[23.4106,34.9768],[23.4082,34.9753],[23.4069,34.9745],[23.4069,34.9745],[23.4082,34.9753]]],[[[23.3642,34.9448],[23.3609,34.9459],[23.3609,34.9459],[23.3642,34.9448],[23.3658,34.9443],[23.3658,34.9443],[23.3642,34.9448]]],[[[23.4611,34.9395],[23.461,34.9424],[23.461,34.9424],[23.4611,34.9395],[23.4612,34.938],[23.4612,34.938],[23.4611,34.9395]]],[[[23.4725,34.9286],[23.4725,34.9307],[23.4725,34.9307],[23.4725,34.9286],[23.4726,34.9276],[23.4726,34.9276],[23.4725,34.9286]]],[[[23.4074,34.9117],[23.4056,34.9134],[23.4056,34.9134],[23.4074,34.9117],[23.4083,34.9109],[23.4083,34.9109],[23.4074,34.9117]]],[[[23.2701,34.9071],[23.271,34.91],[23.271,34.91],[23.2701,34.9071],[23.2697,34.9057],[23.2697,34.9057],[23.2701,34.9071]]],[[[23.4153,34.9073],[23.4221,34.9148],[23.4212,34.9164],[23.4125,34.9121],[23.4091,34.9083],[23.411,34.9052],[23.4119,34.9036],[23.4119,34.9036],[23.4153,34.9073]]],[[[23.3236,34.9021],[23.3201,34.9031],[23.3201,34.9031],[23.3236,34.9021],[23.3253,34.9016],[23.3253,34.9016],[23.3236,34.9021]]],[[[23.2475,34.9004],[23.2468,34.9023],[23.2468,34.9023],[23.2475,34.9004],[23.2479,34.8995],[23.2479,34.8995],[23.2475,34.9004]]],[[[23.4278,34.8972],[23.4247,34.8987],[23.4247,34.8987],[23.4278,34.8972],[23.4293,34.8964],[23.4293,34.8964],[23.4278,34.8972]]],[[[23.3233,34.8936],[23.3193,34.8965],[23.3155,34.897],[23.3121,34.8952],[23.3142,34.8938],[23.3216,34.8927],[23.3254,34.8922],[23.3254,34.8922],[23.3233,34.8936]]],[[[23.3353,34.8823],[23.338,34.8834],[23.338,34.8834],[23.3353,34.8823],[23.334,34.8818],[23.334,34.8818],[23.3353,34.8823]]],[[[23.5147,34.8774],[23.5208,34.8789],[23.5201,34.883],[23.5126,34.8896],[23.5039,34.8938],[23.4938,34.8955],[23.4881,34.8951],[23.4868,34.8924],[23.4883,34.8888],[23.4926,34.8841],[23.499,34.8805],[23.5075,34.8779],[23.5117,34.8766],[23.5117,34.8766],[23.5147,34.8774]]],[[[23.2472,34.8736],[23.2487,34.8761],[23.2487,34.8761],[23.2472,34.8736],[23.2464,34.8724],[23.2464,34.8724],[23.2472,34.8736]]],[[[23.5198,34.862],[23.5225,34.8641],[23.5225,34.8641],[23.5198,34.862],[23.5184,34.8609],[23.5184,34.8609],[23.5198,34.862]]],[[[23.219,34.8545],[23.2268,34.8563],[23.2307,34.8592],[23.2307,34.8631],[23.2341,34.8644],[23.2409,34.8629],[23.2446,34.8636],[23.2451,34.8664],[23.2404,34.8691],[23.2305,34.8718],[23.2242,34.8696],[23.2216,34.8624],[23.2193,34.8596],[23.2172,34.8612],[23.2141,34.8601],[23.2101,34.8565],[23.2099,34.8544],[23.2133,34.8539],[23.2151,34.8536],[23.2151,34.8536],[23.219,34.8545]]],[[[23.1753,34.8472],[23.1729,34.8487],[23.1729,34.8487],[23.1753,34.8472],[23.1766,34.8464],[23.1766,34.8464],[23.1753,34.8472]]],[[[23.2047,34.8458],[23.2087,34.8469],[23.2087,34.8469],[23.2047,34.8458],[23.2027,34.8453],[23.2027,34.8453],[23.2047,34.8458]]],[[[23.5525,34.8393],[23.5498,34.8439],[23.5498,34.8439],[23.5525,34.8393],[23.5538,34.837],[23.5538,34.837],[23.5525,34.8393]]],[[[23.5644,34.8177],[23.5642,34.8209],[23.5632,34.8212],[23.5613,34.8185],[23.5614,34.8169],[23.5635,34.8164],[23.5645,34.8161],[23.5645,34.8161],[23.5644,34.8177]]],[[[23.5223,34.8094],[23.5259,34.8104],[23.5272,34.8135],[23.526,34.8188],[23.5316,34.8214],[23.5441,34.8214],[23.5492,34.8248],[23.5469,34.8315],[23.5433,34.8336],[23.5384,34.8311],[23.5372,34.8313],[23.5398,34.8344],[23.5403,34.8383],[23.5386,34.843],[23.5395,34.8453],[23.5432,34.8453],[23.5429,34.8482],[23.5386,34.8539],[23.5314,34.8551],[23.5212,34.8518],[23.5153,34.8532],[23.5138,34.8596],[23.51,34.8625],[23.5041,34.8622],[23.5035,34.8643],[23.5085,34.8689],[23.5062,34.8742],[23.4969,34.8801],[23.4906,34.8821],[23.4875,34.8803],[23.4841,34.8821],[23.4804,34.8876],[23.4721,34.8932],[23.4591,34.899],[23.4534,34.8986],[23.4549,34.8919],[23.4541,34.8885],[23.4511,34.8885],[23.4492,34.891],[23.4487,34.8961],[23.4476,34.897],[23.4461,34.8937],[23.4418,34.8926],[23.4347,34.8937],[23.435,34.8914],[23.4426,34.8857],[23.4447,34.8815],[23.4414,34.8789],[23.446,34.8732],[23.4587,34.8643],[23.4662,34.8557],[23.4685,34.8474],[23.4748,34.8406],[23.4851,34.8354],[23.4917,34.8289],[23.4946,34.8211],[23.5016,34.817],[23.5127,34.8166],[23.5176,34.8148],[23.5164,34.8115],[23.5169,34.8097],[23.5193,34.8092],[23.5204,34.8089],[23.5204,34.8089],[23.5223,34.8094]],[[23.45,34.8846],[23.4489,34.8866],[23.4489,34.8866],[23.45,34.8846],[23.4505,34.8836],[23.4505,34.8836],[23.45,34.8846]],[[23.4921,34.8736],[23.49,34.8749],[23.49,34.8749],[23.4921,34.8736],[23.4932,34.873],[23.4932,34.873],[23.4921,34.8736]],[[23.4735,34.8715],[23.4672,34.872],[23.4618,34.8752],[23.4571,34.8811],[23.4607,34.8822],[23.4726,34.8785],[23.4781,34.8753],[23.4771,34.8726],[23.4766,34.8712],[23.4766,34.8712],[23.4735,34.8715]],[[23.5131,34.8384],[23.5111,34.8395],[23.5111,34.8395],[23.5131,34.8384],[23.5141,34.8378],[23.5141,34.8378],[23.5131,34.8384]],[[23.5198,34.8335],[23.5209,34.837],[23.5238,34.8375],[23.5285,34.8351],[23.528,34.8333],[23.5222,34.8323],[23.5193,34.8317],[23.5193,34.8317],[23.5198,34.8335]],[[23.5202,34.8186],[23.5219,34.8197],[23.5219,34.8197],[23.5202,34.8186],[23.5193,34.818],[23.5193,34.818],[23.5202,34.8186]]],[[[23.5345,34.7966],[23.5348,34.7991],[23.5348,34.7991],[23.5345,34.7966],[23.5343,34.7953],[23.5343,34.7953],[23.5345,34.7966]]],[[[23.5983,34.7826],[23.597,34.7864],[23.5959,34.7864],[23.595,34.7826],[23.5956,34.7807],[23.5978,34.7807],[23.5989,34.7807],[23.5989,34.7807],[23.5983,34.7826]]],[[[23.5917,34.779],[23.59,34.7818],[23.59,34.7818],[23.5917,34.779],[23.5926,34.7776],[23.5926,34.7776],[23.5917,34.779]]],[[[23.5497,34.7641],[23.553,34.7662],[23.5537,34.7698],[23.552,34.775],[23.5554,34.7787],[23.5639,34.7808],[23.5601,34.7847],[23.544,34.7903],[23.5351,34.7908],[23.5336,34.7859],[23.5348,34.7818],[23.5389,34.7783],[23.5393,34.7758],[23.5361,34.7742],[23.5379,34.7737],[23.5447,34.7742],[23.5457,34.7729],[23.541,34.7698],[23.541,34.7669],[23.5457,34.7643],[23.5481,34.763],[23.5481,34.763],[23.5497,34.7641]]],[[[23.6262,34.6714],[23.6309,34.6755],[23.6309,34.6776],[23.6263,34.6776],[23.624,34.6755],[23.6238,34.6714],[23.6238,34.6693],[23.6238,34.6693],[23.6262,34.6714]]],[[[23.6396,34.6391],[23.6397,34.6474],[23.6368,34.6538],[23.6307,34.6581],[23.6265,34.6581],[23.6243,34.6538],[23.6273,34.6474],[23.6354,34.6391],[23.6395,34.6349],[23.6395,34.6349],[23.6396,34.6391]]],[[[23.7084,34.5859],[23.7111,34.5943],[23.7147,34.5977],[23.7192,34.5963],[23.7231,34.5976],[23.7265,34.6016],[23.7249,34.6044],[23.7184,34.606],[23.7115,34.605],[23.7041,34.6013],[23.7022,34.5951],[23.7055,34.5862],[23.7071,34.5818],[23.7071,34.5818],[23.7084,34.5859]]],[[[24,34.5547],[24,34.5734],[23.9913,34.585],[23.9738,34.5893],[23.9617,34.594],[23.9547,34.5991],[23.9506,34.6041],[23.9491,34.609],[23.9444,34.6118],[23.9365,34.6126],[23.9289,34.6154],[23.9218,34.6203],[23.9111,34.6226],[23.8968,34.6225],[23.8846,34.6246],[23.8744,34.6289],[23.8687,34.6296],[23.8676,34.6269],[23.8624,34.6315],[23.8531,34.6434],[23.8436,34.6515],[23.8341,34.6557],[23.8272,34.6612],[23.8229,34.668],[23.8134,34.6768],[23.7985,34.6875],[23.7888,34.6977],[23.7841,34.7076],[23.773,34.7208],[23.7553,34.7375],[23.7261,34.7579],[23.6854,34.7819],[23.6589,34.7998],[23.6464,34.8114],[23.6378,34.8219],[23.6328,34.8312],[23.6271,34.8368],[23.6205,34.8386],[23.6141,34.8428],[23.6078,34.8493],[23.6036,34.8552],[23.6016,34.8604],[23.5946,34.8656],[23.5828,34.8708],[23.5635,34.8914],[23.5367,34.9273],[23.5258,34.9487],[23.5309,34.9555],[23.5326,34.9641],[23.531,34.9745],[23.5329,34.9848],[23.5384,34.9949],[23.5062,35],[23.4365,35],[23.4018,34.9988],[23.4023,34.9963],[23.4013,34.9963],[23.3987,34.9988],[23.2981,34.9999],[23.0994,34.9996],[23.0001,34.9572],[23.0004,34.8725],[23.0057,34.8292],[23.0162,34.8271],[23.0201,34.8289],[23.0174,34.8348],[23.0224,34.8386],[23.0349,34.8405],[23.0474,34.8393],[23.0598,34.835],[23.0721,34.8324],[23.0841,34.8313],[23.0935,34.8326],[23.1002,34.8363],[23.1101,34.8365],[23.1232,34.8332],[23.1315,34.8338],[23.1352,34.8382],[23.137,34.8389],[23.137,34.8358],[23.1399,34.8353],[23.1456,34.8372],[23.1489,34.8403],[23.15,34.8444],[23.1524,34.846],[23.1563,34.8448],[23.1597,34.8468],[23.1626,34.8518],[23.1701,34.8533],[23.182,34.8513],[23.1878,34.8525],[23.1873,34.8568],[23.1905,34.8592],[23.1972,34.8598],[23.2008,34.8587],[23.2013,34.856],[23.2066,34.8587],[23.2164,34.8668],[23.2177,34.871],[23.2102,34.8713],[23.2081,34.8738],[23.2114,34.8786],[23.2182,34.8798],[23.2287,34.8774],[23.2351,34.8776],[23.2376,34.8804],[23.235,34.8824],[23.2273,34.8837],[23.2264,34.8881],[23.2323,34.8957],[23.2306,34.8979],[23.2214,34.8948],[23.2161,34.898],[23.2148,34.9076],[23.2198,34.9121],[23.2313,34.9114],[23.2427,34.9138],[23.2542,34.9191],[23.2617,34.9193],[23.2654,34.9143],[23.2702,34.9137],[23.2762,34.9174],[23.2801,34.9224],[23.2819,34.9287],[23.2847,34.9305],[23.2885,34.9279],[23.2895,34.9248],[23.2876,34.9211],[23.2891,34.919],[23.294,34.9185],[23.2971,34.9206],[23.2985,34.9253],[23.2963,34.9297],[23.2904,34.9338],[23.2899,34.9359],[23.2947,34.9359],[23.2972,34.9372],[23.2976,34.9398],[23.2962,34.9406],[23.2931,34.9396],[23.2896,34.9412],[23.2858,34.9453],[23.2873,34.9464],[23.294,34.9442],[23.2992,34.9446],[23.3029,34.9476],[23.3045,34.946],[23.304,34.94],[23.3055,34.9354],[23.3091,34.9323],[23.3104,34.9331],[23.3093,34.9378],[23.3108,34.945],[23.3151,34.9547],[23.3188,34.9591],[23.322,34.9582],[23.3241,34.9536],[23.325,34.9451],[23.3279,34.9454],[23.3326,34.9544],[23.3378,34.9603],[23.3435,34.9631],[23.3474,34.96],[23.3495,34.9509],[23.3549,34.9489],[23.3638,34.9538],[23.3687,34.951],[23.3698,34.9406],[23.3714,34.9388],[23.3735,34.9454],[23.3779,34.9479],[23.3846,34.946],[23.3909,34.9472],[23.3966,34.9513],[23.3997,34.9519],[23.4003,34.9489],[23.3974,34.9443],[23.3911,34.938],[23.3883,34.9328],[23.389,34.9287],[23.3875,34.9256],[23.384,34.9235],[23.3844,34.9201],[23.3889,34.9156],[23.3975,34.9182],[23.4104,34.9279],[23.4186,34.9359],[23.4221,34.9422],[23.423,34.9461],[23.4213,34.9476],[23.424,34.9471],[23.4313,34.9444],[23.4373,34.9446],[23.4419,34.9479],[23.4433,34.9479],[23.4414,34.9448],[23.4416,34.9429],[23.4441,34.9425],[23.4479,34.9446],[23.4531,34.9495],[23.4567,34.9508],[23.4587,34.9485],[23.4582,34.9454],[23.4551,34.9414],[23.4557,34.9414],[23.4599,34.9454],[23.4642,34.9461],[23.4685,34.9435],[23.4679,34.9404],[23.4624,34.9367],[23.4603,34.9339],[23.4616,34.9318],[23.4641,34.9301],[23.4676,34.9288],[23.47,34.9293],[23.4713,34.9316],[23.4694,34.9333],[23.4643,34.9344],[23.4645,34.9367],[23.4698,34.9402],[23.4758,34.9374],[23.4825,34.9282],[23.49,34.9217],[23.4983,34.918],[23.5001,34.9161],[23.4955,34.916],[23.4896,34.919],[23.4823,34.9251],[23.4772,34.9267],[23.4745,34.9238],[23.475,34.9195],[23.4788,34.9136],[23.4875,34.9074],[23.501,34.9008],[23.5081,34.8991],[23.5086,34.9024],[23.51,34.9034],[23.5123,34.9022],[23.5128,34.8998],[23.5115,34.8961],[23.5122,34.8946],[23.5148,34.8951],[23.5193,34.8904],[23.5257,34.8805],[23.527,34.8763],[23.5233,34.8778],[23.5196,34.8764],[23.5159,34.8719],[23.5167,34.8704],[23.5219,34.8717],[23.5245,34.8706],[23.5245,34.8671],[23.5266,34.8652],[23.5307,34.8649],[23.5326,34.866],[23.532,34.8685],[23.5357,34.864],[23.5435,34.8526],[23.5591,34.8384],[23.5824,34.8215],[23.5942,34.8109],[23.5945,34.8068],[23.5918,34.8023],[23.5859,34.7977],[23.5853,34.795],[23.5899,34.7945],[23.593,34.7964],[23.5945,34.8008],[23.5974,34.8031],[23.6015,34.8032],[23.6067,34.8002],[23.613,34.7939],[23.6177,34.7862],[23.6208,34.7771],[23.6265,34.7696],[23.6347,34.7638],[23.6376,34.76],[23.6351,34.7581],[23.6316,34.7592],[23.6269,34.7631],[23.6159,34.7663],[23.5986,34.769],[23.5892,34.7688],[23.5878,34.7657],[23.5889,34.761],[23.5925,34.7547],[23.6041,34.7492],[23.6238,34.7445],[23.6261,34.7434],[23.6111,34.7458],[23.6026,34.7456],[23.6005,34.7428],[23.5959,34.743],[23.5885,34.7462],[23.5837,34.7433],[23.5813,34.7342],[23.5811,34.7273],[23.583,34.7226],[23.58,34.7244],[23.5721,34.7328],[23.5666,34.7427],[23.5634,34.7542],[23.5581,34.7602],[23.5508,34.7607],[23.5487,34.7567],[23.552,34.7482],[23.5556,34.7441],[23.5597,34.7442],[23.5652,34.7383],[23.5721,34.7263],[23.5744,34.719],[23.5721,34.7164],[23.5737,34.7112],[23.579,34.7034],[23.5802,34.6979],[23.5775,34.6948],[23.5778,34.6919],[23.5812,34.6893],[23.5821,34.6854],[23.5804,34.6802],[23.5851,34.674],[23.5963,34.6666],[23.6029,34.6617],[23.6048,34.6591],[23.6047,34.6544],[23.6024,34.6477],[23.6089,34.6362],[23.6242,34.6199],[23.6324,34.6154],[23.6335,34.6229],[23.6286,34.6326],[23.6179,34.6445],[23.6137,34.6539],[23.616,34.6606],[23.6143,34.6644],[23.6086,34.6653],[23.6065,34.6665],[23.6081,34.6681],[23.6067,34.6713],[23.6024,34.6762],[23.5996,34.689],[23.5981,34.7097],[23.5992,34.7187],[23.6029,34.7158],[23.6091,34.7145],[23.6179,34.7149],[23.6195,34.7112],[23.6138,34.7034],[23.6133,34.6965],[23.618,34.6905],[23.626,34.6933],[23.6375,34.705],[23.6491,34.7074],[23.6608,34.7008],[23.6667,34.6904],[23.6666,34.6763],[23.6697,34.6594],[23.676,34.6396],[23.6772,34.6248],[23.6735,34.6149],[23.6731,34.6084],[23.6761,34.6055],[23.6792,34.6037],[23.6823,34.6032],[23.6848,34.6054],[23.6865,34.6105],[23.6942,34.618],[23.7077,34.6279],[23.7108,34.6385],[23.7033,34.65],[23.7058,34.6552],[23.7182,34.6542],[23.7389,34.6438],[23.7676,34.624],[23.7795,34.612],[23.7748,34.6077],[23.7651,34.6055],[23.7507,34.6057],[23.7454,34.6007],[23.7496,34.5908],[23.7539,34.5843],[23.7586,34.5813],[23.7651,34.583],[23.7734,34.5894],[23.7831,34.5912],[23.794,34.5882],[23.8235,34.5902],[23.8714,34.597],[23.9047,34.5973],[23.9234,34.5912],[23.9383,34.5805],[23.9494,34.5654],[23.9606,34.5568],[23.9719,34.5548],[23.98,34.5515],[23.9846,34.547],[23.9903,34.5448],[23.9968,34.5452],[24,34.5453],[24,34.5453],[24,34.5547]],[[23.4204,34.9604],[23.4081,34.9677],[23.4023,34.9757],[23.4032,34.9842],[23.4041,34.9862],[23.4052,34.9815],[23.407,34.9805],[23.4096,34.9833],[23.4112,34.9829],[23.4117,34.9795],[23.4132,34.9782],[23.4157,34.9792],[23.4154,34.9771],[23.4123,34.9719],[23.4151,34.9677],[23.4236,34.9646],[23.4276,34.9614],[23.4269,34.9583],[23.4266,34.9567],[23.4266,34.9567],[23.4204,34.9604]],[[23.3839,34.9527],[23.3839,34.9553],[23.382,34.9564],[23.3783,34.9559],[23.3767,34.958],[23.3773,34.9625],[23.3824,34.9638],[23.3918,34.9619],[23.3934,34.9585],[23.3871,34.9538],[23.3839,34.9514],[23.3839,34.9514],[23.3839,34.9527]],[[23.4192,34.9493],[23.4214,34.9515],[23.4214,34.9515],[23.4192,34.9493],[23.4182,34.9482],[23.4182,34.9482],[23.4192,34.9493]],[[23.4351,34.9493],[23.4313,34.9522],[23.43,34.9547],[23.4312,34.9569],[23.4341,34.9573],[23.4388,34.9559],[23.4401,34.9534],[23.438,34.9497],[23.437,34.9479],[23.437,34.9479],[23.4351,34.9493]],[[23.2778,34.931],[23.2801,34.9322],[23.2801,34.9322],[23.2778,34.931],[23.2766,34.9304],[23.2766,34.9304],[23.2778,34.931]],[[23.2021,34.8923],[23.201,34.8948],[23.201,34.8948],[23.2021,34.8923],[23.2026,34.8911],[23.2026,34.8911],[23.2021,34.8923]],[[23.1874,34.8888],[23.1839,34.889],[23.1848,34.8899],[23.1903,34.8914],[23.192,34.8913],[23.1901,34.8896],[23.1891,34.8887],[23.1891,34.8887],[23.1874,34.8888]],[[23.1838,34.8767],[23.1817,34.878],[23.1866,34.8802],[23.1987,34.8833],[23.1997,34.8827],[23.1899,34.8782],[23.1849,34.876],[23.1849,34.876],[23.1838,34.8767]],[[23.1672,34.8675],[23.1694,34.8694],[23.1694,34.8694],[23.1672,34.8675],[23.1661,34.8666],[23.1661,34.8666],[23.1672,34.8675]],[[23.5504,34.8588],[23.548,34.8609],[23.548,34.8609],[23.5504,34.8588],[23.5516,34.8577],[23.5516,34.8577],[23.5504,34.8588]],[[23.1401,34.8488],[23.1422,34.8543],[23.1461,34.8575],[23.1519,34.8584],[23.1509,34.8557],[23.143,34.8493],[23.1391,34.8461],[23.1391,34.8461],[23.1401,34.8488]],[[23.68,34.6607],[23.6805,34.6646],[23.6805,34.6646],[23.68,34.6607],[23.6797,34.6588],[23.6797,34.6588],[23.68,34.6607]],[[23.8061,34.6419],[23.8026,34.6456],[23.8025,34.6474],[23.8056,34.6474],[23.8073,34.6456],[23.8076,34.6419],[23.8078,34.64],[23.8078,34.64],[23.8061,34.6419]],[[23.7776,34.5976],[23.7757,34.6003],[23.7757,34.6003],[23.7776,34.5976],[23.7786,34.5962],[23.7786,34.5962],[23.7776,34.5976]]]]}},{"type":"Feature","properties":{"depth":3000,"kind":"isobath"},"geometry":{"type":"MultiLineString","coordinates":[[[23.4069,34.9745],[23.4082,34.9753],[23.4106,34.9768],[23.4106,34.9768],[23.4082,34.9753],[23.4069,34.9745]],[[23.3658,34.9443],[23.3642,34.9448],[23.3609,34.9459],[23.3609,34.9459],[23.3642,34.9448],[23.3658,34.9443]],[[23.4612,34.938],[23.4611,34.9395],[23.461,34.9424],[23.461,34.9424],[23.4611,34.9395],[23.4612,34.938]],[[23.4726,34.9276],[23.4725,34.9286],[23.4725,34.9307],[23.4725,34.9307],[23.4725,34.9286],[23.4726,34.9276]],[[23.4083,34.9109],[23.4074,34.9117],[23.4056,34.9134],[23.4056,34.9134],[23.4074,34.9117],[23.4083,34.9109]],[[23.2697,34.9057],[23.2701,34.9071],[23.271,34.91],[23.271,34.91],[23.2701,34.9071],[23.2697,34.9057]],[[23.4119,34.9036],[23.4153,34.9073],[23.4221,34.9148],[23.4212,34.9164],[23.4125,34.9121],[23.4091,34.9083],[23.411,34.9052],[23.4119,34.9036]],[[23.3253,34.9016],[23.3236,34.9021],[23.3201,34.9031],[23.3201,34.9031],[23.3236,34.9021],[23.3253,34.9016]],[[23.2479,34.8995],[23.2475,34.9004],[23.2468,34.9023],[23.2468,34.9023],[23.2475,34.9004],[23.2479,34.8995]],[[23.4293,34.8964],[23.4278,34.8972],[23.4247,34.8987],[23.4247,34.8987],[23.4278,34.8972],[23.4293,34.8964]],[[23.3254,34.8922],[23.3233,34.8936],[23.3193,34.8965],[23.3155,34.897],[23.3121,34.8952],[23.3142,34.8938],[23.3216,34.8927],[23.3254,34.8922]],[[23.334,34.8818],[23.3353,34.8823],[23.338,34.8834],[23.338,34.8834],[23.3353,34.8823],[23.334,34.8818]],[[23.5117,34.8766],[23.5147,34.8774],[23.5208,34.8789],[23.5201,34.883],[23.5126,34.8896],[23.5039,34.8938],[23.4938,34.8955],[23.4881,34.8951],[23.4868,34.8924],[23.4883,34.8888],[23.4926,34.8841],[23.499,34.8805],[23.5075,34.8779],[23.5117,34.8766]],[[23.2464,34.8724],[23.2472,34.8736],[23.2487,34.8761],[23.2487,34.8761],[23.2472,34.8736],[23.2464,34.8724]],[[23.5184,34.8609],[23.5198,34.862],[23.5225,34.8641],[23.5225,34.8641],[23.5198,34.862],[23.5184,34.8609]],[[23.2151,34.8536],[23.219,34.8545],[23.2268,34.8563],[23.2307,34.8592],[23.2307,34.8631],[23.2341,34.8644],[23.2409,34.8629],[23.2446,34.8636],[23.2451,34.8664],[23.2404,34.8691],[23.2305,34.8718],[23.2242,34.8696],[23.2216,34.8624],[23.2193,34.8596],[23.2172,34.8612],[23.2141,34.8601],[23.2101,34.8565],[23.2099,34.8544],[23.2133,34.8539],[23.2151,34.8536]],[[23.1766,34.8464],[23.1753,34.8472],[23.1729,34.8487],[23.1729,34.8487],[23.1753,34.8472],[23.1766,34.8464]],[[23.2027,34.8453],[23.2047,34.8458],[23.2087,34.8469],[23.2087,34.8469],[23.2047,34.8458],[23.2027,34.8453]],[[23.5538,34.837],[23.5525,34.8393],[23.5498,34.8439],[23.5498,34.8439],[23.5525,34.8393],[23.5538,34.837]],[[23.5645,34.8161],[23.5644,34.8177],[23.5642,34.8209],[23.5632,34.8212],[23.5613,34.8185],[23.5614,34.8169],[23.5635,34.8164],[23.5645,34.8161]],[[23.5204,34.8089],[23.5223,34.8094],[23.5259,34.8104],[23.5272,34.8135],[23.526,34.8188],[23.5316,34.8214],[23.5441,34.8214],[23.5492,34.8248],[23.5469,34.8315],[23.5433,34.8336],[23.5384,34.8311],[23.5372,34.8313],[23.5398,34.8344],[23.5403,34.8383],[23.5386,34.843],[23.5395,34.8453],[23.5432,34.8453],[23.5429,34.8482],[23.5386,34.8539],[23.5314,34.8551],[23.5212,34.8518],[23.5153,34.8532],[23.5138,34.8596],[23.51,34.8625],[23.5041,34.8622],[23.5035,34.8643],[23.5085,34.8689],[23.5062,34.8742],[23.4969,34.8801],[23.4906,34.8821],[23.4875,34.8803],[23.4841,34.8821],[23.4804,34.8876],[23.4721,34.8932],[23.4591,34.899],[23.4534,34.8986],[23.4549,34.8919],[23.4541,34.8885],[23.4511,34.8885],[23.4492,34.891],[23.4487,34.8961],[23.4476,34.897],[23.4461,34.8937],[23.4418,34.8926],[23.4347,34.8937],[23.435,34.8914],[23.4426,34.8857],[23.4447,34.8815],[23.4414,34.8789],[23.446,34.8732],[23.4587,34.8643],[23.4662,34.8557],[23.4685,34.8474],[23.4748,34.8406],[23.4851,34.8354],[23.4917,34.8289],[23.4946,34.8211],[23.5016,34.817],[23.5127,34.8166],[23.5176,34.8148],[23.5164,34.8115],[23.5169,34.8097],[23.5193,34.8092],[23.5204,34.8089]],[[23.4505,34.8836],[23.45,34.8846],[23.4489,34.8866],[23.4489,34.8866],[23.45,34.8846],[23.4505,34.8836]],[[23.4932,34.873],[23.4921,34.8736],[23.49,34.8749],[23.49,34.8749],[23.4921,34.8736],[23.4932,34.873]],[[23.4766,34.8712],[23.4735,34.8715],[23.4672,34.872],[23.4618,34.8752],[23.4571,34.8811],[23.4607,34.8822],[23.4726,34.8785],[23.4781,34.8753],[23.4771,34.8726],[23.4766,34.8712]],[[23.5141,34.8378],[23.5131,34.8384],[23.5111,34.8395],[23.5111,34.8395],[23.5131,34.8384],[23.5141,34.8378]],[[23.5193,34.8317],[23.5198,34.8335],[23.5209,34.837],[23.5238,34.8375],[23.5285,34.8351],[23.528,34.8333],[23.5222,34.8323],[23.5193,34.8317]],[[23.5193,34.818],[23.5202,34.8186],[23.5219,34.8197],[23.5219,34.8197],[23.5202,34.8186],[23.5193,34.818]],[[23.5343,34.7953],[23.5345,34.7966],[23.5348,34.7991],[23.5348,34.7991],[23.5345,34.7966],[23.5343,34.7953]],[[23.5989,34.7807],[23.5983,34.7826],[23.597,34.7864],[23.5959,34.7864],[23.595,34.7826],[23.5956,34.7807],[23.5978,34.7807],[23.5989,34.7807]],[[23.5926,34.7776],[23.5917,34.779],[23.59,34.7818],[23.59,34.7818],[23.5917,34.779],[23.5926,34.7776]],[[23.5481,34.763],[23.5497,34.7641],[23.553,34.7662],[23.5537,34.7698],[23.552,34.775],[23.5554,34.7787],[23.5639,34.7808],[23.5601,34.7847],[23.544,34.7903],[23.5351,34.7908],[23.5336,34.7859],[23.5348,34.7818],[23.5389,34.7783],[23.5393,34.7758],[23.5361,34.7742],[23.5379,34.7737],[23.5447,34.7742],[23.5457,34.7729],[23.541,34.7698],[23.541,34.7669],[23.5457,34.7643],[23.5481,34.763]],[[23.6238,34.6693],[23.6262,34.6714],[23.6309,34.6755],[23.6309,34.6776],[23.6263,34.6776],[23.624,34.6755],[23.6238,34.6714],[23.6238,34.6693]],[[23.6395,34.6349],[23.6396,34.6391],[23.6397,34.6474],[23.6368,34.6538],[23.6307,34.6581],[23.6265,34.6581],[23.6243,34.6538],[23.6273,34.6474],[23.6354,34.6391],[23.6395,34.6349]],[[23.7071,34.5818],[23.7084,34.5859],[23.7111,34.5943],[23.7147,34.5977],[23.7192,34.5963],[23.7231,34.5976],[23.7265,34.6016],[23.7249,34.6044],[23.7184,34.606],[23.7115,34.605],[23.7041,34.6013],[23.7022,34.5951],[23.7055,34.5862],[23.7071,34.5818]],[[23.9651,34.5915],[23.9617,34.594],[23.9547,34.5991],[23.9506,34.6041],[23.9491,34.609],[23.9444,34.6118],[23.9365,34.6126],[23.9289,34.6154],[23.9218,34.6203],[23.9111,34.6226],[23.8968,34.6225],[23.8846,34.6246],[23.8744,34.6289],[23.8687,34.6296],[23.8676,34.6269],[23.8624,34.6315],[23.8531,34.6434],[23.8436,34.6515],[23.8341,34.6557],[23.8272,34.6612],[23.8229,34.668],[23.8134,34.6768],[23.7985,34.6875],[23.7888,34.6977],[23.7841,34.7076],[23.773,34.7208],[23.7553,34.7375],[23.7261,34.7579],[23.6854,34.7819],[23.6589,34.7998],[23.6464,34.8114],[23.6378,34.8219],[23.6328,34.8312],[23.6271,34.8368],[23.6205,34.8386],[23.6141,34.8428],[23.6078,34.8493],[23.6036,34.8552],[23.6016,34.8604],[23.5946,34.8656],[23.5828,34.8708],[23.5635,34.8914],[23.5367,34.9273],[23.5258,34.9487],[23.5309,34.9555],[23.5326,34.9641],[23.531,34.9745],[23.5302,34.9797]],[[23.0005,34.8302],[23.0057,34.8292],[23.0162,34.8271],[23.0201,34.8289],[23.0174,34.8348],[23.0224,34.8386],[23.0349,34.8405],[23.0474,34.8393],[23.0598,34.835],[23.0721,34.8324],[23.0841,34.8313],[23.0935,34.8326],[23.1002,34.8363],[23.1101,34.8365],[23.1232,34.8332],[23.1315,34.8338],[23.1352,34.8382],[23.137,34.8389],[23.137,34.8358],[23.1399,34.8353],[23.1456,34.8372],[23.1489,34.8403],[23.15,34.8444],[23.1524,34.846],[23.1563,34.8448],[23.1597,34.8468],[23.1626,34.8518],[23.1701,34.8533],[23.182,34.8513],[23.1878,34.8525],[23.1873,34.8568],[23.1905,34.8592],[23.1972,34.8598],[23.2008,34.8587],[23.2013,34.856],[23.2066,34.8587],[23.2164,34.8668],[23.2177,34.871],[23.2102,34.8713],[23.2081,34.8738],[23.2114,34.8786],[23.2182,34.8798],[23.2287,34.8774],[23.2351,34.8776],[23.2376,34.8804],[23.235,34.8824],[23.2273,34.8837],[23.2264,34.8881],[23.2323,34.8957],[23.2306,34.8979],[23.2214,34.8948],[23.2161,34.898],[23.2148,34.9076],[23.2198,34.9121],[23.2313,34.9114],[23.2427,34.9138],[23.2542,34.9191],[23.2617,34.9193],[23.2654,34.9143],[23.2702,34.9137],[23.2762,34.9174],[23.2801,34.9224],[23.2819,34.9287],[23.2847,34.9305],[23.2885,34.9279],[23.2895,34.9248],[23.2876,34.9211],[23.2891,34.919],[23.294,34.9185],[23.2971,34.9206],[23.2985,34.9253],[23.2963,34.9297],[23.2904,34.9338],[23.2899,34.9359],[23.2947,34.9359],[23.2972,34.9372],[23.2976,34.9398],[23.2962,34.9406],[23.2931,34.9396],[23.2896,34.9412],[23.2858,34.9453],[23.2873,34.9464],[23.294,34.9442],[23.2992,34.9446],[23.3029,34.9476],[23.3045,34.946],[23.304,34.94],[23.3055,34.9354],[23.3091,34.9323],[23.3104,34.9331],[23.3093,34.9378],[23.3108,34.945],[23.3151,34.9547],[23.3188,34.9591],[23.322,34.9582],[23.3241,34.9536],[23.325,34.9451],[23.3279,34.9454],[23.3326,34.9544],[23.3378,34.9603],[23.3435,34.9631],[23.3474,34.96],[23.3495,34.9509],[23.3549,34.9489],[23.3638,34.9538],[23.3687,34.951],[23.3698,34.9406],[23.3714,34.9388],[23.3735,34.9454],[23.3779,34.9479],[23.3846,34.946],[23.3909,34.9472],[23.3966,34.9513],[23.3997,34.9519],[23.4003,34.9489],[23.3974,34.9443],[23.3911,34.938],[23.3883,34.9328],[23.389,34.9287],[23.3875,34.9256],[23.384,34.9235],[23.3844,34.9201],[23.3889,34.9156],[23.3975,34.9182],[23.4104,34.9279],[23.4186,34.9359],[23.4221,34.9422],[23.423,34.9461],[23.4213,34.9476],[23.424,34.9471],[23.4313,34.9444],[23.4373,34.9446],[23.4419,34.9479],[23.4433,34.9479],[23.4414,34.9448],[23.4416,34.9429],[23.4441,34.9425],[23.4479,34.9446],[23.4531,34.9495],[23.4567,34.9508],[23.4587,34.9485],[23.4582,34.9454],[23.4551,34.9414],[23.4557,34.9414],[23.4599,34.9454],[23.4642,34.9461],[23.4685,34.9435],[23.4679,34.9404],[23.4624,34.9367],[23.4603,34.9339],[23.4616,34.9318],[23.4641,34.9301],[23.4676,34.9288],[23.47,34.9293],[23.4713,34.9316],[23.4694,34.9333],[23.4643,34.9344],[23.4645,34.9367],[23.4698,34.9402],[23.4758,34.9374],[23.4825,34.9282],[23.49,34.9217],[23.4983,34.918],[23.5001,34.9161],[23.4955,34.916],[23.4896,34.919],[23.4823,34.9251],[23.4772,34.9267],[23.4745,34.9238],[23.475,34.9195],[23.4788,34.9136],[23.4875,34.9074],[23.501,34.9008],[23.5081,34.8991],[23.5086,34.9024],[23.51,34.9034],[23.5123,34.9022],[23.5128,34.8998],[23.5115,34.8961],[23.5122,34.8946],[23.5148,34.8951],[23.5193,34.8904],[23.5257,34.8805],[23.527,34.8763],[23.5233,34.8778],[23.5196,34.8764],[23.5159,34.8719],[23.5167,34.8704],[23.5219,34.8717],[23.5245,34.8706],[23.5245,34.8671],[23.5266,34.8652],[23.5307,34.8649],[23.5326,34.866],[23.532,34.8685],[23.5357,34.864],[23.5435,34.8526],[23.5591,34.8384],[23.5824,34.8215],[23.5942,34.8109],[23.5945,34.8068],[23.5918,34.8023],[23.5859,34.7977],[23.5853,34.795],[23.5899,34.7945],[23.593,34.7964],[23.5945,34.8008],[23.5974,34.8031],[23.6015,34.8032],[23.6067,34.8002],[23.613,34.7939],[23.6177,34.7862],[23.6208,34.7771],[23.6265,34.7696],[23.6347,34.7638],[23.6376,34.76],[23.6351,34.7581],[23.6316,34.7592],[23.6269,34.7631],[23.6159,34.7663],[23.5986,34.769],[23.5892,34.7688],[23.5878,34.7657],[23.5889,34.761],[23.5925,34.7547],[23.6041,34.7492],[23.6238,34.7445],[23.6261,34.7434],[23.6111,34.7458],[23.6026,34.7456],[23.6005,34.7428],[23.5959,34.743],[23.5885,34.7462],[23.5837,34.7433],[23.5813,34.7342],[23.5811,34.7273],[23.583,34.7226],[23.58,34.7244],[23.5721,34.7328],[23.5666,34.7427],[23.5634,34.7542],[23.5581,34.7602],[23.5508,34.7607],[23.5487,34.7567],[23.552,34.7482],[23.5556,34.7441],[23.5597,34.7442],[23.5652,34.7383],[23.5721,34.7263],[23.5744,34.719],[23.5721,34.7164],[23.5737,34.7112],[23.579,34.7034],[23.5802,34.6979],[23.5775,34.6948],[23.5778,34.6919],[23.5812,34.6893],[23.5821,34.6854],[23.5804,34.6802],[23.5851,34.674],[23.5963,34.6666],[23.6029,34.6617],[23.6048,34.6591],[23.6047,34.6544],[23.6024,34.6477],[23.6089,34.6362],[23.6242,34.6199],[23.6324,34.6154],[23.6335,34.6229],[23.6286,34.6326],[23.6179,34.6445],[23.6137,34.6539],[23.616,34.6606],[23.6143,34.6644],[23.6086,34.6653],[23.6065,34.6665],[23.6081,34.6681],[23.6067,34.6713],[23.6024,34.6762],[23.5996,34.689],[23.5981,34.7097],[23.5992,34.7187],[23.6029,34.7158],[23.6091,34.7145],[23.6179,34.7149],[23.6195,34.7112],[23.6138,34.7034],[23.6133,34.6965],[23.618,34.6905],[23.626,34.6933],[23.6375,34.705],[23.6491,34.7074],[23.6608,34.7008],[23.6667,34.6904],[23.6666,34.6763],[23.6697,34.6594],[23.676,34.6396],[23.6772,34.6248],[23.6735,34.6149],[23.6731,34.6084],[23.6761,34.6055],[23.6792,34.6037],[23.6823,34.6032],[23.6848,34.6054],[23.6865,34.6105],[23.6942,34.618],[23.7077,34.6279],[23.7108,34.6385],[23.7033,34.65],[23.7058,34.6552],[23.7182,34.6542],[23.7389,34.6438],[23.7676,34.624],[23.7795,34.612],[23.7748,34.6077],[23.7651,34.6055],[23.7507,34.6057],[23.7454,34.6007],[23.7496,34.5908],[23.7539,34.5843],[23.7586,34.5813],[23.7651,34.583],[23.7734,34.5894],[23.7831,34.5912],[23.794,34.5882],[23.8235,34.5902],[23.8714,34.597],[23.9047,34.5973],[23.9234,34.5912],[23.9383,34.5805],[23.9494,34.5654],[23.9606,34.5568],[23.9719,34.5548],[23.98,34.5515],[23.9846,34.547],[23.987,34.5447]],[[23.4266,34.9567],[23.4204,34.9604],[23.4081,34.9677],[23.4023,34.9757],[23.4032,34.9842],[23.4041,34.9862],[23.4052,34.9815],[23.407,34.9805],[23.4096,34.9833],[23.4112,34.9829],[23.4117,34.9795],[23.4132,34.9782],[23.4157,34.9792],[23.4154,34.9771],[23.4123,34.9719],[23.4151,34.9677],[23.4236,34.9646],[23.4276,34.9614],[23.4269,34.9583],[23.4266,34.9567]],[[23.3839,34.9514],[23.3839,34.9527],[23.3839,34.9553],[23.382,34.9564],[23.3783,34.9559],[23.3767,34.958],[23.3773,34.9625],[23.3824,34.9638],[23.3918,34.9619],[23.3934,34.9585],[23.3871,34.9538],[23.3839,34.9514]],[[23.4182,34.9482],[23.4192,34.9493],[23.4214,34.9515],[23.4214,34.9515],[23.4192,34.9493],[23.4182,34.9482]],[[23.437,34.9479],[23.4351,34.9493],[23.4313,34.9522],[23.43,34.9547],[23.4312,34.9569],[23.4341,34.9573],[23.4388,34.9559],[23.4401,34.9534],[23.438,34.9497],[23.437,34.9479]],[[23.2766,34.9304],[23.2778,34.931],[23.2801,34.9322],[23.2801,34.9322],[23.2778,34.931],[23.2766,34.9304]],[[23.2026,34.8911],[23.2021,34.8923],[23.201,34.8948],[23.201,34.8948],[23.2021,34.8923],[23.2026,34.8911]],[[23.1891,34.8887],[23.1874,34.8888],[23.1839,34.889],[23.1848,34.8899],[23.1903,34.8914],[23.192,34.8913],[23.1901,34.8896],[23.1891,34.8887]],[[23.1849,34.876],[23.1838,34.8767],[23.1817,34.878],[23.1866,34.8802],[23.1987,34.8833],[23.1997,34.8827],[23.1899,34.8782],[23.1849,34.876]],[[23.1661,34.8666],[23.1672,34.8675],[23.1694,34.8694],[23.1694,34.8694],[23.1672,34.8675],[23.1661,34.8666]],[[23.5516,34.8577],[23.5504,34.8588],[23.548,34.8609],[23.548,34.8609],[23.5504,34.8588],[23.5516,34.8577]],[[23.1391,34.8461],[23.1401,34.8488],[23.1422,34.8543],[23.1461,34.8575],[23.1519,34.8584],[23.1509,34.8557],[23.143,34.8493],[23.1391,34.8461]],[[23.6797,34.6588],[23.68,34.6607],[23.6805,34.6646],[23.6805,34.6646],[23.68,34.6607],[23.6797,34.6588]],[[23.8078,34.64],[23.8061,34.6419],[23.8026,34.6456],[23.8025,34.6474],[23.8056,34.6474],[23.8073,34.6456],[23.8076,34.6419],[23.8078,34.64]],[[23.7786,34.5962],[23.7776,34.5976],[23.7757,34.6003],[23.7757,34.6003],[23.7776,34.5976],[23.7786,34.5962]]]}}]}