{"type":"FeatureCollection","features":[{"type":"Feature","properties":{"depth":5,"kind":"band"},"geometry":{"type":"MultiPolygon","coordinates":[[[[25.1248,41.0904],[25.1245,41.0908],[25.1244,41.0908],[25.1242,41.0904],[25.1244,41.0901],[25.1247,41.0901],[25.1249,41.0901],[25.1249,41.0901],[25.1248,41.0904]]],[[[25.129,41.0891],[25.1283,41.0891],[25.1283,41.0891],[25.129,41.0891],[25.1293,41.0891],[25.1293,41.0891],[25.129,41.0891]]],[[[25.1639,41.0401],[25.1624,41.0401],[25.162,41.0399],[25.1627,41.0395],[25.1634,41.0395],[25.1642,41.0399],[25.1646,41.0401],[25.1646,41.0401],[25.1639,41.0401]]],[[[25.0912,41.0204],[25.0905,41.0208],[25.0901,41.0206],[25.0901,41.0201],[25.0905,41.0199],[25.0912,41.0202],[25.0916,41.0203],[25.0916,41.0203],[25.0912,41.0204]]]]}},{"type":"Feature","properties":{"depth":5,"kind":"isobath"},"geometry":{"type":"MultiLineString","coordinates":[[[25.1249,41.0901],[25.1248,41.0904],[25.1245,41.0908],[25.1244,41.0908],[25.1242,41.0904],[25.1244,41.0901],[25.1247,41.0901],[25.1249,41.0901]],[[25.1293,41.0891],[25.129,41.0891],[25.1283,41.0891],[25.1283,41.0891],[25.129,41.0891],[25.1293,41.0891]],[[25.1646,41.0401],[25.1639,41.0401],[25.1624,41.0401],[25.162,41.0399],[25.1627,41.0395],[25.1634,41.0395],[25.1642,41.0399],[25.1646,41.0401]],[[25.0916,41.0203],[25.0912,41.0204],[25.0905,41.0208],[25.0901,41.0206],[25.0901,41.0201],[25.0905,41.0199],[25.0912,41.0202],[25.0916,41.0203]]]}}]}