{"type":"FeatureCollection","features":[{"type":"Feature","properties":{"depth":5,"kind":"band"},"geometry":{"type":"MultiPolygon","coordinates":[[[[28,34.0005],[28,34.9995],[27.9995,35],[27.0005,35],[27,34.9995],[27,34.0005],[27.0005,34],[27.9995,34],[28,34.0005]]]]}},{"type":"Feature","properties":{"depth":10,"kind":"band"},"geometry":{"type":"MultiPolygon","coordinates":[[[[28,34.0005],[28,34.9995],[27.9995,35],[27.0005,35],[27,34.9995],[27,34.0005],[27.0005,34],[27.9995,34],[28,34.0005]]]]}},{"type":"Feature","properties":{"depth":20,"kind":"band"},"geometry":{"type":"MultiPolygon","coordinates":[[[[28,34.0005],[28,34.9995],[27.9995,35],[27.0005,35],[27,34.9995],[27,34.0005],[27.0005,34],[27.9995,34],[28,34.0005]]]]}},{"type":"Feature","properties":{"depth":30,"kind":"band"},"geometry":{"type":"MultiPolygon","coordinates":[[[[28,34.0005],[28,34.9995],[27.9995,35],[27.0005,35],[27,34.9995],[27,34.0005],[27.0005,34],[27.9995,34],[28,34.0005]]]]}},{"type":"Feature","properties":{"depth":40,"kind":"band"},"geometry":{"type":"MultiPolygon","coordinates":[[[[28,34.0005],[28,34.9995],[27.9995,35],[27.0005,35],[27,34.9995],[27,34.0005],[27.0005,34],[27.9995,34],[28,34.0005]]]]}},{"type":"Feature","properties":{"depth":50,"kind":"band"},"geometry":{"type":"MultiPolygon","coordinates":[[[[28,34.0005],[28,34.9995],[27.9995,35],[27.0005,35],[27,34.9995],[27,34.0005],[27.0005,34],[27.9995,34],[28,34.0005]]]]}},{"type":"Feature","properties":{"depth":75,"kind":"band"},"geometry":{"type":"MultiPolygon","coordinates":[[[[28,34.0005],[28,34.9995],[27.9995,35],[27.0005,35],[27,34.9995],[27,34.0005],[27.0005,34],[27.9995,34],[28,34.0005]]]]}},{"type":"Feature","properties":{"depth":100,"kind":"band"},"geometry":{"type":"MultiPolygon","coordinates":[[[[28,34.0005],[28,34.9995],[27.9995,35],[27.0005,35],[27,34.9995],[27,34.0005],[27.0005,34],[27.9995,34],[28,34.0005]]]]}},{"type":"Feature","properties":{"depth":150,"kind":"band"},"geometry":{"type":"MultiPolygon","coordinates":[[[[28,34.0005],[28,34.9995],[27.9995,35],[27.0005,35],[27,34.9995],[27,34.0005],[27.0005,34],[27.9995,34],[28,34.0005]]]]}},{"type":"Feature","properties":{"depth":200,"kind":"band"},"geometry":{"type":"MultiPolygon","coordinates":[[[[28,34.0005],[28,34.9995],[27.9995,35],[27.0005,35],[27,34.9995],[27,34.0005],[27.0005,34],[27.9995,34],[28,34.0005]]]]}}]}