{"type":"FeatureCollection","features":[{"type":"Feature","properties":{"depth":5,"kind":"band"},"geometry":{"type":"MultiPolygon","coordinates":[[[[27.0288,38.8828],[27.0286,38.8833],[27.0281,38.8828],[27.0288,38.8828]]],[[[27.0258,38.8786],[27.0255,38.8792],[27.0245,38.8786],[27.0255,38.8782],[27.0258,38.8786]]],[[[27.0475,38.8745],[27.0495,38.8748],[27.0538,38.8786],[27.0547,38.8807],[27.0545,38.8818],[27.0526,38.8834],[27.0516,38.8835],[27.0499,38.8828],[27.0464,38.8797],[27.0412,38.8766],[27.0405,38.8755],[27.0405,38.8745],[27.0411,38.8735],[27.0432,38.8743],[27.0453,38.8735],[27.0475,38.8745]]],[[[27.041,38.8734],[27.0401,38.8741],[27.0396,38.8734],[27.0401,38.8731],[27.041,38.8734]]],[[[27.0495,38.8734],[27.0484,38.8741],[27.0479,38.8734],[27.0484,38.8729],[27.0495,38.8734]]],[[[27.0505,38.8693],[27.0505,38.8701],[27.0495,38.8699],[27.0495,38.8693],[27.0505,38.8693]]],[[[27.001,38.862],[27.0022,38.863],[27.0041,38.8672],[27.0068,38.8699],[27.0089,38.8707],[27.0099,38.8717],[27.0109,38.8707],[27.0161,38.872],[27.0193,38.8737],[27.0203,38.8756],[27.0224,38.8759],[27.0253,38.8797],[27.0245,38.8807],[27.0266,38.8793],[27.0272,38.8797],[27.0267,38.8828],[27.0276,38.883],[27.0286,38.884],[27.0336,38.8901],[27.0337,38.8974],[27.0359,38.8997],[27.037,38.8994],[27.0379,38.8984],[27.0391,38.8984],[27.0376,38.9005],[27.0393,38.9026],[27.0385,38.9036],[27.0393,38.9047],[27.0398,38.9078],[27.0388,38.9089],[27.039,38.9099],[27.0382,38.9109],[27.0391,38.9112],[27.0432,38.9155],[27.0453,38.9164],[27.0464,38.9182],[27.0465,38.9193],[27.0461,38.9203],[27.0448,38.9224],[27.0432,38.9229],[27.0434,38.9245],[27.0422,38.9261],[27.0401,38.926],[27.0387,38.9234],[27.0401,38.9217],[27.041,38.9214],[27.0394,38.9182],[27.038,38.9177],[27.0359,38.9155],[27.0349,38.9162],[27.0349,38.9151],[27.0328,38.9148],[27.0318,38.914],[27.0307,38.9143],[27.0286,38.9136],[27.0276,38.9141],[27.0266,38.9138],[27.0224,38.9098],[27.0172,38.9038],[27.0161,38.9038],[27.0159,38.9047],[27.0161,38.909],[27.0109,38.9087],[27.0005,38.9092],[27,38.9089],[27,38.862],[27.0005,38.8616],[27.001,38.862]]],[[[27.0218,38.4766],[27.0214,38.4775],[27.0211,38.4766],[27.0218,38.4766]]],[[[27.0222,38.4734],[27.0214,38.4734],[27.0193,38.4749],[27.0172,38.4734],[27.0182,38.4726],[27.0214,38.4725],[27.0222,38.4734]]],[[[27.0207,38.4714],[27.0203,38.4718],[27.02,38.4714],[27.0207,38.4714]]],[[[27.0148,38.4703],[27.013,38.4726],[27.012,38.4714],[27.0109,38.4714],[27.0141,38.4696],[27.0148,38.4703]]],[[[27.0194,38.4703],[27.0182,38.4711],[27.0173,38.4703],[27.0182,38.4694],[27.0193,38.4696],[27.0194,38.4703]]],[[[27.0111,38.4693],[27.0106,38.4693],[27.0109,38.4689],[27.0111,38.4693]]],[[[27.016,38.4682],[27.0151,38.469],[27.0151,38.4682],[27.016,38.4682]]],[[[27.0172,38.4682],[27.0172,38.4689],[27.0163,38.4682],[27.0172,38.4682]]],[[[27.0061,38.4672],[27.0057,38.4678],[27.0053,38.4672],[27.0061,38.4672]]],[[[27.0663,38.4651],[27.0661,38.4656],[27.0661,38.4647],[27.0663,38.4651]]],[[[27.0009,38.4245],[27.0026,38.4253],[27.0047,38.4276],[27.0061,38.4307],[27.0062,38.4318],[27.0057,38.4323],[27.0047,38.4326],[27.0026,38.4315],[27.0016,38.4316],[27.0005,38.4306],[27,38.4297],[27,38.4245],[27.0005,38.4235],[27.0009,38.4245]]],[[[27.1208,38.4245],[27.1203,38.4252],[27.1197,38.4245],[27.1203,38.4239],[27.1208,38.4245]]],[[[27.1199,38.4234],[27.1193,38.424],[27.1184,38.4234],[27.1193,38.4225],[27.1199,38.4234]]],[[[27.085,38.4089],[27.087,38.4104],[27.0901,38.4106],[27.0911,38.4111],[27.0922,38.4109],[27.0974,38.4129],[27.1009,38.4161],[27.1015,38.4172],[27.101,38.4182],[27.1016,38.4184],[27.1021,38.4182],[27.1016,38.4172],[27.1026,38.4163],[27.1036,38.4176],[27.1068,38.4156],[27.1095,38.4161],[27.1109,38.4176],[27.112,38.4167],[27.113,38.4178],[27.1182,38.4203],[27.1191,38.4224],[27.1181,38.4234],[27.1203,38.4258],[27.1214,38.4253],[27.1217,38.4255],[27.1215,38.4266],[27.1234,38.4281],[27.1237,38.4286],[27.1232,38.4297],[27.1244,38.4318],[27.1243,38.4328],[27.1255,38.434],[27.1261,38.4339],[27.1246,38.4328],[27.1247,38.4318],[27.1255,38.4313],[27.1281,38.4328],[27.128,38.4339],[27.131,38.4359],[27.1363,38.4443],[27.1443,38.4539],[27.1464,38.4538],[27.1495,38.4525],[27.1547,38.453],[27.1577,38.4547],[27.1572,38.4568],[27.1557,38.4578],[27.1526,38.4577],[27.1484,38.4571],[27.1443,38.4552],[27.1432,38.4559],[27.1422,38.4554],[27.1401,38.4555],[27.1349,38.4532],[27.1266,38.4481],[27.1214,38.4461],[27.1151,38.4425],[27.113,38.4407],[27.1109,38.4407],[27.1099,38.4418],[27.1057,38.44],[27.1043,38.4432],[27.1026,38.4436],[27.1016,38.4429],[27.1005,38.4432],[27.0995,38.4444],[27.0922,38.4457],[27.087,38.4485],[27.0859,38.4483],[27.0849,38.4494],[27.0807,38.451],[27.0786,38.4523],[27.0745,38.4521],[27.0724,38.451],[27.0641,38.4486],[27.062,38.4467],[27.0589,38.4463],[27.0578,38.4487],[27.0536,38.4467],[27.0484,38.4465],[27.0464,38.445],[27.0453,38.4451],[27.0445,38.4432],[27.0422,38.4401],[27.038,38.4371],[27.037,38.4371],[27.0359,38.4362],[27.0318,38.4344],[27.0307,38.4334],[27.0245,38.4324],[27.0232,38.4318],[27.023,38.4297],[27.0234,38.4285],[27.0328,38.4251],[27.038,38.425],[27.0432,38.4264],[27.0453,38.4265],[27.0474,38.4256],[27.0495,38.4263],[27.0536,38.4266],[27.0547,38.4262],[27.0557,38.4264],[27.0589,38.4249],[27.0599,38.4264],[27.0678,38.4182],[27.0681,38.4172],[27.0714,38.4142],[27.0757,38.412],[27.0778,38.412],[27.0785,38.4099],[27.0828,38.408],[27.085,38.4089]],[[27.0401,38.4326],[27.0396,38.4328],[27.0401,38.4331],[27.0405,38.4328],[27.0401,38.4326]]],[[[27.1077,38.0005],[27.1062,38.0036],[27.1041,38.0057],[27.0974,38.0117],[27.0953,38.0124],[27.0911,38.0129],[27.087,38.01],[27.0797,38.0099],[27.0766,38.0092],[27.0745,38.0099],[27.0724,38.012],[27.0721,38.013],[27.0686,38.0172],[27.0681,38.0255],[27.0672,38.0281],[27.0652,38.0307],[27.063,38.0324],[27.0609,38.0326],[27.0589,38.0337],[27.0575,38.0359],[27.0547,38.0388],[27.0484,38.0443],[27.0453,38.0464],[27.0422,38.0478],[27.0359,38.0492],[27.0234,38.0496],[27.0172,38.0509],[27.0099,38.0542],[27.0005,38.0595],[27,38.0589],[27,38.0005],[27.0005,38],[27.1068,38],[27.1077,38.0005]]]]}},{"type":"Feature","properties":{"depth":5,"kind":"isobath"},"geometry":{"type":"MultiLineString","coordinates":[[[27.0288,38.8828],[27.0286,38.8833],[27.0281,38.8828]],[[27.0258,38.8786],[27.0255,38.8792],[27.0245,38.8786],[27.0255,38.8782]],[[27.0475,38.8745],[27.0495,38.8748],[27.0538,38.8786],[27.0547,38.8807],[27.0545,38.8818],[27.0526,38.8834],[27.0516,38.8835],[27.0499,38.8828],[27.0464,38.8797],[27.0412,38.8766],[27.0405,38.8755],[27.0405,38.8745],[27.0411,38.8735],[27.0432,38.8743],[27.0453,38.8735]],[[27.041,38.8734],[27.0401,38.8741],[27.0396,38.8734],[27.0401,38.8731]],[[27.0495,38.8734],[27.0484,38.8741],[27.0479,38.8734],[27.0484,38.8729]],[[27.0505,38.8693],[27.0505,38.8701],[27.0495,38.8699],[27.0495,38.8693]],[[27.0005,38.8616],[27.001,38.862],[27.0022,38.863],[27.0041,38.8672],[27.0068,38.8699],[27.0089,38.8707],[27.0099,38.8717],[27.0109,38.8707],[27.0161,38.872],[27.0193,38.8737],[27.0203,38.8756],[27.0224,38.8759],[27.0253,38.8797],[27.0245,38.8807],[27.0266,38.8793],[27.0272,38.8797],[27.0267,38.8828],[27.0276,38.883],[27.0286,38.884],[27.0336,38.8901],[27.0337,38.8974],[27.0359,38.8997],[27.037,38.8994],[27.0379,38.8984],[27.0391,38.8984],[27.0376,38.9005],[27.0393,38.9026],[27.0385,38.9036],[27.0393,38.9047],[27.0398,38.9078],[27.0388,38.9089],[27.039,38.9099],[27.0382,38.9109],[27.0391,38.9112],[27.0432,38.9155],[27.0453,38.9164],[27.0464,38.9182],[27.0465,38.9193],[27.0461,38.9203],[27.0448,38.9224],[27.0432,38.9229],[27.0434,38.9245],[27.0422,38.9261],[27.0401,38.926],[27.0387,38.9234],[27.0401,38.9217],[27.041,38.9214],[27.0394,38.9182],[27.038,38.9177],[27.0359,38.9155],[27.0349,38.9162],[27.0349,38.9151],[27.0328,38.9148],[27.0318,38.914],[27.0307,38.9143],[27.0286,38.9136],[27.0276,38.9141],[27.0266,38.9138],[27.0224,38.9098],[27.0172,38.9038],[27.0161,38.9038],[27.0159,38.9047],[27.0161,38.909],[27.0109,38.9087],[27.0005,38.9092]],[[27.0218,38.4766],[27.0214,38.4775],[27.0211,38.4766]],[[27.0222,38.4734],[27.0214,38.4734],[27.0193,38.4749],[27.0172,38.4734],[27.0182,38.4726],[27.0214,38.4725]],[[27.0207,38.4714],[27.0203,38.4718],[27.02,38.4714]],[[27.0148,38.4703],[27.013,38.4726],[27.012,38.4714],[27.0109,38.4714],[27.0141,38.4696]],[[27.0194,38.4703],[27.0182,38.4711],[27.0173,38.4703],[27.0182,38.4694],[27.0193,38.4696]],[[27.0111,38.4693],[27.0106,38.4693],[27.0109,38.4689]],[[27.016,38.4682],[27.0151,38.469],[27.0151,38.4682]],[[27.0172,38.4682],[27.0172,38.4689],[27.0163,38.4682]],[[27.0061,38.4672],[27.0057,38.4678],[27.0053,38.4672]],[[27.0663,38.4651],[27.0661,38.4656],[27.0661,38.4647]],[[27.0005,38.4235],[27.0009,38.4245],[27.0026,38.4253],[27.0047,38.4276],[27.0061,38.4307],[27.0062,38.4318],[27.0057,38.4323],[27.0047,38.4326],[27.0026,38.4315],[27.0016,38.4316],[27.0005,38.4306]],[[27.1208,38.4245],[27.1203,38.4252],[27.1197,38.4245],[27.1203,38.4239]],[[27.1199,38.4234],[27.1193,38.424],[27.1184,38.4234],[27.1193,38.4225]],[[27.085,38.4089],[27.087,38.4104],[27.0901,38.4106],[27.0911,38.4111],[27.0922,38.4109],[27.0974,38.4129],[27.1009,38.4161],[27.1015,38.4172],[27.101,38.4182],[27.1016,38.4184],[27.1021,38.4182],[27.1016,38.4172],[27.1026,38.4163],[27.1036,38.4176],[27.1068,38.4156],[27.1095,38.4161],[27.1109,38.4176],[27.112,38.4167],[27.113,38.4178],[27.1182,38.4203],[27.1191,38.4224],[27.1181,38.4234],[27.1203,38.4258],[27.1214,38.4253],[27.1217,38.4255],[27.1215,38.4266],[27.1234,38.4281],[27.1237,38.4286],[27.1232,38.4297],[27.1244,38.4318],[27.1243,38.4328],[27.1255,38.434],[27.1261,38.4339],[27.1246,38.4328],[27.1247,38.4318],[27.1255,38.4313],[27.1281,38.4328],[27.128,38.4339],[27.131,38.4359],[27.1363,38.4443],[27.1443,38.4539],[27.1464,38.4538],[27.1495,38.4525],[27.1547,38.453],[27.1577,38.4547],[27.1572,38.4568],[27.1557,38.4578],[27.1526,38.4577],[27.1484,38.4571],[27.1443,38.4552],[27.1432,38.4559],[27.1422,38.4554],[27.1401,38.4555],[27.1349,38.4532],[27.1266,38.4481],[27.1214,38.4461],[27.1151,38.4425],[27.113,38.4407],[27.1109,38.4407],[27.1099,38.4418],[27.1057,38.44],[27.1043,38.4432],[27.1026,38.4436],[27.1016,38.4429],[27.1005,38.4432],[27.0995,38.4444],[27.0922,38.4457],[27.087,38.4485],[27.0859,38.4483],[27.0849,38.4494],[27.0807,38.451],[27.0786,38.4523],[27.0745,38.4521],[27.0724,38.451],[27.0641,38.4486],[27.062,38.4467],[27.0589,38.4463],[27.0578,38.4487],[27.0536,38.4467],[27.0484,38.4465],[27.0464,38.445],[27.0453,38.4451],[27.0445,38.4432],[27.0422,38.4401],[27.038,38.4371],[27.037,38.4371],[27.0359,38.4362],[27.0318,38.4344],[27.0307,38.4334],[27.0245,38.4324],[27.0232,38.4318],[27.023,38.4297],[27.0234,38.4285],[27.0328,38.4251],[27.038,38.425],[27.0432,38.4264],[27.0453,38.4265],[27.0474,38.4256],[27.0495,38.4263],[27.0536,38.4266],[27.0547,38.4262],[27.0557,38.4264],[27.0589,38.4249],[27.0599,38.4264],[27.0678,38.4182],[27.0681,38.4172],[27.0714,38.4142],[27.0757,38.412],[27.0778,38.412],[27.0785,38.4099],[27.0828,38.408]],[[27.0401,38.4326],[27.0396,38.4328],[27.0401,38.4331],[27.0405,38.4328]],[[27.1077,38.0005],[27.1062,38.0036],[27.1041,38.0057],[27.0974,38.0117],[27.0953,38.0124],[27.0911,38.0129],[27.087,38.01],[27.0797,38.0099],[27.0766,38.0092],[27.0745,38.0099],[27.0724,38.012],[27.0721,38.013],[27.0686,38.0172],[27.0681,38.0255],[27.0672,38.0281],[27.0652,38.0307],[27.063,38.0324],[27.0609,38.0326],[27.0589,38.0337],[27.0575,38.0359],[27.0547,38.0388],[27.0484,38.0443],[27.0453,38.0464],[27.0422,38.0478],[27.0359,38.0492],[27.0234,38.0496],[27.0172,38.0509],[27.0099,38.0542],[27.0005,38.0595]]]}},{"type":"Feature","properties":{"depth":10,"kind":"band"},"geometry":{"type":"MultiPolygon","coordinates":[[[[27.0205,38.8786],[27.0203,38.8792],[27.0194,38.8786],[27.0205,38.8786]]],[[[27.0006,38.8661],[27.0027,38.8693],[27.0052,38.8714],[27.0089,38.8729],[27.0099,38.8747],[27.0109,38.8729],[27.012,38.8737],[27.0156,38.8745],[27.0172,38.8754],[27.0201,38.8797],[27.0193,38.8809],[27.0203,38.8799],[27.0224,38.8824],[27.0255,38.8848],[27.0263,38.8859],[27.0258,38.888],[27.0264,38.8891],[27.0276,38.8903],[27.03,38.8911],[27.0306,38.8922],[27.0311,38.8953],[27.0307,38.8964],[27.0318,38.8971],[27.0325,38.8984],[27.0316,38.8995],[27.0328,38.8988],[27.0332,38.8995],[27.0348,38.9047],[27.0369,38.9078],[27.0359,38.9089],[27.0365,38.9109],[27.0359,38.9131],[27.0339,38.9128],[27.0328,38.9135],[27.0307,38.9122],[27.0255,38.9113],[27.0245,38.9098],[27.0224,38.9082],[27.0214,38.908],[27.0176,38.9036],[27.0151,38.9023],[27.0146,38.9036],[27.0149,38.9047],[27.0141,38.9062],[27.0036,38.9072],[27,38.9068],[27,38.8661],[27.0006,38.8661]]],[[[27.1122,38.4214],[27.112,38.4219],[27.1119,38.4214],[27.1122,38.4214]]],[[[27.0868,38.4151],[27.0914,38.4161],[27.0974,38.4185],[27.1005,38.4203],[27.1026,38.4208],[27.1089,38.4209],[27.1141,38.4233],[27.1153,38.4255],[27.1187,38.4286],[27.1202,38.4307],[27.1204,38.4318],[27.1245,38.4353],[27.1266,38.4378],[27.1288,38.4411],[27.1286,38.4427],[27.1276,38.4433],[27.1257,38.4432],[27.121,38.4411],[27.1151,38.4395],[27.112,38.4379],[27.1078,38.4376],[27.1068,38.4384],[27.1057,38.4372],[27.1047,38.4372],[27.1036,38.4382],[27.0891,38.4406],[27.0828,38.4431],[27.0797,38.445],[27.0766,38.4451],[27.0714,38.4439],[27.0651,38.4433],[27.063,38.4422],[27.0626,38.4411],[27.0609,38.4397],[27.0568,38.4396],[27.0556,38.4391],[27.0535,38.437],[27.0538,38.4359],[27.0557,38.4344],[27.0599,38.4324],[27.0617,38.4307],[27.062,38.4296],[27.0651,38.429],[27.0661,38.4283],[27.0727,38.4203],[27.0786,38.4161],[27.0797,38.4162],[27.0849,38.4145],[27.0868,38.4151]]],[[[27.1057,38.0005],[27.1051,38.0026],[27.1036,38.0041],[27.0984,38.0078],[27.0974,38.0094],[27.0953,38.0104],[27.0922,38.0105],[27.087,38.0084],[27.0766,38.0081],[27.0734,38.0093],[27.0679,38.0161],[27.0658,38.0266],[27.0648,38.0286],[27.062,38.0308],[27.0599,38.031],[27.0578,38.0328],[27.0536,38.038],[27.0453,38.0445],[27.0391,38.0469],[27.0349,38.0476],[27.0234,38.0483],[27.0161,38.0499],[27.0089,38.0529],[27.0005,38.0573],[27,38.0568],[27,38.0005],[27.0005,38],[27.1047,38],[27.1057,38.0005]]]]}},{"type":"Feature","properties":{"depth":10,"kind":"isobath"},"geometry":{"type":"MultiLineString","coordinates":[[[27.0205,38.8786],[27.0203,38.8792],[27.0194,38.8786]],[[27.0006,38.8661],[27.0027,38.8693],[27.0052,38.8714],[27.0089,38.8729],[27.0099,38.8747],[27.0109,38.8729],[27.012,38.8737],[27.0156,38.8745],[27.0172,38.8754],[27.0201,38.8797],[27.0193,38.8809],[27.0203,38.8799],[27.0224,38.8824],[27.0255,38.8848],[27.0263,38.8859],[27.0258,38.888],[27.0264,38.8891],[27.0276,38.8903],[27.03,38.8911],[27.0306,38.8922],[27.0311,38.8953],[27.0307,38.8964],[27.0318,38.8971],[27.0325,38.8984],[27.0316,38.8995],[27.0328,38.8988],[27.0332,38.8995],[27.0348,38.9047],[27.0369,38.9078],[27.0359,38.9089],[27.0365,38.9109],[27.0359,38.9131],[27.0339,38.9128],[27.0328,38.9135],[27.0307,38.9122],[27.0255,38.9113],[27.0245,38.9098],[27.0224,38.9082],[27.0214,38.908],[27.0176,38.9036],[27.0151,38.9023],[27.0146,38.9036],[27.0149,38.9047],[27.0141,38.9062],[27.0036,38.9072]],[[27.1122,38.4214],[27.112,38.4219],[27.1119,38.4214]],[[27.0868,38.4151],[27.0914,38.4161],[27.0974,38.4185],[27.1005,38.4203],[27.1026,38.4208],[27.1089,38.4209],[27.1141,38.4233],[27.1153,38.4255],[27.1187,38.4286],[27.1202,38.4307],[27.1204,38.4318],[27.1245,38.4353],[27.1266,38.4378],[27.1288,38.4411],[27.1286,38.4427],[27.1276,38.4433],[27.1257,38.4432],[27.121,38.4411],[27.1151,38.4395],[27.112,38.4379],[27.1078,38.4376],[27.1068,38.4384],[27.1057,38.4372],[27.1047,38.4372],[27.1036,38.4382],[27.0891,38.4406],[27.0828,38.4431],[27.0797,38.445],[27.0766,38.4451],[27.0714,38.4439],[27.0651,38.4433],[27.063,38.4422],[27.0626,38.4411],[27.0609,38.4397],[27.0568,38.4396],[27.0556,38.4391],[27.0535,38.437],[27.0538,38.4359],[27.0557,38.4344],[27.0599,38.4324],[27.0617,38.4307],[27.062,38.4296],[27.0651,38.429],[27.0661,38.4283],[27.0727,38.4203],[27.0786,38.4161],[27.0797,38.4162],[27.0849,38.4145]],[[27.1057,38.0005],[27.1051,38.0026],[27.1036,38.0041],[27.0984,38.0078],[27.0974,38.0094],[27.0953,38.0104],[27.0922,38.0105],[27.087,38.0084],[27.0766,38.0081],[27.0734,38.0093],[27.0679,38.0161],[27.0658,38.0266],[27.0648,38.0286],[27.062,38.0308],[27.0599,38.031],[27.0578,38.0328],[27.0536,38.038],[27.0453,38.0445],[27.0391,38.0469],[27.0349,38.0476],[27.0234,38.0483],[27.0161,38.0499],[27.0089,38.0529],[27.0005,38.0573]]]}},{"type":"Feature","properties":{"depth":20,"kind":"band"},"geometry":{"type":"MultiPolygon","coordinates":[[[[27.001,38.8734],[27.0049,38.8766],[27.0151,38.8801],[27.0172,38.8832],[27.0215,38.8859],[27.0218,38.8891],[27.0236,38.8922],[27.0244,38.8953],[27.0297,38.9006],[27.0316,38.9068],[27.0308,38.9078],[27.0238,38.9057],[27.0172,38.9029],[27.0141,38.9002],[27.012,38.9013],[27.0016,38.9027],[27,38.9026],[27,38.8734],[27.0005,38.873],[27.001,38.8734]],[[27.0255,38.9025],[27.0245,38.902],[27.024,38.9026],[27.0255,38.9037],[27.0255,38.9025]],[[27.0193,38.8983],[27.0214,38.901],[27.0224,38.9019],[27.0229,38.9016],[27.0193,38.8983]]],[[[27.1023,38.0005],[27.1005,38.0023],[27.099,38.0026],[27.0974,38.004],[27.0953,38.0045],[27.0943,38.0059],[27.0922,38.006],[27.0891,38.0051],[27.0766,38.0054],[27.0724,38.0069],[27.0681,38.0109],[27.0659,38.0141],[27.0636,38.0193],[27.0616,38.0266],[27.0609,38.0271],[27.0583,38.0276],[27.0545,38.0328],[27.0516,38.0358],[27.0474,38.0392],[27.0432,38.0418],[27.0401,38.0432],[27.037,38.0438],[27.0234,38.0451],[27.012,38.0482],[27.0026,38.0521],[27.0005,38.0528],[27,38.0526],[27,38.0005],[27.0005,38],[27.1016,38],[27.1023,38.0005]]]]}},{"type":"Feature","properties":{"depth":20,"kind":"isobath"},"geometry":{"type":"MultiLineString","coordinates":[[[27.0005,38.873],[27.001,38.8734],[27.0049,38.8766],[27.0151,38.8801],[27.0172,38.8832],[27.0215,38.8859],[27.0218,38.8891],[27.0236,38.8922],[27.0244,38.8953],[27.0297,38.9006],[27.0316,38.9068],[27.0308,38.9078],[27.0238,38.9057],[27.0172,38.9029],[27.0141,38.9002],[27.012,38.9013],[27.0016,38.9027]],[[27.0255,38.9025],[27.0245,38.902],[27.024,38.9026],[27.0255,38.9037]],[[27.0193,38.8983],[27.0214,38.901],[27.0224,38.9019],[27.0229,38.9016]],[[27.1023,38.0005],[27.1005,38.0023],[27.099,38.0026],[27.0974,38.004],[27.0953,38.0045],[27.0943,38.0059],[27.0922,38.006],[27.0891,38.0051],[27.0766,38.0054],[27.0724,38.0069],[27.0681,38.0109],[27.0659,38.0141],[27.0636,38.0193],[27.0616,38.0266],[27.0609,38.0271],[27.0583,38.0276],[27.0545,38.0328],[27.0516,38.0358],[27.0474,38.0392],[27.0432,38.0418],[27.0401,38.0432],[27.037,38.0438],[27.0234,38.0451],[27.012,38.0482],[27.0026,38.0521],[27.0005,38.0528]]]}},{"type":"Feature","properties":{"depth":30,"kind":"band"},"geometry":{"type":"MultiPolygon","coordinates":[[[[27.0017,38.8797],[27.0068,38.8824],[27.013,38.8846],[27.0151,38.8861],[27.0164,38.888],[27.0171,38.8901],[27.0171,38.8911],[27.0163,38.8922],[27.0181,38.8943],[27.0172,38.8981],[27.0141,38.8963],[27.013,38.8967],[27.012,38.896],[27.0026,38.8981],[27.0005,38.8981],[27,38.8974],[27,38.8797],[27.0005,38.8788],[27.0017,38.8797]]],[[[27.0969,38.0005],[27.0911,38.0028],[27.087,38.0022],[27.0776,38.0024],[27.0734,38.0033],[27.0703,38.0048],[27.0636,38.012],[27.0609,38.0175],[27.0593,38.0224],[27.0578,38.0249],[27.0553,38.0266],[27.0525,38.0307],[27.0491,38.0339],[27.0411,38.039],[27.037,38.0403],[27.0245,38.0418],[27.0005,38.0488],[27,38.0484],[27,38.0005],[27.0005,38],[27.0964,38],[27.0969,38.0005]]]]}},{"type":"Feature","properties":{"depth":30,"kind":"isobath"},"geometry":{"type":"MultiLineString","coordinates":[[[27.0005,38.8788],[27.0017,38.8797],[27.0068,38.8824],[27.013,38.8846],[27.0151,38.8861],[27.0164,38.888],[27.0171,38.8901],[27.0171,38.8911],[27.0163,38.8922],[27.0181,38.8943],[27.0172,38.8981],[27.0141,38.8963],[27.013,38.8967],[27.012,38.896],[27.0026,38.8981],[27.0005,38.8981]],[[27.0969,38.0005],[27.0911,38.0028],[27.087,38.0022],[27.0776,38.0024],[27.0734,38.0033],[27.0703,38.0048],[27.0636,38.012],[27.0609,38.0175],[27.0593,38.0224],[27.0578,38.0249],[27.0553,38.0266],[27.0525,38.0307],[27.0491,38.0339],[27.0411,38.039],[27.037,38.0403],[27.0245,38.0418],[27.0005,38.0488]]]}},{"type":"Feature","properties":{"depth":40,"kind":"band"},"geometry":{"type":"MultiPolygon","coordinates":[[[[27.0014,38.8849],[27.0093,38.888],[27.0112,38.8891],[27.012,38.8901],[27.0109,38.8914],[27.0089,38.892],[27.0026,38.8934],[27,38.8932],[27,38.8849],[27.0005,38.8843],[27.0014,38.8849]]],[[[27.0734,38.0005],[27.0703,38.0016],[27.0673,38.0036],[27.0622,38.0089],[27.0596,38.013],[27.0566,38.0214],[27.0484,38.0306],[27.0453,38.0327],[27.038,38.0365],[27.0266,38.038],[27.0203,38.0396],[27.0172,38.0409],[27.0057,38.0437],[27.0047,38.0443],[27.0005,38.0449],[27,38.0443],[27,38.0005],[27.0005,38],[27.0724,38],[27.0734,38.0005]]]]}},{"type":"Feature","properties":{"depth":40,"kind":"isobath"},"geometry":{"type":"MultiLineString","coordinates":[[[27.0005,38.8843],[27.0014,38.8849],[27.0093,38.888],[27.0112,38.8891],[27.012,38.8901],[27.0109,38.8914],[27.0089,38.892],[27.0026,38.8934]],[[27.0734,38.0005],[27.0703,38.0016],[27.0673,38.0036],[27.0622,38.0089],[27.0596,38.013],[27.0566,38.0214],[27.0484,38.0306],[27.0453,38.0327],[27.038,38.0365],[27.0266,38.038],[27.0203,38.0396],[27.0172,38.0409],[27.0057,38.0437],[27.0047,38.0443],[27.0005,38.0449]]]}},{"type":"Feature","properties":{"depth":50,"kind":"band"},"geometry":{"type":"MultiPolygon","coordinates":[[[[27.0674,38.0005],[27.0642,38.0026],[27.0591,38.0078],[27.0559,38.0141],[27.053,38.0214],[27.0505,38.0234],[27.0474,38.0273],[27.0443,38.0298],[27.0391,38.0324],[27.0359,38.0335],[27.0255,38.0349],[27.012,38.0393],[27.0005,38.0417],[27,38.0411],[27,38.0005],[27.0005,38],[27.0672,38],[27.0674,38.0005]]]]}},{"type":"Feature","properties":{"depth":50,"kind":"isobath"},"geometry":{"type":"MultiLineString","coordinates":[[[27.0674,38.0005],[27.0642,38.0026],[27.0591,38.0078],[27.0559,38.0141],[27.053,38.0214],[27.0505,38.0234],[27.0474,38.0273],[27.0443,38.0298],[27.0391,38.0324],[27.0359,38.0335],[27.0255,38.0349],[27.012,38.0393],[27.0005,38.0417]]]}},{"type":"Feature","properties":{"depth":75,"kind":"band"},"geometry":{"type":"MultiPolygon","coordinates":[[[[27.054,38.0005],[27.0505,38.0052],[27.0456,38.0161],[27.0411,38.0216],[27.0391,38.0225],[27.0359,38.0228],[27.0214,38.0264],[27.0172,38.0285],[27.012,38.0321],[27,38.0339],[27,38.0005],[27.0005,38],[27.0536,38],[27.054,38.0005]]]]}},{"type":"Feature","properties":{"depth":75,"kind":"isobath"},"geometry":{"type":"MultiLineString","coordinates":[[[27.054,38.0005],[27.0505,38.0052],[27.0456,38.0161],[27.0411,38.0216],[27.0391,38.0225],[27.0359,38.0228],[27.0214,38.0264],[27.0172,38.0285],[27.012,38.0321]]]}},{"type":"Feature","properties":{"depth":100,"kind":"band"},"geometry":{"type":"MultiPolygon","coordinates":[[[[27.0378,38.0005],[27.0358,38.0047],[27.0328,38.0089],[27.0286,38.0129],[27.0245,38.016],[27.0183,38.0193],[27.0005,38.0264],[27,38.0255],[27,38.0005],[27.0005,38],[27.037,38],[27.0378,38.0005]]]]}},{"type":"Feature","properties":{"depth":100,"kind":"isobath"},"geometry":{"type":"MultiLineString","coordinates":[[[27.0378,38.0005],[27.0358,38.0047],[27.0328,38.0089],[27.0286,38.0129],[27.0245,38.016],[27.0183,38.0193],[27.0005,38.0264]]]}},{"type":"Feature","properties":{"depth":150,"kind":"band"},"geometry":{"type":"MultiPolygon","coordinates":[[[[27.0147,38.0005],[27.0126,38.0047],[27.0089,38.0084],[27.0036,38.0107],[27.0005,38.0114],[27,38.0109],[27,38.0005],[27.0005,38],[27.0141,38],[27.0147,38.0005]]]]}},{"type":"Feature","properties":{"depth":150,"kind":"isobath"},"geometry":{"type":"MultiLineString","coordinates":[[[27.0147,38.0005],[27.0126,38.0047],[27.0089,38.0084],[27.0036,38.0107],[27.0005,38.0114]]]}}]}