{"type":"FeatureCollection","features":[{"type":"Feature","properties":{"depth":5,"kind":"band"},"geometry":{"type":"MultiPolygon","coordinates":[[[[28,41.8057],[28,41.8766],[27.9995,41.8769],[27.9976,41.8734],[27.9877,41.862],[27.9859,41.8578],[27.985,41.8474],[27.9859,41.8401],[27.9884,41.8297],[27.9939,41.8161],[27.9995,41.8054],[28,41.8057]]],[[[27.7674,41.0057],[27.7651,41.0072],[27.7651,41.0047],[27.7674,41.0057]]],[[[27.7609,41.0005],[27.7578,41.002],[27.7557,41.0052],[27.7547,41.0044],[27.7552,41.0057],[27.7547,41.0085],[27.7535,41.0099],[27.7516,41.0104],[27.7492,41.0099],[27.7443,41.0066],[27.7349,41.0059],[27.7234,41.0028],[27.7177,41.0005],[27.7182,41],[27.7609,41],[27.7609,41.0005]]],[[[27.79,41.0005],[27.787,41.0017],[27.7766,41.0043],[27.7703,41.0051],[27.7672,41.0025],[27.7661,41.001],[27.7646,41.0005],[27.7651,41],[27.7891,41],[27.79,41.0005]]],[[[28,41.0005],[28,41.0161],[27.9995,41.0163],[27.9953,41.0132],[27.9933,41.0109],[27.9901,41.0052],[27.9899,41.0026],[27.9904,41.0005],[27.9911,41],[27.9995,41],[28,41.0005]]]]}},{"type":"Feature","properties":{"depth":5,"kind":"isobath"},"geometry":{"type":"MultiLineString","coordinates":[[[27.9995,41.8769],[27.9976,41.8734],[27.9877,41.862],[27.9859,41.8578],[27.985,41.8474],[27.9859,41.8401],[27.9884,41.8297],[27.9939,41.8161],[27.9995,41.8054]],[[27.7674,41.0057],[27.7651,41.0072],[27.7651,41.0047]],[[27.7609,41.0005],[27.7578,41.002],[27.7557,41.0052],[27.7547,41.0044],[27.7552,41.0057],[27.7547,41.0085],[27.7535,41.0099],[27.7516,41.0104],[27.7492,41.0099],[27.7443,41.0066],[27.7349,41.0059],[27.7234,41.0028],[27.7177,41.0005]],[[27.79,41.0005],[27.787,41.0017],[27.7766,41.0043],[27.7703,41.0051],[27.7672,41.0025],[27.7661,41.001],[27.7646,41.0005]],[[27.9995,41.0163],[27.9953,41.0132],[27.9933,41.0109],[27.9901,41.0052],[27.9899,41.0026],[27.9904,41.0005]]]}},{"type":"Feature","properties":{"depth":10,"kind":"band"},"geometry":{"type":"MultiPolygon","coordinates":[[[[28,41.8141],[28,41.8661],[27.9995,41.867],[27.998,41.8661],[27.9964,41.864],[27.994,41.862],[27.9915,41.8578],[27.9903,41.8526],[27.9899,41.8464],[27.9902,41.8422],[27.9925,41.8307],[27.9977,41.8172],[27.9995,41.8134],[28,41.8141]]],[[[27.7527,41.0005],[27.7523,41.0026],[27.7529,41.0036],[27.7526,41.005],[27.7505,41.0044],[27.7495,41.0048],[27.7422,41.0015],[27.7337,41.0005],[27.7339,41],[27.7526,41],[27.7527,41.0005]]],[[[28,41.0005],[28,41.0109],[27.9995,41.0116],[27.9967,41.0089],[27.9947,41.0057],[27.9942,41.0047],[27.9948,41.0026],[27.9937,41.0005],[27.9943,41],[27.9995,41],[28,41.0005]]]]}},{"type":"Feature","properties":{"depth":10,"kind":"isobath"},"geometry":{"type":"MultiLineString","coordinates":[[[27.9995,41.867],[27.998,41.8661],[27.9964,41.864],[27.994,41.862],[27.9915,41.8578],[27.9903,41.8526],[27.9899,41.8464],[27.9902,41.8422],[27.9925,41.8307],[27.9977,41.8172],[27.9995,41.8134]],[[27.7527,41.0005],[27.7523,41.0026],[27.7529,41.0036],[27.7526,41.005],[27.7505,41.0044],[27.7495,41.0048],[27.7422,41.0015],[27.7337,41.0005]],[[27.9995,41.0116],[27.9967,41.0089],[27.9947,41.0057],[27.9942,41.0047],[27.9948,41.0026],[27.9937,41.0005]]]}}]}