{"type":"FeatureCollection","features":[{"type":"Feature","properties":{"depth":5,"kind":"band"},"geometry":{"type":"MultiPolygon","coordinates":[[[[29,35.0005],[29,35.9995],[28.9995,36],[28.0005,36],[28,35.9995],[28,35.0005],[28.0005,35],[28.9995,35],[29,35.0005]]]]}},{"type":"Feature","properties":{"depth":10,"kind":"band"},"geometry":{"type":"MultiPolygon","coordinates":[[[[29,35.0005],[29,35.9995],[28.9995,36],[28.0005,36],[28,35.9995],[28,35.0005],[28.0005,35],[28.9995,35],[29,35.0005]]]]}},{"type":"Feature","properties":{"depth":20,"kind":"band"},"geometry":{"type":"MultiPolygon","coordinates":[[[[29,35.0005],[29,35.9995],[28.9995,36],[28.0005,36],[28,35.9995],[28,35.0005],[28.0005,35],[28.9995,35],[29,35.0005]]]]}},{"type":"Feature","properties":{"depth":30,"kind":"band"},"geometry":{"type":"MultiPolygon","coordinates":[[[[29,35.0005],[29,35.9995],[28.9995,36],[28.0005,36],[28,35.9995],[28,35.0005],[28.0005,35],[28.9995,35],[29,35.0005]]]]}},{"type":"Feature","properties":{"depth":40,"kind":"band"},"geometry":{"type":"MultiPolygon","coordinates":[[[[29,35.0005],[29,35.9995],[28.9995,36],[28.0005,36],[28,35.9995],[28,35.0005],[28.0005,35],[28.9995,35],[29,35.0005]]]]}},{"type":"Feature","properties":{"depth":50,"kind":"band"},"geometry":{"type":"MultiPolygon","coordinates":[[[[29,35.0005],[29,35.9995],[28.9995,36],[28.0005,36],[28,35.9995],[28,35.0005],[28.0005,35],[28.9995,35],[29,35.0005]]]]}},{"type":"Feature","properties":{"depth":75,"kind":"band"},"geometry":{"type":"MultiPolygon","coordinates":[[[[29,35.0005],[29,35.9995],[28.9995,36],[28.0005,36],[28,35.9995],[28,35.0005],[28.0005,35],[28.9995,35],[29,35.0005]]]]}},{"type":"Feature","properties":{"depth":100,"kind":"band"},"geometry":{"type":"MultiPolygon","coordinates":[[[[29,35.0005],[29,35.9995],[28.9995,36],[28.0005,36],[28,35.9995],[28,35.0005],[28.0005,35],[28.9995,35],[29,35.0005]]]]}},{"type":"Feature","properties":{"depth":150,"kind":"band"},"geometry":{"type":"MultiPolygon","coordinates":[[[[29,35.0005],[29,35.9995],[28.9995,36],[28.0005,36],[28,35.9995],[28,35.0005],[28.0005,35],[28.9995,35],[29,35.0005]]]]}},{"type":"Feature","properties":{"depth":200,"kind":"band"},"geometry":{"type":"MultiPolygon","coordinates":[[[[29,35.0005],[29,35.9995],[28.9995,36],[28.0005,36],[28,35.9995],[28,35.0005],[28.0005,35],[28.9995,35],[29,35.0005]]]]}}]}