{"type":"FeatureCollection","features":[{"type":"Feature","properties":{"depth":5,"kind":"band"},"geometry":{"type":"MultiPolygon","coordinates":[[[[28.9999,34.2504],[28.9996,34.7501],[28.7496,34.9999],[28.2499,34.9996],[28.0001,34.7496],[28.0004,34.2499],[28.2504,34.0001],[28.7501,34.0004],[29,34.0005],[29,34.0005],[28.9999,34.2504]]]]}},{"type":"Feature","properties":{"depth":10,"kind":"band"},"geometry":{"type":"MultiPolygon","coordinates":[[[[28.9999,34.2504],[28.9996,34.7501],[28.7496,34.9999],[28.2499,34.9996],[28.0001,34.7496],[28.0004,34.2499],[28.2504,34.0001],[28.7501,34.0004],[29,34.0005],[29,34.0005],[28.9999,34.2504]]]]}},{"type":"Feature","properties":{"depth":15,"kind":"band"},"geometry":{"type":"MultiPolygon","coordinates":[[[[28.9999,34.2504],[28.9996,34.7501],[28.7496,34.9999],[28.2499,34.9996],[28.0001,34.7496],[28.0004,34.2499],[28.2504,34.0001],[28.7501,34.0004],[29,34.0005],[29,34.0005],[28.9999,34.2504]]]]}},{"type":"Feature","properties":{"depth":20,"kind":"band"},"geometry":{"type":"MultiPolygon","coordinates":[[[[28.9999,34.2504],[28.9996,34.7501],[28.7496,34.9999],[28.2499,34.9996],[28.0001,34.7496],[28.0004,34.2499],[28.2504,34.0001],[28.7501,34.0004],[29,34.0005],[29,34.0005],[28.9999,34.2504]]]]}},{"type":"Feature","properties":{"depth":25,"kind":"band"},"geometry":{"type":"MultiPolygon","coordinates":[[[[28.9999,34.2504],[28.9996,34.7501],[28.7496,34.9999],[28.2499,34.9996],[28.0001,34.7496],[28.0004,34.2499],[28.2504,34.0001],[28.7501,34.0004],[29,34.0005],[29,34.0005],[28.9999,34.2504]]]]}},{"type":"Feature","properties":{"depth":30,"kind":"band"},"geometry":{"type":"MultiPolygon","coordinates":[[[[28.9999,34.2504],[28.9996,34.7501],[28.7496,34.9999],[28.2499,34.9996],[28.0001,34.7496],[28.0004,34.2499],[28.2504,34.0001],[28.7501,34.0004],[29,34.0005],[29,34.0005],[28.9999,34.2504]]]]}},{"type":"Feature","properties":{"depth":40,"kind":"band"},"geometry":{"type":"MultiPolygon","coordinates":[[[[28.9999,34.2504],[28.9996,34.7501],[28.7496,34.9999],[28.2499,34.9996],[28.0001,34.7496],[28.0004,34.2499],[28.2504,34.0001],[28.7501,34.0004],[29,34.0005],[29,34.0005],[28.9999,34.2504]]]]}},{"type":"Feature","properties":{"depth":50,"kind":"band"},"geometry":{"type":"MultiPolygon","coordinates":[[[[28.9999,34.2504],[28.9996,34.7501],[28.7496,34.9999],[28.2499,34.9996],[28.0001,34.7496],[28.0004,34.2499],[28.2504,34.0001],[28.7501,34.0004],[29,34.0005],[29,34.0005],[28.9999,34.2504]]]]}},{"type":"Feature","properties":{"depth":60,"kind":"band"},"geometry":{"type":"MultiPolygon","coordinates":[[[[28.9999,34.2504],[28.9996,34.7501],[28.7496,34.9999],[28.2499,34.9996],[28.0001,34.7496],[28.0004,34.2499],[28.2504,34.0001],[28.7501,34.0004],[29,34.0005],[29,34.0005],[28.9999,34.2504]]]]}},{"type":"Feature","properties":{"depth":75,"kind":"band"},"geometry":{"type":"MultiPolygon","coordinates":[[[[28.9999,34.2504],[28.9996,34.7501],[28.7496,34.9999],[28.2499,34.9996],[28.0001,34.7496],[28.0004,34.2499],[28.2504,34.0001],[28.7501,34.0004],[29,34.0005],[29,34.0005],[28.9999,34.2504]]]]}},{"type":"Feature","properties":{"depth":100,"kind":"band"},"geometry":{"type":"MultiPolygon","coordinates":[[[[28.9999,34.2504],[28.9996,34.7501],[28.7496,34.9999],[28.2499,34.9996],[28.0001,34.7496],[28.0004,34.2499],[28.2504,34.0001],[28.7501,34.0004],[29,34.0005],[29,34.0005],[28.9999,34.2504]]]]}},{"type":"Feature","properties":{"depth":150,"kind":"band"},"geometry":{"type":"MultiPolygon","coordinates":[[[[28.9999,34.2504],[28.9996,34.7501],[28.7496,34.9999],[28.2499,34.9996],[28.0001,34.7496],[28.0004,34.2499],[28.2504,34.0001],[28.7501,34.0004],[29,34.0005],[29,34.0005],[28.9999,34.2504]]]]}},{"type":"Feature","properties":{"depth":200,"kind":"band"},"geometry":{"type":"MultiPolygon","coordinates":[[[[28.9999,34.2504],[28.9996,34.7501],[28.7496,34.9999],[28.2499,34.9996],[28.0001,34.7496],[28.0004,34.2499],[28.2504,34.0001],[28.7501,34.0004],[29,34.0005],[29,34.0005],[28.9999,34.2504]]]]}},{"type":"Feature","properties":{"depth":300,"kind":"band"},"geometry":{"type":"MultiPolygon","coordinates":[[[[28.9999,34.2504],[28.9996,34.7501],[28.7496,34.9999],[28.2499,34.9996],[28.0001,34.7496],[28.0004,34.2499],[28.2504,34.0001],[28.7501,34.0004],[29,34.0005],[29,34.0005],[28.9999,34.2504]]]]}},{"type":"Feature","properties":{"depth":500,"kind":"band"},"geometry":{"type":"MultiPolygon","coordinates":[[[[28.9999,34.2504],[28.9996,34.7501],[28.7496,34.9999],[28.2499,34.9996],[28.0001,34.7496],[28.0004,34.2499],[28.2504,34.0001],[28.7501,34.0004],[29,34.0005],[29,34.0005],[28.9999,34.2504]]]]}},{"type":"Feature","properties":{"depth":750,"kind":"band"},"geometry":{"type":"MultiPolygon","coordinates":[[[[28.9999,34.2504],[28.9996,34.7501],[28.7496,34.9999],[28.2499,34.9996],[28.0001,34.7496],[28.0004,34.2499],[28.2504,34.0001],[28.7501,34.0004],[29,34.0005],[29,34.0005],[28.9999,34.2504]]]]}},{"type":"Feature","properties":{"depth":1000,"kind":"band"},"geometry":{"type":"MultiPolygon","coordinates":[[[[28.9999,34.2504],[28.9996,34.7501],[28.7496,34.9999],[28.2499,34.9996],[28.0001,34.7496],[28.0004,34.2499],[28.2504,34.0001],[28.7501,34.0004],[29,34.0005],[29,34.0005],[28.9999,34.2504]]]]}},{"type":"Feature","properties":{"depth":1500,"kind":"band"},"geometry":{"type":"MultiPolygon","coordinates":[[[[28.9999,34.2504],[28.9996,34.7501],[28.7646,35],[28.2948,35],[28.0578,34.9977],[28.0537,34.993],[28.0508,34.993],[28.0492,34.9977],[28.0363,34.9999],[28.0121,34.9996],[28.0001,34.7496],[28.0004,34.2499],[28.2504,34.0001],[28.7501,34.0004],[29,34.0005],[29,34.0005],[28.9999,34.2504]]]]}},{"type":"Feature","properties":{"depth":2000,"kind":"band"},"geometry":{"type":"MultiPolygon","coordinates":[[[[28.0262,34.9805],[28.0273,34.9924],[28.0244,34.9988],[28.0175,34.9996],[28.0127,34.9983],[28.0098,34.9949],[28.009,34.9898],[28.0103,34.983],[28.0146,34.9783],[28.022,34.9758],[28.0257,34.9745],[28.0257,34.9745],[28.0262,34.9805]]],[[[28.9999,34.2504],[28.9996,34.7501],[28.7714,35],[28.3151,35],[28.0825,34.9869],[28.0734,34.9606],[28.0543,34.9421],[28.0254,34.9314],[28.0083,34.93],[28.0031,34.9379],[28.0005,34.7064],[28.0005,34.2355],[28.2504,34.0001],[28.7501,34.0004],[29,34.0005],[29,34.0005],[28.9999,34.2504]]]]}},{"type":"Feature","properties":{"depth":2000,"kind":"isobath"},"geometry":{"type":"MultiLineString","coordinates":[[[28.0084,34.9932],[28.009,34.9898],[28.0103,34.983],[28.0146,34.9783],[28.022,34.9758],[28.0257,34.9745],[28.0257,34.9745],[28.0262,34.9805],[28.0273,34.9924],[28.0278,34.9984]],[[28.0688,34.9474],[28.0543,34.9421],[28.0254,34.9314],[28.0083,34.93],[28.0031,34.9379],[28.0005,34.9418]]]}},{"type":"Feature","properties":{"depth":3000,"kind":"band"},"geometry":{"type":"MultiPolygon","coordinates":[[[[28.3237,34.9591],[28.3322,34.9617],[28.3354,34.9646],[28.3335,34.9677],[28.3337,34.9716],[28.3361,34.9763],[28.3334,34.9799],[28.3256,34.9826],[28.3263,34.9844],[28.3355,34.9856],[28.3396,34.9896],[28.3385,34.9965],[28.333,34.9983],[28.3228,34.9949],[28.3182,34.9883],[28.3191,34.9784],[28.3175,34.9703],[28.3136,34.964],[28.3136,34.9601],[28.3175,34.9586],[28.3195,34.9578],[28.3195,34.9578],[28.3237,34.9591]]],[[[28.2076,34.9613],[28.2299,34.9744],[28.25,34.982],[28.2677,34.984],[28.2797,34.9834],[28.286,34.9801],[28.2969,34.9838],[28.3125,34.9946],[28.281,35],[28.2023,35],[28.1662,34.9929],[28.1727,34.9786],[28.174,34.9672],[28.1701,34.9589],[28.1752,34.9547],[28.1893,34.9547],[28.1964,34.9547],[28.1964,34.9547],[28.2076,34.9613]]],[[[28.4826,34.1556],[28.4897,34.1597],[28.4947,34.1657],[28.4976,34.1736],[28.495,34.18],[28.4869,34.1847],[28.4784,34.1845],[28.4697,34.1792],[28.4651,34.1722],[28.4648,34.1633],[28.4682,34.1576],[28.4754,34.1549],[28.479,34.1536],[28.479,34.1536],[28.4826,34.1556]]],[[[28.5808,34.0929],[28.5947,34.0966],[28.6069,34.1018],[28.6174,34.1086],[28.6152,34.1117],[28.6003,34.1112],[28.5872,34.1068],[28.5761,34.0985],[28.5714,34.0935],[28.5731,34.0919],[28.5739,34.0911],[28.5739,34.0911],[28.5808,34.0929]]],[[[28.9379,34.0604],[28.9541,34.0739],[28.9606,34.082],[28.9573,34.0847],[28.9484,34.085],[28.9339,34.0832],[28.9233,34.0766],[28.9168,34.0655],[28.9176,34.0583],[28.9257,34.0552],[28.9298,34.0536],[28.9298,34.0536],[28.9379,34.0604]]],[[[28.4298,34.0498],[28.4521,34.0606],[28.4608,34.0656],[28.4559,34.0646],[28.4532,34.0654],[28.4528,34.068],[28.4511,34.0674],[28.448,34.0635],[28.4454,34.0625],[28.4433,34.0646],[28.4425,34.0643],[28.443,34.0618],[28.4396,34.0604],[28.4323,34.0602],[28.4256,34.0582],[28.4195,34.0545],[28.4171,34.0505],[28.4182,34.0464],[28.4187,34.0443],[28.4187,34.0443],[28.4298,34.0498]]],[[[28.3603,34.0012],[28.3566,34.0027],[28.3547,34.0051],[28.3547,34.0084],[28.3585,34.0111],[28.366,34.0131],[28.3673,34.0164],[28.3624,34.0208],[28.3464,34.0174],[28.3195,34.0062],[28.32,34.0005],[28.3481,34.0005],[28.3621,34.0005],[28.3621,34.0005],[28.3603,34.0012]]],[[[28.4628,34.0029],[28.4692,34.0076],[28.4797,34.0114],[28.4943,34.0144],[28.5051,34.0193],[28.5121,34.0262],[28.5032,34.0274],[28.4785,34.0229],[28.4622,34.0164],[28.4543,34.0079],[28.4527,34.0028],[28.4573,34.0013],[28.4596,34.0005],[28.4596,34.0005],[28.4628,34.0029]],[[28.4902,34.0195],[28.4923,34.0208],[28.4923,34.0208],[28.4902,34.0195],[28.4891,34.0188],[28.4891,34.0188],[28.4902,34.0195]]],[[[28.9999,34.0151],[28.9996,34.0442],[28.9883,34.0528],[28.9658,34.0409],[28.95,34.0263],[28.9407,34.0091],[28.952,34.0005],[28.984,34.0005],[29,34.0005],[29,34.0005],[28.9999,34.0151]]]]}},{"type":"Feature","properties":{"depth":3000,"kind":"isobath"},"geometry":{"type":"MultiLineString","coordinates":[[[28.3178,34.9932],[28.3182,34.9883],[28.3191,34.9784],[28.3175,34.9703],[28.3136,34.964],[28.3136,34.9601],[28.3175,34.9586],[28.3195,34.9578],[28.3195,34.9578],[28.3237,34.9591],[28.3322,34.9617],[28.3354,34.9646],[28.3335,34.9677],[28.3337,34.9716],[28.3361,34.9763],[28.3334,34.9799],[28.3256,34.9826],[28.3263,34.9844],[28.3355,34.9856],[28.3401,34.9861]],[[28.1759,34.9714],[28.174,34.9672],[28.1701,34.9589],[28.1752,34.9547],[28.1893,34.9547],[28.1964,34.9547],[28.1964,34.9547],[28.2076,34.9613],[28.2299,34.9744],[28.25,34.982],[28.2677,34.984],[28.2797,34.9834],[28.286,34.9801],[28.2891,34.9784]],[[28.479,34.1536],[28.4826,34.1556],[28.4897,34.1597],[28.4947,34.1657],[28.4976,34.1736],[28.495,34.18],[28.4869,34.1847],[28.4784,34.1845],[28.4697,34.1792],[28.4651,34.1722],[28.4648,34.1633],[28.4682,34.1576],[28.4754,34.1549],[28.479,34.1536]],[[28.5739,34.0911],[28.5808,34.0929],[28.5947,34.0966],[28.6069,34.1018],[28.6174,34.1086],[28.6152,34.1117],[28.6003,34.1112],[28.5872,34.1068],[28.5761,34.0985],[28.5714,34.0935],[28.5731,34.0919],[28.5739,34.0911]],[[28.9298,34.0536],[28.9379,34.0604],[28.9541,34.0739],[28.9606,34.082],[28.9573,34.0847],[28.9484,34.085],[28.9339,34.0832],[28.9233,34.0766],[28.9168,34.0655],[28.9176,34.0583],[28.9257,34.0552],[28.9298,34.0536]],[[28.4187,34.0443],[28.4298,34.0498],[28.4521,34.0606],[28.4608,34.0656],[28.4559,34.0646],[28.4532,34.0654],[28.4528,34.068],[28.4511,34.0674],[28.448,34.0635],[28.4454,34.0625],[28.4433,34.0646],[28.4425,34.0643],[28.443,34.0618],[28.4396,34.0604],[28.4323,34.0602],[28.4256,34.0582],[28.4195,34.0545],[28.4171,34.0505],[28.4182,34.0464],[28.4187,34.0443]],[[28.3621,34.0005],[28.3603,34.0012],[28.3566,34.0027],[28.3547,34.0051],[28.3547,34.0084],[28.3585,34.0111],[28.366,34.0131],[28.3673,34.0164],[28.3624,34.0208],[28.3464,34.0174],[28.3195,34.0062],[28.32,34.0005],[28.3481,34.0005],[28.3621,34.0005]],[[28.4596,34.0005],[28.4628,34.0029],[28.4692,34.0076],[28.4797,34.0114],[28.4943,34.0144],[28.5051,34.0193],[28.5121,34.0262],[28.5032,34.0274],[28.4785,34.0229],[28.4622,34.0164],[28.4543,34.0079],[28.4527,34.0028],[28.4573,34.0013],[28.4596,34.0005]],[[28.4891,34.0188],[28.4902,34.0195],[28.4923,34.0208],[28.4923,34.0208],[28.4902,34.0195],[28.4891,34.0188]],[[28.9995,34.0587],[28.9883,34.0528],[28.9658,34.0409],[28.95,34.0263],[28.9407,34.0091],[28.936,34.0005]]]}}]}