{"type":"FeatureCollection","features":[{"type":"Feature","properties":{"depth":5,"kind":"band"},"geometry":{"type":"MultiPolygon","coordinates":[[[[28.2981,37.0453],[28.2971,37.0453],[28.2974,37.0444],[28.2981,37.0453]]],[[[28.2315,37.0005],[28.237,37.0051],[28.2453,37.0056],[28.2484,37.0064],[28.2505,37.0074],[28.2553,37.0109],[28.263,37.0134],[28.2661,37.0174],[28.2738,37.0203],[28.2786,37.0216],[28.2818,37.0217],[28.2828,37.0212],[28.2891,37.022],[28.2919,37.0234],[28.2953,37.0238],[28.2964,37.0246],[28.3026,37.0249],[28.3057,37.0246],[28.3089,37.0266],[28.313,37.0271],[28.3161,37.0263],[28.3182,37.0268],[28.3214,37.0289],[28.3224,37.0288],[28.3234,37.0297],[28.3245,37.0296],[28.3264,37.0328],[28.3252,37.0339],[28.3255,37.0359],[28.3265,37.038],[28.3256,37.0391],[28.3255,37.0422],[28.3248,37.0432],[28.325,37.0443],[28.3255,37.0446],[28.3255,37.0458],[28.3245,37.0455],[28.3203,37.046],[28.3182,37.0442],[28.3172,37.0447],[28.3161,37.0442],[28.3164,37.0453],[28.3151,37.0458],[28.3109,37.0462],[28.3068,37.0456],[28.3061,37.0464],[28.3023,37.0464],[28.3016,37.0456],[28.3005,37.0456],[28.3,37.0443],[28.2995,37.0442],[28.2984,37.0452],[28.2974,37.0442],[28.2964,37.0448],[28.2932,37.045],[28.2911,37.0442],[28.2891,37.044],[28.2849,37.0448],[28.2745,37.0453],[28.2682,37.0421],[28.262,37.0399],[28.2589,37.0393],[28.2557,37.0366],[28.2547,37.0377],[28.2484,37.0373],[28.2432,37.0351],[28.238,37.0354],[28.2349,37.0362],[28.2339,37.0371],[28.2307,37.0375],[28.2297,37.0391],[28.2286,37.0391],[28.2276,37.0374],[28.2255,37.0357],[28.2245,37.0362],[28.2234,37.0358],[28.2193,37.0362],[28.2161,37.0371],[28.215,37.038],[28.2109,37.038],[28.2068,37.0364],[28.1964,37.0359],[28.1922,37.0342],[28.1859,37.0302],[28.1839,37.0296],[28.1786,37.0293],[28.1682,37.0257],[28.1568,37.0257],[28.1526,37.0269],[28.1411,37.0267],[28.137,37.0274],[28.1318,37.0272],[28.1266,37.0282],[28.1255,37.0288],[28.1245,37.0276],[28.1234,37.0298],[28.1141,37.0316],[28.1123,37.0307],[28.112,37.0276],[28.1166,37.0245],[28.1182,37.021],[28.1193,37.0209],[28.1212,37.0193],[28.1192,37.0141],[28.1171,37.012],[28.1151,37.0111],[28.1109,37.0102],[28.1047,37.0101],[28.1016,37.0093],[28.0984,37.0094],[28.0967,37.0099],[28.0954,37.0109],[28.0943,37.013],[28.0943,37.0148],[28.0932,37.0151],[28.0929,37.0161],[28.0932,37.0167],[28.0943,37.0156],[28.0953,37.0155],[28.0961,37.0161],[28.0974,37.0183],[28.0974,37.0193],[28.0953,37.0193],[28.0943,37.0182],[28.0911,37.0173],[28.0891,37.0179],[28.087,37.0195],[28.0859,37.0196],[28.0849,37.019],[28.0839,37.02],[28.0807,37.0184],[28.0755,37.0184],[28.0724,37.0193],[28.0682,37.0198],[28.0661,37.0208],[28.0651,37.0224],[28.0641,37.0224],[28.063,37.0212],[28.062,37.021],[28.055,37.0214],[28.0505,37.0198],[28.0341,37.0203],[28.0328,37.0193],[28.0307,37.019],[28.0214,37.0192],[28.0161,37.0209],[28.0047,37.0209],[28.0005,37.0218],[28,37.0214],[28,37.0005],[28.0005,37],[28.2036,37],[28.2047,37.0008],[28.2078,37.0012],[28.2109,37.001],[28.212,37],[28.2141,37],[28.2151,37.0009],[28.2224,37.0024],[28.2266,37.0012],[28.2276,37],[28.2286,37.0005],[28.2307,37],[28.2315,37.0005]]]]}},{"type":"Feature","properties":{"depth":5,"kind":"isobath"},"geometry":{"type":"MultiLineString","coordinates":[[[28.2981,37.0453],[28.2971,37.0453],[28.2974,37.0444]],[[28.2047,37.0008],[28.2078,37.0012],[28.2109,37.001]],[[28.2151,37.0009],[28.2224,37.0024],[28.2266,37.0012]],[[28.2315,37.0005],[28.237,37.0051],[28.2453,37.0056],[28.2484,37.0064],[28.2505,37.0074],[28.2553,37.0109],[28.263,37.0134],[28.2661,37.0174],[28.2738,37.0203],[28.2786,37.0216],[28.2818,37.0217],[28.2828,37.0212],[28.2891,37.022],[28.2919,37.0234],[28.2953,37.0238],[28.2964,37.0246],[28.3026,37.0249],[28.3057,37.0246],[28.3089,37.0266],[28.313,37.0271],[28.3161,37.0263],[28.3182,37.0268],[28.3214,37.0289],[28.3224,37.0288],[28.3234,37.0297],[28.3245,37.0296],[28.3264,37.0328],[28.3252,37.0339],[28.3255,37.0359],[28.3265,37.038],[28.3256,37.0391],[28.3255,37.0422],[28.3248,37.0432],[28.325,37.0443],[28.3255,37.0446],[28.3255,37.0458],[28.3245,37.0455],[28.3203,37.046],[28.3182,37.0442],[28.3172,37.0447],[28.3161,37.0442],[28.3164,37.0453],[28.3151,37.0458],[28.3109,37.0462],[28.3068,37.0456],[28.3061,37.0464],[28.3023,37.0464],[28.3016,37.0456],[28.3005,37.0456],[28.3,37.0443],[28.2995,37.0442],[28.2984,37.0452],[28.2974,37.0442],[28.2964,37.0448],[28.2932,37.045],[28.2911,37.0442],[28.2891,37.044],[28.2849,37.0448],[28.2745,37.0453],[28.2682,37.0421],[28.262,37.0399],[28.2589,37.0393],[28.2557,37.0366],[28.2547,37.0377],[28.2484,37.0373],[28.2432,37.0351],[28.238,37.0354],[28.2349,37.0362],[28.2339,37.0371],[28.2307,37.0375],[28.2297,37.0391],[28.2286,37.0391],[28.2276,37.0374],[28.2255,37.0357],[28.2245,37.0362],[28.2234,37.0358],[28.2193,37.0362],[28.2161,37.0371],[28.215,37.038],[28.2109,37.038],[28.2068,37.0364],[28.1964,37.0359],[28.1922,37.0342],[28.1859,37.0302],[28.1839,37.0296],[28.1786,37.0293],[28.1682,37.0257],[28.1568,37.0257],[28.1526,37.0269],[28.1411,37.0267],[28.137,37.0274],[28.1318,37.0272],[28.1266,37.0282],[28.1255,37.0288],[28.1245,37.0276],[28.1234,37.0298],[28.1141,37.0316],[28.1123,37.0307],[28.112,37.0276],[28.1166,37.0245],[28.1182,37.021],[28.1193,37.0209],[28.1212,37.0193],[28.1192,37.0141],[28.1171,37.012],[28.1151,37.0111],[28.1109,37.0102],[28.1047,37.0101],[28.1016,37.0093],[28.0984,37.0094],[28.0967,37.0099],[28.0954,37.0109],[28.0943,37.013],[28.0943,37.0148],[28.0932,37.0151],[28.0929,37.0161],[28.0932,37.0167],[28.0943,37.0156],[28.0953,37.0155],[28.0961,37.0161],[28.0974,37.0183],[28.0974,37.0193],[28.0953,37.0193],[28.0943,37.0182],[28.0911,37.0173],[28.0891,37.0179],[28.087,37.0195],[28.0859,37.0196],[28.0849,37.019],[28.0839,37.02],[28.0807,37.0184],[28.0755,37.0184],[28.0724,37.0193],[28.0682,37.0198],[28.0661,37.0208],[28.0651,37.0224],[28.0641,37.0224],[28.063,37.0212],[28.062,37.021],[28.055,37.0214],[28.0505,37.0198],[28.0341,37.0203],[28.0328,37.0193],[28.0307,37.019],[28.0214,37.0192],[28.0161,37.0209],[28.0047,37.0209],[28.0005,37.0218]]]}},{"type":"Feature","properties":{"depth":10,"kind":"band"},"geometry":{"type":"MultiPolygon","coordinates":[[[[28.2445,37.0349],[28.2441,37.0349],[28.2443,37.0345],[28.2445,37.0349]]],[[[28.1144,37.0307],[28.1139,37.0307],[28.1141,37.0304],[28.1144,37.0307]]],[[[28.0958,37.0172],[28.0964,37.0182],[28.0953,37.0188],[28.0947,37.0182],[28.0946,37.0172],[28.0953,37.0165],[28.0958,37.0172]]],[[[28.2027,37.0005],[28.2047,37.0016],[28.2068,37.002],[28.2099,37.002],[28.213,37.0013],[28.2214,37.0036],[28.2234,37.0036],[28.2255,37.003],[28.2297,37.003],[28.2307,37.0033],[28.2328,37.0049],[28.237,37.0061],[28.2453,37.0067],[28.2464,37.0076],[28.2474,37.0072],[28.2505,37.0084],[28.2547,37.0113],[28.2621,37.0141],[28.263,37.0145],[28.2661,37.018],[28.2734,37.0207],[28.2797,37.0223],[28.2891,37.0228],[28.2922,37.024],[28.2953,37.0245],[28.2964,37.0251],[28.3057,37.0256],[28.3089,37.0271],[28.313,37.0278],[28.3151,37.0278],[28.3161,37.0272],[28.3193,37.0286],[28.3237,37.0339],[28.3238,37.0349],[28.325,37.037],[28.3238,37.0391],[28.3243,37.0401],[28.3241,37.0411],[28.3232,37.0422],[28.3232,37.0432],[28.3224,37.0446],[28.3193,37.0446],[28.3172,37.0431],[28.3151,37.0449],[28.3089,37.0456],[28.3068,37.045],[28.3049,37.0464],[28.3034,37.0464],[28.3035,37.0453],[28.3016,37.0451],[28.2984,37.0431],[28.2953,37.0444],[28.2932,37.0444],[28.2891,37.0433],[28.2849,37.044],[28.2755,37.0444],[28.2734,37.044],[28.2651,37.0403],[28.2589,37.0383],[28.2547,37.035],[28.2536,37.0369],[28.2495,37.0365],[28.2468,37.0359],[28.247,37.0349],[28.2443,37.0331],[28.2432,37.0342],[28.2359,37.0349],[28.2339,37.0347],[28.2328,37.0355],[28.2307,37.0354],[28.2297,37.0358],[28.2286,37.0346],[28.2276,37.0359],[28.2266,37.0359],[28.2245,37.0346],[28.2193,37.0349],[28.2151,37.0363],[28.2141,37.0376],[28.213,37.0369],[28.2099,37.0366],[28.2078,37.0355],[28.2016,37.0354],[28.1964,37.0348],[28.1901,37.0316],[28.1859,37.0271],[28.1854,37.0276],[28.1858,37.0286],[28.1849,37.029],[28.1828,37.028],[28.1776,37.0273],[28.1693,37.0244],[28.1609,37.0241],[28.1505,37.0254],[28.1432,37.0255],[28.138,37.025],[28.1359,37.0257],[28.1307,37.0254],[28.1286,37.0258],[28.1276,37.0269],[28.1245,37.0271],[28.1234,37.0263],[28.1228,37.0266],[28.1234,37.0276],[28.1203,37.0297],[28.1151,37.0304],[28.1139,37.0286],[28.1143,37.0276],[28.1179,37.0245],[28.1185,37.0234],[28.1184,37.0224],[28.1214,37.0216],[28.124,37.0193],[28.1234,37.0182],[28.1202,37.013],[28.1182,37.0112],[28.1161,37.0101],[28.1109,37.0092],[28.1016,37.0083],[28.0974,37.0086],[28.0946,37.0099],[28.0932,37.0121],[28.0918,37.013],[28.0914,37.0141],[28.0915,37.0161],[28.0901,37.0157],[28.0891,37.0159],[28.0849,37.0179],[28.0797,37.0168],[28.0745,37.0174],[28.0666,37.0193],[28.0641,37.0211],[28.0609,37.0201],[28.0598,37.0203],[28.059,37.0214],[28.0553,37.0214],[28.0526,37.0192],[28.0495,37.0188],[28.0401,37.0194],[28.038,37.0197],[28.0372,37.0203],[28.0345,37.0203],[28.0328,37.0188],[28.0297,37.0184],[28.0214,37.0185],[28.0151,37.0202],[28.0068,37.0198],[28.0005,37.0207],[28,37.0203],[28,37.0005],[28.0005,37],[28.2026,37],[28.2027,37.0005]],[[28.1266,37.0191],[28.1255,37.0193],[28.1266,37.0196],[28.1266,37.0191]]]]}},{"type":"Feature","properties":{"depth":10,"kind":"isobath"},"geometry":{"type":"MultiLineString","coordinates":[[[28.2445,37.0349],[28.2441,37.0349],[28.2443,37.0345]],[[28.1144,37.0307],[28.1139,37.0307],[28.1141,37.0304]],[[28.0958,37.0172],[28.0964,37.0182],[28.0953,37.0188],[28.0947,37.0182],[28.0946,37.0172],[28.0953,37.0165]],[[28.2027,37.0005],[28.2047,37.0016],[28.2068,37.002],[28.2099,37.002],[28.213,37.0013],[28.2214,37.0036],[28.2234,37.0036],[28.2255,37.003],[28.2297,37.003],[28.2307,37.0033],[28.2328,37.0049],[28.237,37.0061],[28.2453,37.0067],[28.2464,37.0076],[28.2474,37.0072],[28.2505,37.0084],[28.2547,37.0113],[28.2621,37.0141],[28.263,37.0145],[28.2661,37.018],[28.2734,37.0207],[28.2797,37.0223],[28.2891,37.0228],[28.2922,37.024],[28.2953,37.0245],[28.2964,37.0251],[28.3057,37.0256],[28.3089,37.0271],[28.313,37.0278],[28.3151,37.0278],[28.3161,37.0272],[28.3193,37.0286],[28.3237,37.0339],[28.3238,37.0349],[28.325,37.037],[28.3238,37.0391],[28.3243,37.0401],[28.3241,37.0411],[28.3232,37.0422],[28.3232,37.0432],[28.3224,37.0446],[28.3193,37.0446],[28.3172,37.0431],[28.3151,37.0449],[28.3089,37.0456],[28.3068,37.045],[28.3049,37.0464],[28.3034,37.0464],[28.3035,37.0453],[28.3016,37.0451],[28.2984,37.0431],[28.2953,37.0444],[28.2932,37.0444],[28.2891,37.0433],[28.2849,37.044],[28.2755,37.0444],[28.2734,37.044],[28.2651,37.0403],[28.2589,37.0383],[28.2547,37.035],[28.2536,37.0369],[28.2495,37.0365],[28.2468,37.0359],[28.247,37.0349],[28.2443,37.0331],[28.2432,37.0342],[28.2359,37.0349],[28.2339,37.0347],[28.2328,37.0355],[28.2307,37.0354],[28.2297,37.0358],[28.2286,37.0346],[28.2276,37.0359],[28.2266,37.0359],[28.2245,37.0346],[28.2193,37.0349],[28.2151,37.0363],[28.2141,37.0376],[28.213,37.0369],[28.2099,37.0366],[28.2078,37.0355],[28.2016,37.0354],[28.1964,37.0348],[28.1901,37.0316],[28.1859,37.0271],[28.1854,37.0276],[28.1858,37.0286],[28.1849,37.029],[28.1828,37.028],[28.1776,37.0273],[28.1693,37.0244],[28.1609,37.0241],[28.1505,37.0254],[28.1432,37.0255],[28.138,37.025],[28.1359,37.0257],[28.1307,37.0254],[28.1286,37.0258],[28.1276,37.0269],[28.1245,37.0271],[28.1234,37.0263],[28.1228,37.0266],[28.1234,37.0276],[28.1203,37.0297],[28.1151,37.0304],[28.1139,37.0286],[28.1143,37.0276],[28.1179,37.0245],[28.1185,37.0234],[28.1184,37.0224],[28.1214,37.0216],[28.124,37.0193],[28.1234,37.0182],[28.1202,37.013],[28.1182,37.0112],[28.1161,37.0101],[28.1109,37.0092],[28.1016,37.0083],[28.0974,37.0086],[28.0946,37.0099],[28.0932,37.0121],[28.0918,37.013],[28.0914,37.0141],[28.0915,37.0161],[28.0901,37.0157],[28.0891,37.0159],[28.0849,37.0179],[28.0797,37.0168],[28.0745,37.0174],[28.0666,37.0193],[28.0641,37.0211],[28.0609,37.0201],[28.0598,37.0203],[28.059,37.0214],[28.0553,37.0214],[28.0526,37.0192],[28.0495,37.0188],[28.0401,37.0194],[28.038,37.0197],[28.0372,37.0203],[28.0345,37.0203],[28.0328,37.0188],[28.0297,37.0184],[28.0214,37.0185],[28.0151,37.0202],[28.0068,37.0198],[28.0005,37.0207]],[[28.1266,37.0191],[28.1255,37.0193],[28.1266,37.0196]]]}},{"type":"Feature","properties":{"depth":20,"kind":"band"},"geometry":{"type":"MultiPolygon","coordinates":[[[[28.3018,37.0443],[28.3015,37.0443],[28.3016,37.0437],[28.3018,37.0443]]],[[[28.1265,37.0224],[28.1261,37.0234],[28.1245,37.0245],[28.123,37.0234],[28.1255,37.022],[28.1265,37.0224]]],[[[28.1271,37.0214],[28.1266,37.0222],[28.1264,37.0214],[28.1271,37.0214]]],[[[28.197,37.0005],[28.1974,37.0018],[28.1995,37.0022],[28.2016,37.0037],[28.2089,37.0044],[28.2099,37.0038],[28.212,37.004],[28.2203,37.0067],[28.2297,37.0067],[28.2318,37.0072],[28.2328,37.0084],[28.2339,37.0081],[28.2349,37.0086],[28.2422,37.0088],[28.2453,37.0094],[28.2474,37.0111],[28.2484,37.0107],[28.2505,37.0118],[28.2599,37.0148],[28.2641,37.0182],[28.2672,37.02],[28.2797,37.0238],[28.288,37.0243],[28.2953,37.0256],[28.2964,37.0262],[28.2984,37.0266],[28.3005,37.0262],[28.3026,37.0268],[28.3036,37.0264],[28.3047,37.0272],[28.3057,37.027],[28.313,37.0291],[28.3151,37.0303],[28.3161,37.0296],[28.3172,37.0304],[28.3193,37.0306],[28.3176,37.0318],[28.3193,37.0322],[28.3213,37.0339],[28.3225,37.037],[28.3216,37.038],[28.3215,37.0401],[28.3203,37.0423],[28.3172,37.0424],[28.3161,37.0419],[28.312,37.0438],[28.3068,37.0442],[28.3057,37.0439],[28.3047,37.0445],[28.3016,37.0432],[28.2995,37.0435],[28.2984,37.0426],[28.2974,37.0428],[28.2964,37.0419],[28.2932,37.043],[28.288,37.042],[28.2766,37.0427],[28.2734,37.0421],[28.2568,37.0356],[28.2547,37.0342],[28.2526,37.0352],[28.2505,37.0349],[28.2464,37.033],[28.2453,37.0318],[28.2432,37.0313],[28.2422,37.0322],[28.238,37.0321],[28.2339,37.0316],[28.2328,37.0306],[28.2325,37.0307],[28.2336,37.0318],[28.2307,37.0323],[28.2297,37.0315],[28.2276,37.0317],[28.2255,37.0304],[28.2245,37.0306],[28.2234,37.0321],[28.2182,37.0321],[28.212,37.0343],[28.2099,37.0344],[28.2057,37.0334],[28.2005,37.0334],[28.1953,37.0322],[28.1922,37.0306],[28.1906,37.0286],[28.1891,37.0281],[28.1871,37.0266],[28.1863,37.0255],[28.187,37.025],[28.187,37.0243],[28.1859,37.0252],[28.1849,37.0247],[28.1839,37.0251],[28.1755,37.0235],[28.1703,37.0216],[28.1672,37.0214],[28.1599,37.0211],[28.1526,37.0224],[28.1464,37.0229],[28.1422,37.0227],[28.138,37.0211],[28.1359,37.0212],[28.1339,37.0219],[28.1328,37.0214],[28.1304,37.0214],[28.1307,37.0203],[28.1297,37.0194],[28.1265,37.0182],[28.1267,37.0172],[28.124,37.013],[28.1214,37.0102],[28.1193,37.0089],[28.1141,37.0072],[28.1005,37.0062],[28.0943,37.0071],[28.0924,37.0078],[28.0906,37.0099],[28.0891,37.0102],[28.087,37.013],[28.0859,37.0134],[28.0766,37.0142],[28.0641,37.0177],[28.063,37.0184],[28.0599,37.0185],[28.0589,37.0193],[28.058,37.0214],[28.0563,37.0214],[28.0562,37.0203],[28.0526,37.0178],[28.0495,37.0169],[28.038,37.0183],[28.0366,37.0193],[28.0364,37.0203],[28.0354,37.0203],[28.0341,37.0182],[28.0328,37.0172],[28.0224,37.0171],[28.0141,37.0186],[28.0057,37.018],[28,37.0182],[28,37.0005],[28.0005,37],[28.1943,37],[28.1953,37.0008],[28.1964,37],[28.197,37.0005]]]]}},{"type":"Feature","properties":{"depth":20,"kind":"isobath"},"geometry":{"type":"MultiLineString","coordinates":[[[28.3018,37.0443],[28.3015,37.0443],[28.3016,37.0437]],[[28.1265,37.0224],[28.1261,37.0234],[28.1245,37.0245],[28.123,37.0234],[28.1255,37.022]],[[28.1271,37.0214],[28.1266,37.0222],[28.1264,37.0214]],[[28.197,37.0005],[28.1974,37.0018],[28.1995,37.0022],[28.2016,37.0037],[28.2089,37.0044],[28.2099,37.0038],[28.212,37.004],[28.2203,37.0067],[28.2297,37.0067],[28.2318,37.0072],[28.2328,37.0084],[28.2339,37.0081],[28.2349,37.0086],[28.2422,37.0088],[28.2453,37.0094],[28.2474,37.0111],[28.2484,37.0107],[28.2505,37.0118],[28.2599,37.0148],[28.2641,37.0182],[28.2672,37.02],[28.2797,37.0238],[28.288,37.0243],[28.2953,37.0256],[28.2964,37.0262],[28.2984,37.0266],[28.3005,37.0262],[28.3026,37.0268],[28.3036,37.0264],[28.3047,37.0272],[28.3057,37.027],[28.313,37.0291],[28.3151,37.0303],[28.3161,37.0296],[28.3172,37.0304],[28.3193,37.0306],[28.3176,37.0318],[28.3193,37.0322],[28.3213,37.0339],[28.3225,37.037],[28.3216,37.038],[28.3215,37.0401],[28.3203,37.0423],[28.3172,37.0424],[28.3161,37.0419],[28.312,37.0438],[28.3068,37.0442],[28.3057,37.0439],[28.3047,37.0445],[28.3016,37.0432],[28.2995,37.0435],[28.2984,37.0426],[28.2974,37.0428],[28.2964,37.0419],[28.2932,37.043],[28.288,37.042],[28.2766,37.0427],[28.2734,37.0421],[28.2568,37.0356],[28.2547,37.0342],[28.2526,37.0352],[28.2505,37.0349],[28.2464,37.033],[28.2453,37.0318],[28.2432,37.0313],[28.2422,37.0322],[28.238,37.0321],[28.2339,37.0316],[28.2328,37.0306],[28.2325,37.0307],[28.2336,37.0318],[28.2307,37.0323],[28.2297,37.0315],[28.2276,37.0317],[28.2255,37.0304],[28.2245,37.0306],[28.2234,37.0321],[28.2182,37.0321],[28.212,37.0343],[28.2099,37.0344],[28.2057,37.0334],[28.2005,37.0334],[28.1953,37.0322],[28.1922,37.0306],[28.1906,37.0286],[28.1891,37.0281],[28.1871,37.0266],[28.1863,37.0255],[28.187,37.025],[28.187,37.0243],[28.1859,37.0252],[28.1849,37.0247],[28.1839,37.0251],[28.1755,37.0235],[28.1703,37.0216],[28.1672,37.0214],[28.1599,37.0211],[28.1526,37.0224],[28.1464,37.0229],[28.1422,37.0227],[28.138,37.0211],[28.1359,37.0212],[28.1339,37.0219],[28.1328,37.0214],[28.1304,37.0214],[28.1307,37.0203],[28.1297,37.0194],[28.1265,37.0182],[28.1267,37.0172],[28.124,37.013],[28.1214,37.0102],[28.1193,37.0089],[28.1141,37.0072],[28.1005,37.0062],[28.0943,37.0071],[28.0924,37.0078],[28.0906,37.0099],[28.0891,37.0102],[28.087,37.013],[28.0859,37.0134],[28.0766,37.0142],[28.0641,37.0177],[28.063,37.0184],[28.0599,37.0185],[28.0589,37.0193],[28.058,37.0214],[28.0563,37.0214],[28.0562,37.0203],[28.0526,37.0178],[28.0495,37.0169],[28.038,37.0183],[28.0366,37.0193],[28.0364,37.0203],[28.0354,37.0203],[28.0341,37.0182],[28.0328,37.0172],[28.0224,37.0171],[28.0141,37.0186],[28.0057,37.018]]]}},{"type":"Feature","properties":{"depth":30,"kind":"band"},"geometry":{"type":"MultiPolygon","coordinates":[[[[28.1923,37.0005],[28.1958,37.0036],[28.1964,37.0051],[28.1984,37.0045],[28.1995,37.0054],[28.2078,37.0064],[28.2089,37.0068],[28.2099,37.0065],[28.2109,37.0071],[28.212,37.0068],[28.2193,37.0097],[28.2214,37.0101],[28.2286,37.0104],[28.2307,37.0099],[28.2328,37.0104],[28.2349,37.0114],[28.2411,37.0112],[28.2453,37.0119],[28.2474,37.0132],[28.2484,37.0128],[28.2505,37.0141],[28.2526,37.0142],[28.2568,37.0155],[28.2589,37.0168],[28.2599,37.0169],[28.2627,37.0193],[28.2672,37.0218],[28.2755,37.0244],[28.2807,37.0257],[28.2953,37.0271],[28.2974,37.0279],[28.3026,37.028],[28.3057,37.0294],[28.3068,37.0288],[28.3078,37.0298],[28.3109,37.0301],[28.3178,37.0328],[28.3194,37.0349],[28.3197,37.037],[28.3182,37.0398],[28.3161,37.0402],[28.3109,37.0425],[28.3078,37.0428],[28.3068,37.0433],[28.3047,37.0427],[28.3036,37.0434],[28.3026,37.0426],[28.3005,37.043],[28.2974,37.0422],[28.2953,37.0408],[28.2943,37.0417],[28.2932,37.0417],[28.287,37.0404],[28.2755,37.041],[28.2734,37.0406],[28.2609,37.0356],[28.2568,37.0349],[28.2536,37.033],[28.2526,37.0336],[28.2464,37.0319],[28.2447,37.0307],[28.2443,37.0297],[28.2422,37.0301],[28.2359,37.0301],[28.2339,37.0295],[28.2328,37.0299],[28.2318,37.029],[28.2297,37.0307],[28.2286,37.0291],[28.2266,37.0299],[28.2245,37.0284],[28.2234,37.0294],[28.2172,37.0292],[28.2089,37.0322],[28.2057,37.0315],[28.2005,37.0313],[28.1964,37.0302],[28.1932,37.0286],[28.1902,37.0266],[28.1897,37.0255],[28.188,37.025],[28.1859,37.0226],[28.1849,37.0227],[28.1828,37.0214],[28.1776,37.0206],[28.1734,37.0191],[28.1693,37.0184],[28.1589,37.0181],[28.1516,37.0198],[28.1443,37.0202],[28.1391,37.0198],[28.137,37.0188],[28.1359,37.0193],[28.1349,37.0189],[28.1328,37.019],[28.1297,37.0168],[28.1286,37.0176],[28.1276,37.0161],[28.1258,37.0109],[28.1234,37.008],[28.1193,37.0059],[28.1161,37.0049],[28.113,37.0046],[28.0995,37.0041],[28.0922,37.0048],[28.0901,37.0057],[28.088,37.0079],[28.0859,37.0088],[28.0849,37.01],[28.0766,37.0111],[28.0724,37.0124],[28.0714,37.0133],[28.0622,37.0161],[28.0589,37.0164],[28.0578,37.0176],[28.0547,37.0175],[28.0505,37.015],[28.0495,37.0149],[28.0464,37.015],[28.038,37.0172],[28.037,37.0168],[28.0359,37.0175],[28.0339,37.0173],[28.0328,37.0164],[28.0307,37.0158],[28.0182,37.016],[28.013,37.0168],[28.0078,37.016],[28.0005,37.016],[28,37.0151],[28,37.0005],[28.0005,37],[28.1922,37],[28.1923,37.0005]],[[28.1974,37.0064],[28.1974,37.0068],[28.1982,37.0068],[28.1974,37.0064]]]]}},{"type":"Feature","properties":{"depth":30,"kind":"isobath"},"geometry":{"type":"MultiLineString","coordinates":[[[28.1923,37.0005],[28.1958,37.0036],[28.1964,37.0051],[28.1984,37.0045],[28.1995,37.0054],[28.2078,37.0064],[28.2089,37.0068],[28.2099,37.0065],[28.2109,37.0071],[28.212,37.0068],[28.2193,37.0097],[28.2214,37.0101],[28.2286,37.0104],[28.2307,37.0099],[28.2328,37.0104],[28.2349,37.0114],[28.2411,37.0112],[28.2453,37.0119],[28.2474,37.0132],[28.2484,37.0128],[28.2505,37.0141],[28.2526,37.0142],[28.2568,37.0155],[28.2589,37.0168],[28.2599,37.0169],[28.2627,37.0193],[28.2672,37.0218],[28.2755,37.0244],[28.2807,37.0257],[28.2953,37.0271],[28.2974,37.0279],[28.3026,37.028],[28.3057,37.0294],[28.3068,37.0288],[28.3078,37.0298],[28.3109,37.0301],[28.3178,37.0328],[28.3194,37.0349],[28.3197,37.037],[28.3182,37.0398],[28.3161,37.0402],[28.3109,37.0425],[28.3078,37.0428],[28.3068,37.0433],[28.3047,37.0427],[28.3036,37.0434],[28.3026,37.0426],[28.3005,37.043],[28.2974,37.0422],[28.2953,37.0408],[28.2943,37.0417],[28.2932,37.0417],[28.287,37.0404],[28.2755,37.041],[28.2734,37.0406],[28.2609,37.0356],[28.2568,37.0349],[28.2536,37.033],[28.2526,37.0336],[28.2464,37.0319],[28.2447,37.0307],[28.2443,37.0297],[28.2422,37.0301],[28.2359,37.0301],[28.2339,37.0295],[28.2328,37.0299],[28.2318,37.029],[28.2297,37.0307],[28.2286,37.0291],[28.2266,37.0299],[28.2245,37.0284],[28.2234,37.0294],[28.2172,37.0292],[28.2089,37.0322],[28.2057,37.0315],[28.2005,37.0313],[28.1964,37.0302],[28.1932,37.0286],[28.1902,37.0266],[28.1897,37.0255],[28.188,37.025],[28.1859,37.0226],[28.1849,37.0227],[28.1828,37.0214],[28.1776,37.0206],[28.1734,37.0191],[28.1693,37.0184],[28.1589,37.0181],[28.1516,37.0198],[28.1443,37.0202],[28.1391,37.0198],[28.137,37.0188],[28.1359,37.0193],[28.1349,37.0189],[28.1328,37.019],[28.1297,37.0168],[28.1286,37.0176],[28.1276,37.0161],[28.1258,37.0109],[28.1234,37.008],[28.1193,37.0059],[28.1161,37.0049],[28.113,37.0046],[28.0995,37.0041],[28.0922,37.0048],[28.0901,37.0057],[28.088,37.0079],[28.0859,37.0088],[28.0849,37.01],[28.0766,37.0111],[28.0724,37.0124],[28.0714,37.0133],[28.0622,37.0161],[28.0589,37.0164],[28.0578,37.0176],[28.0547,37.0175],[28.0505,37.015],[28.0495,37.0149],[28.0464,37.015],[28.038,37.0172],[28.037,37.0168],[28.0359,37.0175],[28.0339,37.0173],[28.0328,37.0164],[28.0307,37.0158],[28.0182,37.016],[28.013,37.0168],[28.0078,37.016],[28.0005,37.016]],[[28.1974,37.0064],[28.1974,37.0068],[28.1982,37.0068]]]}},{"type":"Feature","properties":{"depth":40,"kind":"band"},"geometry":{"type":"MultiPolygon","coordinates":[[[[28.1323,37.0161],[28.1315,37.0161],[28.1318,37.0157],[28.1323,37.0161]]],[[[28.0861,37.0068],[28.0856,37.0068],[28.0859,37.0061],[28.0861,37.0068]]],[[[28.1878,37.0005],[28.1911,37.004],[28.1964,37.0065],[28.1984,37.0081],[28.2089,37.0089],[28.2151,37.0109],[28.2182,37.0126],[28.2214,37.0134],[28.2245,37.0136],[28.2328,37.0127],[28.2349,37.0137],[28.2422,37.0137],[28.2464,37.015],[28.2484,37.0149],[28.2516,37.0162],[28.2568,37.0173],[28.2672,37.0236],[28.2776,37.0268],[28.2839,37.0279],[28.2932,37.0282],[28.2995,37.0292],[28.3026,37.029],[28.3047,37.0297],[28.3068,37.0311],[28.3078,37.0306],[28.3087,37.0307],[28.3159,37.0339],[28.3169,37.0349],[28.3174,37.037],[28.3161,37.0387],[28.312,37.0406],[28.3089,37.0414],[28.3057,37.0415],[28.3047,37.0421],[28.3036,37.0414],[28.3016,37.042],[28.3005,37.0412],[28.2964,37.0408],[28.2953,37.0399],[28.2943,37.0404],[28.2922,37.0401],[28.287,37.0388],[28.2744,37.0391],[28.2651,37.0352],[28.2557,37.033],[28.2547,37.032],[28.2526,37.032],[28.2464,37.03],[28.2453,37.03],[28.2443,37.0284],[28.2411,37.0278],[28.2328,37.0274],[28.2318,37.0269],[28.2297,37.0271],[28.2286,37.0267],[28.2266,37.0269],[28.2255,37.0262],[28.2234,37.0267],[28.2182,37.026],[28.2109,37.0286],[28.2098,37.0286],[28.2089,37.0294],[28.2005,37.0291],[28.1974,37.0284],[28.1911,37.0241],[28.1893,37.0234],[28.1887,37.0224],[28.187,37.0215],[28.1849,37.0191],[28.1828,37.0181],[28.1776,37.0174],[28.1745,37.016],[28.1589,37.0148],[28.1505,37.017],[28.1443,37.0174],[28.1407,37.0172],[28.1328,37.0156],[28.1318,37.0146],[28.1307,37.0147],[28.1282,37.0089],[28.1255,37.006],[28.1214,37.0037],[28.1182,37.0026],[28.1141,37.002],[28.0995,37.0019],[28.0891,37.003],[28.0849,37.0065],[28.0818,37.0073],[28.0766,37.0078],[28.0701,37.0109],[28.063,37.013],[28.062,37.0138],[28.0578,37.0145],[28.0568,37.0153],[28.0536,37.0149],[28.0516,37.0135],[28.0484,37.0128],[28.0443,37.0131],[28.0432,37.0143],[28.0359,37.0159],[28.0349,37.0156],[28.0339,37.0159],[28.0307,37.0145],[28.0182,37.0142],[28.012,37.0149],[28.0068,37.014],[28.0005,37.0136],[28,37.013],[28,37.0005],[28.0005,37],[28.187,37],[28.1878,37.0005]]]]}},{"type":"Feature","properties":{"depth":40,"kind":"isobath"},"geometry":{"type":"MultiLineString","coordinates":[[[28.1323,37.0161],[28.1315,37.0161],[28.1318,37.0157]],[[28.0861,37.0068],[28.0856,37.0068],[28.0859,37.0061]],[[28.1878,37.0005],[28.1911,37.004],[28.1964,37.0065],[28.1984,37.0081],[28.2089,37.0089],[28.2151,37.0109],[28.2182,37.0126],[28.2214,37.0134],[28.2245,37.0136],[28.2328,37.0127],[28.2349,37.0137],[28.2422,37.0137],[28.2464,37.015],[28.2484,37.0149],[28.2516,37.0162],[28.2568,37.0173],[28.2672,37.0236],[28.2776,37.0268],[28.2839,37.0279],[28.2932,37.0282],[28.2995,37.0292],[28.3026,37.029],[28.3047,37.0297],[28.3068,37.0311],[28.3078,37.0306],[28.3087,37.0307],[28.3159,37.0339],[28.3169,37.0349],[28.3174,37.037],[28.3161,37.0387],[28.312,37.0406],[28.3089,37.0414],[28.3057,37.0415],[28.3047,37.0421],[28.3036,37.0414],[28.3016,37.042],[28.3005,37.0412],[28.2964,37.0408],[28.2953,37.0399],[28.2943,37.0404],[28.2922,37.0401],[28.287,37.0388],[28.2744,37.0391],[28.2651,37.0352],[28.2557,37.033],[28.2547,37.032],[28.2526,37.032],[28.2464,37.03],[28.2453,37.03],[28.2443,37.0284],[28.2411,37.0278],[28.2328,37.0274],[28.2318,37.0269],[28.2297,37.0271],[28.2286,37.0267],[28.2266,37.0269],[28.2255,37.0262],[28.2234,37.0267],[28.2182,37.026],[28.2109,37.0286],[28.2098,37.0286],[28.2089,37.0294],[28.2005,37.0291],[28.1974,37.0284],[28.1911,37.0241],[28.1893,37.0234],[28.1887,37.0224],[28.187,37.0215],[28.1849,37.0191],[28.1828,37.0181],[28.1776,37.0174],[28.1745,37.016],[28.1589,37.0148],[28.1505,37.017],[28.1443,37.0174],[28.1407,37.0172],[28.1328,37.0156],[28.1318,37.0146],[28.1307,37.0147],[28.1282,37.0089],[28.1255,37.006],[28.1214,37.0037],[28.1182,37.0026],[28.1141,37.002],[28.0995,37.0019],[28.0891,37.003],[28.0849,37.0065],[28.0818,37.0073],[28.0766,37.0078],[28.0701,37.0109],[28.063,37.013],[28.062,37.0138],[28.0578,37.0145],[28.0568,37.0153],[28.0536,37.0149],[28.0516,37.0135],[28.0484,37.0128],[28.0443,37.0131],[28.0432,37.0143],[28.0359,37.0159],[28.0349,37.0156],[28.0339,37.0159],[28.0307,37.0145],[28.0182,37.0142],[28.012,37.0149],[28.0068,37.014],[28.0005,37.0136]]]}},{"type":"Feature","properties":{"depth":50,"kind":"band"},"geometry":{"type":"MultiPolygon","coordinates":[[[[28.0878,37.0005],[28.0859,37.0013],[28.0828,37.0037],[28.0757,37.0047],[28.0686,37.0089],[28.0661,37.0093],[28.0578,37.0126],[28.0484,37.0108],[28.0424,37.012],[28.0411,37.0129],[28.037,37.0144],[28.0328,37.014],[28.0307,37.0131],[28.0161,37.0131],[28.0151,37.0126],[28.0141,37.0131],[28.013,37.0127],[28.012,37.0133],[28.0057,37.0115],[28.0005,37.0114],[28,37.0109],[28,37.0005],[28.0005,37],[28.087,37],[28.0878,37.0005]]],[[[28.0896,37.0005],[28.0891,37.0012],[28.0881,37.0005],[28.0891,37],[28.0896,37.0005]]],[[[28.1832,37.0005],[28.188,37.006],[28.1901,37.0068],[28.1911,37.0081],[28.1922,37.0086],[28.1971,37.0089],[28.1984,37.0097],[28.2016,37.0097],[28.2078,37.0111],[28.2099,37.0122],[28.213,37.0129],[28.2193,37.0162],[28.2245,37.0167],[28.2266,37.0173],[28.2359,37.0161],[28.2411,37.016],[28.2464,37.0171],[28.2505,37.0172],[28.2568,37.0192],[28.2641,37.0238],[28.2682,37.0257],[28.2818,37.0295],[28.2943,37.0296],[28.2995,37.0305],[28.3036,37.0306],[28.313,37.034],[28.3145,37.0349],[28.315,37.037],[28.3141,37.038],[28.3109,37.0395],[28.3016,37.0407],[28.3005,37.0401],[28.2953,37.0389],[28.2943,37.0392],[28.2859,37.037],[28.2755,37.0375],[28.2703,37.036],[28.2641,37.0332],[28.2505,37.0298],[28.2422,37.0256],[28.238,37.0246],[28.2349,37.0248],[28.2328,37.024],[28.2318,37.0244],[28.2255,37.0231],[28.2234,37.0235],[28.2172,37.0227],[28.2089,37.0268],[28.2005,37.0271],[28.1953,37.0248],[28.1911,37.0217],[28.1875,37.0182],[28.1859,37.0157],[28.1849,37.0148],[28.1797,37.0143],[28.1703,37.0123],[28.1599,37.0116],[28.1568,37.0119],[28.1495,37.0143],[28.1464,37.0147],[28.1422,37.0145],[28.1363,37.013],[28.1349,37.0117],[28.1339,37.0119],[28.1297,37.0054],[28.1234,37.0015],[28.1204,37.0005],[28.1214,37],[28.1828,37],[28.1832,37.0005]]]]}},{"type":"Feature","properties":{"depth":50,"kind":"isobath"},"geometry":{"type":"MultiLineString","coordinates":[[[28.0878,37.0005],[28.0859,37.0013],[28.0828,37.0037],[28.0757,37.0047],[28.0686,37.0089],[28.0661,37.0093],[28.0578,37.0126],[28.0484,37.0108],[28.0424,37.012],[28.0411,37.0129],[28.037,37.0144],[28.0328,37.014],[28.0307,37.0131],[28.0161,37.0131],[28.0151,37.0126],[28.0141,37.0131],[28.013,37.0127],[28.012,37.0133],[28.0057,37.0115],[28.0005,37.0114]],[[28.0896,37.0005],[28.0891,37.0012],[28.0881,37.0005]],[[28.1832,37.0005],[28.188,37.006],[28.1901,37.0068],[28.1911,37.0081],[28.1922,37.0086],[28.1971,37.0089],[28.1984,37.0097],[28.2016,37.0097],[28.2078,37.0111],[28.2099,37.0122],[28.213,37.0129],[28.2193,37.0162],[28.2245,37.0167],[28.2266,37.0173],[28.2359,37.0161],[28.2411,37.016],[28.2464,37.0171],[28.2505,37.0172],[28.2568,37.0192],[28.2641,37.0238],[28.2682,37.0257],[28.2818,37.0295],[28.2943,37.0296],[28.2995,37.0305],[28.3036,37.0306],[28.313,37.034],[28.3145,37.0349],[28.315,37.037],[28.3141,37.038],[28.3109,37.0395],[28.3016,37.0407],[28.3005,37.0401],[28.2953,37.0389],[28.2943,37.0392],[28.2859,37.037],[28.2755,37.0375],[28.2703,37.036],[28.2641,37.0332],[28.2505,37.0298],[28.2422,37.0256],[28.238,37.0246],[28.2349,37.0248],[28.2328,37.024],[28.2318,37.0244],[28.2255,37.0231],[28.2234,37.0235],[28.2172,37.0227],[28.2089,37.0268],[28.2005,37.0271],[28.1953,37.0248],[28.1911,37.0217],[28.1875,37.0182],[28.1859,37.0157],[28.1849,37.0148],[28.1797,37.0143],[28.1703,37.0123],[28.1599,37.0116],[28.1568,37.0119],[28.1495,37.0143],[28.1464,37.0147],[28.1422,37.0145],[28.1363,37.013],[28.1349,37.0117],[28.1339,37.0119],[28.1297,37.0054],[28.1234,37.0015],[28.1204,37.0005]]]}},{"type":"Feature","properties":{"depth":75,"kind":"band"},"geometry":{"type":"MultiPolygon","coordinates":[[[[28.3034,37.0339],[28.3059,37.0359],[28.3053,37.037],[28.3036,37.038],[28.3003,37.037],[28.2997,37.0359],[28.3004,37.0349],[28.3016,37.0339],[28.3034,37.0339]]],[[[28.2763,37.0328],[28.2763,37.0339],[28.2755,37.0342],[28.2744,37.0339],[28.2747,37.0328],[28.2755,37.0321],[28.2763,37.0328]]],[[[28.2946,37.0328],[28.2965,37.0339],[28.2973,37.0349],[28.2967,37.0359],[28.2943,37.0363],[28.2911,37.0349],[28.2914,37.0339],[28.2931,37.0328],[28.2946,37.0328]]],[[[28.2734,37.0307],[28.275,37.0318],[28.2744,37.0328],[28.2734,37.0332],[28.2714,37.0328],[28.2698,37.0318],[28.2703,37.0306],[28.2734,37.0307]]],[[[28.2601,37.0255],[28.2613,37.0266],[28.2617,37.0276],[28.2609,37.0287],[28.2599,37.0286],[28.2585,37.0276],[28.258,37.0266],[28.2593,37.0255],[28.2601,37.0255]]],[[[28.2507,37.0214],[28.2557,37.0232],[28.2578,37.0255],[28.2577,37.0266],[28.2557,37.0271],[28.2516,37.0259],[28.2491,37.0245],[28.2485,37.0234],[28.2495,37.0219],[28.2507,37.0214]]],[[[28.1981,37.0151],[28.2047,37.0158],[28.2078,37.0167],[28.2111,37.0193],[28.2099,37.0207],[28.2068,37.0217],[28.2047,37.0221],[28.2016,37.0218],[28.1974,37.0198],[28.1953,37.0182],[28.1939,37.0161],[28.1981,37.0151]]],[[[28.0704,37.0005],[28.0672,37.0031],[28.0609,37.0051],[28.0568,37.0062],[28.0505,37.0054],[28.0464,37.0057],[28.0443,37.0065],[28.0432,37.0075],[28.0401,37.0092],[28.0391,37.0091],[28.038,37.0097],[28.0255,37.0095],[28.0141,37.0084],[28.012,37.0085],[28.0057,37.0061],[28.0005,37.0057],[28,37.0047],[28,37.0005],[28.0005,37],[28.0703,37],[28.0704,37.0005]]],[[[28.1471,37.0005],[28.1455,37.0047],[28.1455,37.0057],[28.1464,37.0078],[28.1432,37.0078],[28.144,37.0057],[28.1414,37.0016],[28.1402,37.0005],[28.1411,37],[28.1464,37],[28.1471,37.0005]]]]}},{"type":"Feature","properties":{"depth":75,"kind":"isobath"},"geometry":{"type":"MultiLineString","coordinates":[[[28.3034,37.0339],[28.3059,37.0359],[28.3053,37.037],[28.3036,37.038],[28.3003,37.037],[28.2997,37.0359],[28.3004,37.0349],[28.3016,37.0339]],[[28.2763,37.0328],[28.2763,37.0339],[28.2755,37.0342],[28.2744,37.0339],[28.2747,37.0328],[28.2755,37.0321]],[[28.2946,37.0328],[28.2965,37.0339],[28.2973,37.0349],[28.2967,37.0359],[28.2943,37.0363],[28.2911,37.0349],[28.2914,37.0339],[28.2931,37.0328]],[[28.2734,37.0307],[28.275,37.0318],[28.2744,37.0328],[28.2734,37.0332],[28.2714,37.0328],[28.2698,37.0318],[28.2703,37.0306]],[[28.2601,37.0255],[28.2613,37.0266],[28.2617,37.0276],[28.2609,37.0287],[28.2599,37.0286],[28.2585,37.0276],[28.258,37.0266],[28.2593,37.0255]],[[28.2507,37.0214],[28.2557,37.0232],[28.2578,37.0255],[28.2577,37.0266],[28.2557,37.0271],[28.2516,37.0259],[28.2491,37.0245],[28.2485,37.0234],[28.2495,37.0219]],[[28.1981,37.0151],[28.2047,37.0158],[28.2078,37.0167],[28.2111,37.0193],[28.2099,37.0207],[28.2068,37.0217],[28.2047,37.0221],[28.2016,37.0218],[28.1974,37.0198],[28.1953,37.0182],[28.1939,37.0161]],[[28.0704,37.0005],[28.0672,37.0031],[28.0609,37.0051],[28.0568,37.0062],[28.0505,37.0054],[28.0464,37.0057],[28.0443,37.0065],[28.0432,37.0075],[28.0401,37.0092],[28.0391,37.0091],[28.038,37.0097],[28.0255,37.0095],[28.0141,37.0084],[28.012,37.0085],[28.0057,37.0061],[28.0005,37.0057]],[[28.1471,37.0005],[28.1455,37.0047],[28.1455,37.0057],[28.1464,37.0078],[28.1432,37.0078],[28.144,37.0057],[28.1414,37.0016],[28.1402,37.0005]]]}},{"type":"Feature","properties":{"depth":100,"kind":"band"},"geometry":{"type":"MultiPolygon","coordinates":[[[[28.0461,37.0005],[28.0401,37.0049],[28.0391,37.0048],[28.037,37.0055],[28.0339,37.0053],[28.0328,37.006],[28.0297,37.0062],[28.0141,37.0044],[28.009,37.0026],[28.0073,37.0016],[28.0067,37.0005],[28.0068,37],[28.0453,37],[28.0461,37.0005]]]]}},{"type":"Feature","properties":{"depth":100,"kind":"isobath"},"geometry":{"type":"MultiLineString","coordinates":[[[28.0461,37.0005],[28.0401,37.0049],[28.0391,37.0048],[28.037,37.0055],[28.0339,37.0053],[28.0328,37.006],[28.0297,37.0062],[28.0141,37.0044],[28.009,37.0026],[28.0073,37.0016],[28.0067,37.0005]]]}}]}