{"type":"FeatureCollection","features":[{"type":"Feature","properties":{"depth":5,"kind":"band"},"geometry":{"type":"MultiPolygon","coordinates":[[[[29.9999,35.2504],[29.9996,35.7501],[29.7496,35.9999],[29.2499,35.9996],[29.0001,35.7496],[29.0004,35.2499],[29.2504,35.0001],[29.7501,35.0004],[30,35.0005],[30,35.0005],[29.9999,35.2504]]]]}},{"type":"Feature","properties":{"depth":10,"kind":"band"},"geometry":{"type":"MultiPolygon","coordinates":[[[[29.9999,35.2504],[29.9996,35.7501],[29.7496,35.9999],[29.2499,35.9996],[29.0001,35.7496],[29.0004,35.2499],[29.2504,35.0001],[29.7501,35.0004],[30,35.0005],[30,35.0005],[29.9999,35.2504]]]]}},{"type":"Feature","properties":{"depth":15,"kind":"band"},"geometry":{"type":"MultiPolygon","coordinates":[[[[29.9999,35.2504],[29.9996,35.7501],[29.7496,35.9999],[29.2499,35.9996],[29.0001,35.7496],[29.0004,35.2499],[29.2504,35.0001],[29.7501,35.0004],[30,35.0005],[30,35.0005],[29.9999,35.2504]]]]}},{"type":"Feature","properties":{"depth":20,"kind":"band"},"geometry":{"type":"MultiPolygon","coordinates":[[[[29.9999,35.2504],[29.9996,35.7501],[29.7496,35.9999],[29.2499,35.9996],[29.0001,35.7496],[29.0004,35.2499],[29.2504,35.0001],[29.7501,35.0004],[30,35.0005],[30,35.0005],[29.9999,35.2504]]]]}},{"type":"Feature","properties":{"depth":25,"kind":"band"},"geometry":{"type":"MultiPolygon","coordinates":[[[[29.9999,35.2504],[29.9996,35.7501],[29.7496,35.9999],[29.2499,35.9996],[29.0001,35.7496],[29.0004,35.2499],[29.2504,35.0001],[29.7501,35.0004],[30,35.0005],[30,35.0005],[29.9999,35.2504]]]]}},{"type":"Feature","properties":{"depth":30,"kind":"band"},"geometry":{"type":"MultiPolygon","coordinates":[[[[29.9999,35.2504],[29.9996,35.7501],[29.7496,35.9999],[29.2499,35.9996],[29.0001,35.7496],[29.0004,35.2499],[29.2504,35.0001],[29.7501,35.0004],[30,35.0005],[30,35.0005],[29.9999,35.2504]]]]}},{"type":"Feature","properties":{"depth":40,"kind":"band"},"geometry":{"type":"MultiPolygon","coordinates":[[[[29.9999,35.2504],[29.9996,35.7501],[29.7496,35.9999],[29.2499,35.9996],[29.0001,35.7496],[29.0004,35.2499],[29.2504,35.0001],[29.7501,35.0004],[30,35.0005],[30,35.0005],[29.9999,35.2504]]]]}},{"type":"Feature","properties":{"depth":50,"kind":"band"},"geometry":{"type":"MultiPolygon","coordinates":[[[[29.9999,35.2504],[29.9996,35.7501],[29.7496,35.9999],[29.2499,35.9996],[29.0001,35.7496],[29.0004,35.2499],[29.2504,35.0001],[29.7501,35.0004],[30,35.0005],[30,35.0005],[29.9999,35.2504]]]]}},{"type":"Feature","properties":{"depth":60,"kind":"band"},"geometry":{"type":"MultiPolygon","coordinates":[[[[29.9999,35.2504],[29.9996,35.7501],[29.7496,35.9999],[29.2499,35.9996],[29.0001,35.7496],[29.0004,35.2499],[29.2504,35.0001],[29.7501,35.0004],[30,35.0005],[30,35.0005],[29.9999,35.2504]]]]}},{"type":"Feature","properties":{"depth":75,"kind":"band"},"geometry":{"type":"MultiPolygon","coordinates":[[[[29.9999,35.2504],[29.9996,35.7501],[29.7496,35.9999],[29.2499,35.9996],[29.0001,35.7496],[29.0004,35.2499],[29.2504,35.0001],[29.7501,35.0004],[30,35.0005],[30,35.0005],[29.9999,35.2504]]]]}},{"type":"Feature","properties":{"depth":100,"kind":"band"},"geometry":{"type":"MultiPolygon","coordinates":[[[[29.9999,35.2504],[29.9996,35.7501],[29.7496,35.9999],[29.2499,35.9996],[29.0001,35.7496],[29.0004,35.2499],[29.2504,35.0001],[29.7501,35.0004],[30,35.0005],[30,35.0005],[29.9999,35.2504]]]]}},{"type":"Feature","properties":{"depth":150,"kind":"band"},"geometry":{"type":"MultiPolygon","coordinates":[[[[29.9999,35.2504],[29.9996,35.7501],[29.7496,35.9999],[29.2499,35.9996],[29.0001,35.7496],[29.0004,35.2499],[29.2504,35.0001],[29.7501,35.0004],[30,35.0005],[30,35.0005],[29.9999,35.2504]]]]}},{"type":"Feature","properties":{"depth":200,"kind":"band"},"geometry":{"type":"MultiPolygon","coordinates":[[[[29.9999,35.2504],[29.9996,35.7501],[29.7496,35.9999],[29.2499,35.9996],[29.0001,35.7496],[29.0004,35.2499],[29.2504,35.0001],[29.7501,35.0004],[30,35.0005],[30,35.0005],[29.9999,35.2504]]]]}},{"type":"Feature","properties":{"depth":300,"kind":"band"},"geometry":{"type":"MultiPolygon","coordinates":[[[[29.9999,35.2504],[29.9996,35.7501],[29.7496,35.9999],[29.2499,35.9996],[29.0001,35.7496],[29.0004,35.2499],[29.2504,35.0001],[29.7501,35.0004],[30,35.0005],[30,35.0005],[29.9999,35.2504]]]]}},{"type":"Feature","properties":{"depth":500,"kind":"band"},"geometry":{"type":"MultiPolygon","coordinates":[[[[29.9999,35.2504],[29.9996,35.7501],[29.7496,35.9999],[29.2499,35.9996],[29.0001,35.7496],[29.0004,35.2499],[29.2504,35.0001],[29.7501,35.0004],[30,35.0005],[30,35.0005],[29.9999,35.2504]]]]}},{"type":"Feature","properties":{"depth":750,"kind":"band"},"geometry":{"type":"MultiPolygon","coordinates":[[[[29.9999,35.2504],[29.9996,35.7501],[29.7496,35.9999],[29.2499,35.9996],[29.0001,35.7496],[29.0004,35.2499],[29.2504,35.0001],[29.7501,35.0004],[30,35.0005],[30,35.0005],[29.9999,35.2504]]]]}},{"type":"Feature","properties":{"depth":1000,"kind":"band"},"geometry":{"type":"MultiPolygon","coordinates":[[[[29.9999,35.2504],[29.9996,35.7501],[29.7496,35.9999],[29.2499,35.9996],[29.0001,35.7496],[29.0004,35.2499],[29.2504,35.0001],[29.7501,35.0004],[30,35.0005],[30,35.0005],[29.9999,35.2504]]]]}},{"type":"Feature","properties":{"depth":1500,"kind":"band"},"geometry":{"type":"MultiPolygon","coordinates":[[[[30,35.0818],[30,35.2442],[29.9876,35.3234],[29.9628,35.3193],[29.9566,35.3193],[29.9689,35.3234],[29.9813,35.3302],[29.9938,35.3396],[29.9999,35.5082],[29.9996,35.8361],[29.7496,35.9999],[29.2499,35.9996],[29.0001,35.7496],[29.0004,35.2499],[29.2504,35.0001],[29.7501,35.0004],[30,35.0005],[30,35.0005],[30,35.0818]],[[29.8352,35.5476],[29.8378,35.5525],[29.8396,35.5531],[29.8407,35.5493],[29.8394,35.5468],[29.8357,35.5457],[29.8339,35.5451],[29.8339,35.5451],[29.8352,35.5476]],[[29.5838,35.4781],[29.5775,35.4798],[29.579,35.4844],[29.5885,35.492],[29.606,35.4984],[29.6315,35.5038],[29.6667,35.5143],[29.7115,35.5298],[29.7385,35.5382],[29.7477,35.5395],[29.7547,35.538],[29.7596,35.5339],[29.7706,35.5303],[29.7878,35.5272],[29.8043,35.5301],[29.8203,35.5388],[29.8256,35.5401],[29.8205,35.5338],[29.8175,35.5248],[29.8166,35.5129],[29.8135,35.5065],[29.8083,35.5058],[29.8023,35.5015],[29.7956,35.4938],[29.7755,35.4949],[29.7422,35.5048],[29.7135,35.5048],[29.6896,35.4948],[29.6609,35.4901],[29.6276,35.4906],[29.6049,35.4875],[29.593,35.4806],[29.587,35.4772],[29.587,35.4772],[29.5838,35.4781]]]]}},{"type":"Feature","properties":{"depth":1500,"kind":"isobath"},"geometry":{"type":"MultiLineString","coordinates":[[[29.9504,35.3172],[29.975,35.3255]],[[29.8339,35.5451],[29.8352,35.5476],[29.8378,35.5525],[29.8396,35.5531],[29.8407,35.5493],[29.8394,35.5468],[29.8357,35.5457],[29.8339,35.5451]],[[29.587,35.4772],[29.5838,35.4781],[29.5775,35.4798],[29.579,35.4844],[29.5885,35.492],[29.606,35.4984],[29.6315,35.5038],[29.6667,35.5143],[29.7115,35.5298],[29.7385,35.5382],[29.7477,35.5395],[29.7547,35.538],[29.7596,35.5339],[29.7706,35.5303],[29.7878,35.5272],[29.8043,35.5301],[29.8203,35.5388],[29.8256,35.5401],[29.8205,35.5338],[29.8175,35.5248],[29.8166,35.5129],[29.8135,35.5065],[29.8083,35.5058],[29.8023,35.5015],[29.7956,35.4938],[29.7755,35.4949],[29.7422,35.5048],[29.7135,35.5048],[29.6896,35.4948],[29.6609,35.4901],[29.6276,35.4906],[29.6049,35.4875],[29.593,35.4806],[29.587,35.4772]]]}},{"type":"Feature","properties":{"depth":2000,"kind":"band"},"geometry":{"type":"MultiPolygon","coordinates":[[[[29.8994,35.598],[29.8916,35.6011],[29.8916,35.6011],[29.8994,35.598],[29.9033,35.5964],[29.9033,35.5964],[29.8994,35.598]]],[[[30,35.0753],[30,35.2248],[29.9853,35.301],[29.9558,35.3039],[29.9338,35.3036],[29.9193,35.2999],[29.9104,35.3005],[29.9073,35.3052],[29.8989,35.3073],[29.8854,35.307],[29.8982,35.3143],[29.9373,35.3292],[29.9676,35.3424],[29.9892,35.3541],[29.9999,35.3617],[29.9996,35.3652],[29.9967,35.3659],[29.9912,35.364],[29.9913,35.3664],[29.9971,35.3732],[29.9999,35.5325],[29.9996,35.8442],[29.8748,36],[29.6253,36],[29.4937,35.9967],[29.4802,35.99],[29.472,35.9875],[29.4693,35.9892],[29.4683,35.9926],[29.469,35.9975],[29.4547,36],[29.4255,36],[29.4044,35.9981],[29.3914,35.9943],[29.3846,35.9943],[29.3842,35.9981],[29.2879,35.9999],[29.096,35.9996],[29.0001,35.7496],[29.0004,35.2499],[29.2504,35.0001],[29.7501,35.0004],[30,35.0005],[30,35.0005],[30,35.0753]],[[29.2932,35.8796],[29.287,35.8825],[29.2862,35.8843],[29.2909,35.8851],[29.294,35.8837],[29.2956,35.88],[29.2964,35.8782],[29.2964,35.8782],[29.2932,35.8796]],[[29.8757,35.6324],[29.8739,35.6341],[29.8739,35.6341],[29.8757,35.6324],[29.8766,35.6315],[29.8766,35.6315],[29.8757,35.6324]],[[29.8819,35.63],[29.88,35.6312],[29.88,35.6312],[29.8819,35.63],[29.8828,35.6294],[29.8828,35.6294],[29.8819,35.63]],[[29.4576,35.5237],[29.4549,35.5294],[29.4549,35.5294],[29.4576,35.5237],[29.4589,35.5208],[29.4589,35.5208],[29.4576,35.5237]],[[29.9079,35.5168],[29.9019,35.5205],[29.9019,35.5205],[29.9079,35.5168],[29.9109,35.5149],[29.9109,35.5149],[29.9079,35.5168]],[[29.9346,35.5135],[29.9235,35.5166],[29.9235,35.5166],[29.9346,35.5135],[29.9401,35.5119],[29.9401,35.5119],[29.9346,35.5135]],[[29.8926,35.5037],[29.8892,35.5064],[29.8896,35.5078],[29.8937,35.5078],[29.8954,35.5064],[29.8947,35.5037],[29.8943,35.5023],[29.8943,35.5023],[29.8926,35.5037]],[[29.92,35.5031],[29.9131,35.5062],[29.9149,35.5065],[29.9254,35.5039],[29.9289,35.5023],[29.9252,35.5018],[29.9234,35.5015],[29.9234,35.5015],[29.92,35.5031]],[[29.7282,35.4788],[29.7252,35.4794],[29.726,35.481],[29.7305,35.4836],[29.732,35.4833],[29.7305,35.4801],[29.7297,35.4785],[29.7297,35.4785],[29.7282,35.4788]],[[29.906,35.4831],[29.9003,35.4921],[29.9013,35.4929],[29.9092,35.4855],[29.9153,35.4818],[29.9196,35.4818],[29.9186,35.481],[29.9121,35.4794],[29.9089,35.4786],[29.9089,35.4786],[29.906,35.4831]],[[29.911,35.4695],[29.9047,35.4722],[29.9045,35.4738],[29.9102,35.4743],[29.9133,35.473],[29.9138,35.4698],[29.9141,35.4682],[29.9141,35.4682],[29.911,35.4695]],[[29.8881,35.4645],[29.8902,35.4656],[29.8902,35.4656],[29.8881,35.4645],[29.887,35.4639],[29.887,35.4639],[29.8881,35.4645]],[[29.9454,35.4641],[29.9435,35.4648],[29.9443,35.4659],[29.948,35.4674],[29.949,35.4671],[29.9473,35.4649],[29.9464,35.4638],[29.9464,35.4638],[29.9454,35.4641]],[[29.9288,35.4629],[29.9312,35.465],[29.9312,35.465],[29.9288,35.4629],[29.9276,35.4618],[29.9276,35.4618],[29.9288,35.4629]],[[29.8956,35.4584],[29.8961,35.4622],[29.8975,35.4633],[29.8996,35.4617],[29.8993,35.4598],[29.8966,35.4576],[29.8953,35.4565],[29.8953,35.4565],[29.8956,35.4584]],[[29.9175,35.4554],[29.916,35.457],[29.916,35.457],[29.9175,35.4554],[29.9182,35.4546],[29.9182,35.4546],[29.9175,35.4554]],[[29.9383,35.4453],[29.9388,35.4476],[29.9388,35.4476],[29.9383,35.4453],[29.938,35.4441],[29.938,35.4441],[29.9383,35.4453]],[[29.9473,35.4352],[29.9429,35.4364],[29.9429,35.4364],[29.9473,35.4352],[29.9495,35.4346],[29.9495,35.4346],[29.9473,35.4352]],[[29.4477,35.4327],[29.4378,35.437],[29.4433,35.443],[29.4641,35.4507],[29.4797,35.4583],[29.49,35.4656],[29.4947,35.4745],[29.4937,35.4849],[29.4875,35.4957],[29.476,35.5067],[29.4701,35.5167],[29.4696,35.5254],[29.4657,35.5321],[29.4584,35.5368],[29.456,35.5401],[29.4586,35.542],[29.4599,35.5466],[29.4598,35.5541],[29.4579,35.5596],[29.4541,35.5633],[29.4522,35.5677],[29.4521,35.5729],[29.4561,35.58],[29.4642,35.5891],[29.475,35.5936],[29.4885,35.5937],[29.4974,35.5899],[29.5015,35.5822],[29.5091,35.5814],[29.52,35.5875],[29.543,35.5884],[29.5779,35.5841],[29.6109,35.583],[29.6422,35.5852],[29.669,35.5895],[29.6914,35.5959],[29.7136,35.5981],[29.7355,35.5962],[29.7584,35.5968],[29.7823,35.5998],[29.7959,35.6003],[29.799,35.5981],[29.8109,35.6083],[29.8318,35.631],[29.8446,35.6404],[29.8493,35.6367],[29.8555,35.6354],[29.8633,35.6366],[29.867,35.6346],[29.8665,35.6293],[29.8702,35.6231],[29.8779,35.6161],[29.8898,35.613],[29.9057,35.6137],[29.9093,35.6131],[29.9008,35.611],[29.9031,35.6063],[29.9163,35.599],[29.9183,35.5955],[29.9093,35.5958],[29.9009,35.5932],[29.8932,35.5877],[29.8956,35.5847],[29.9079,35.5842],[29.9177,35.5822],[29.9248,35.5785],[29.9229,35.5765],[29.9122,35.5762],[29.9033,35.5744],[29.8962,35.571],[29.893,35.5677],[29.8939,35.5646],[29.8891,35.5608],[29.8786,35.5564],[29.8706,35.555],[29.8649,35.5567],[29.8609,35.5542],[29.8586,35.5476],[29.8601,35.5373],[29.8656,35.5232],[29.8656,35.512],[29.8601,35.5037],[29.8648,35.4969],[29.8796,35.4916],[29.8894,35.4842],[29.8941,35.4745],[29.8928,35.4714],[29.8855,35.4749],[29.88,35.4754],[29.8763,35.473],[29.8714,35.4739],[29.8651,35.4782],[29.8619,35.4765],[29.8618,35.4689],[29.8591,35.4708],[29.8538,35.4823],[29.8521,35.4948],[29.8538,35.5085],[29.8516,35.5099],[29.8453,35.499],[29.8391,35.495],[29.8328,35.4978],[29.8263,35.4955],[29.8195,35.488],[29.8138,35.4847],[29.8091,35.4856],[29.8086,35.4831],[29.8121,35.4774],[29.8128,35.4736],[29.8109,35.4718],[29.8078,35.4727],[29.8037,35.4763],[29.7857,35.4815],[29.7539,35.4884],[29.7247,35.4879],[29.6982,35.4801],[29.668,35.4765],[29.6341,35.4772],[29.613,35.4746],[29.6045,35.469],[29.5824,35.464],[29.5465,35.4599],[29.5096,35.451],[29.4716,35.4374],[29.4526,35.4306],[29.4526,35.4306],[29.4477,35.4327]],[[29.9046,35.3988],[29.9003,35.3999],[29.9003,35.3999],[29.9046,35.3988],[29.9068,35.3982],[29.9068,35.3982],[29.9046,35.3988]],[[29.8855,35.3958],[29.8824,35.3997],[29.8824,35.3997],[29.8855,35.3958],[29.887,35.3938],[29.887,35.3938],[29.8855,35.3958]],[[29.8886,35.3892],[29.8855,35.3905],[29.8855,35.3905],[29.8886,35.3892],[29.8901,35.3885],[29.8901,35.3885],[29.8886,35.3892]],[[29.8318,35.323],[29.8421,35.3372],[29.8625,35.3513],[29.8928,35.3654],[29.9282,35.3781],[29.9685,35.3896],[29.9805,35.3912],[29.9639,35.3829],[29.954,35.3764],[29.9505,35.3717],[29.9461,35.3691],[29.9407,35.3686],[29.9358,35.3665],[29.9313,35.3628],[29.93,35.36],[29.9319,35.3583],[29.9313,35.3583],[29.9282,35.3602],[29.9256,35.3592],[29.9235,35.3555],[29.9198,35.3552],[29.9146,35.3583],[29.9065,35.3542],[29.8956,35.3427],[29.8742,35.3316],[29.8425,35.3212],[29.8266,35.3159],[29.8266,35.3159],[29.8318,35.323]]]]}},{"type":"Feature","properties":{"depth":2000,"kind":"isobath"},"geometry":{"type":"MultiLineString","coordinates":[[[29.9033,35.5964],[29.8994,35.598],[29.8916,35.6011],[29.8916,35.6011],[29.8994,35.598],[29.9033,35.5964]],[[29.9411,35.3054],[29.9338,35.3036],[29.9193,35.2999],[29.9104,35.3005],[29.9073,35.3052],[29.8989,35.3073],[29.8854,35.307],[29.8982,35.3143],[29.9373,35.3292],[29.9568,35.3366]],[[29.9995,35.3669],[29.9884,35.363]],[[29.4734,35.9866],[29.4679,35.9901]],[[29.2964,35.8782],[29.2932,35.8796],[29.287,35.8825],[29.2862,35.8843],[29.2909,35.8851],[29.294,35.8837],[29.2956,35.88],[29.2964,35.8782]],[[29.8766,35.6315],[29.8757,35.6324],[29.8739,35.6341],[29.8739,35.6341],[29.8757,35.6324],[29.8766,35.6315]],[[29.8828,35.6294],[29.8819,35.63],[29.88,35.6312],[29.88,35.6312],[29.8819,35.63],[29.8828,35.6294]],[[29.4589,35.5208],[29.4576,35.5237],[29.4549,35.5294],[29.4549,35.5294],[29.4576,35.5237],[29.4589,35.5208]],[[29.9109,35.5149],[29.9079,35.5168],[29.9019,35.5205],[29.9019,35.5205],[29.9079,35.5168],[29.9109,35.5149]],[[29.9401,35.5119],[29.9346,35.5135],[29.9235,35.5166],[29.9235,35.5166],[29.9346,35.5135],[29.9401,35.5119]],[[29.8943,35.5023],[29.8926,35.5037],[29.8892,35.5064],[29.8896,35.5078],[29.8937,35.5078],[29.8954,35.5064],[29.8947,35.5037],[29.8943,35.5023]],[[29.9234,35.5015],[29.92,35.5031],[29.9131,35.5062],[29.9149,35.5065],[29.9254,35.5039],[29.9289,35.5023],[29.9252,35.5018],[29.9234,35.5015]],[[29.7297,35.4785],[29.7282,35.4788],[29.7252,35.4794],[29.726,35.481],[29.7305,35.4836],[29.732,35.4833],[29.7305,35.4801],[29.7297,35.4785]],[[29.9089,35.4786],[29.906,35.4831],[29.9003,35.4921],[29.9013,35.4929],[29.9092,35.4855],[29.9153,35.4818],[29.9196,35.4818],[29.9186,35.481],[29.9121,35.4794],[29.9089,35.4786]],[[29.9141,35.4682],[29.911,35.4695],[29.9047,35.4722],[29.9045,35.4738],[29.9102,35.4743],[29.9133,35.473],[29.9138,35.4698],[29.9141,35.4682]],[[29.887,35.4639],[29.8881,35.4645],[29.8902,35.4656],[29.8902,35.4656],[29.8881,35.4645],[29.887,35.4639]],[[29.9464,35.4638],[29.9454,35.4641],[29.9435,35.4648],[29.9443,35.4659],[29.948,35.4674],[29.949,35.4671],[29.9473,35.4649],[29.9464,35.4638]],[[29.9276,35.4618],[29.9288,35.4629],[29.9312,35.465],[29.9312,35.465],[29.9288,35.4629],[29.9276,35.4618]],[[29.8953,35.4565],[29.8956,35.4584],[29.8961,35.4622],[29.8975,35.4633],[29.8996,35.4617],[29.8993,35.4598],[29.8966,35.4576],[29.8953,35.4565]],[[29.9182,35.4546],[29.9175,35.4554],[29.916,35.457],[29.916,35.457],[29.9175,35.4554],[29.9182,35.4546]],[[29.938,35.4441],[29.9383,35.4453],[29.9388,35.4476],[29.9388,35.4476],[29.9383,35.4453],[29.938,35.4441]],[[29.9495,35.4346],[29.9473,35.4352],[29.9429,35.4364],[29.9429,35.4364],[29.9473,35.4352],[29.9495,35.4346]],[[29.4526,35.4306],[29.4477,35.4327],[29.4378,35.437],[29.4433,35.443],[29.4641,35.4507],[29.4797,35.4583],[29.49,35.4656],[29.4947,35.4745],[29.4937,35.4849],[29.4875,35.4957],[29.476,35.5067],[29.4701,35.5167],[29.4696,35.5254],[29.4657,35.5321],[29.4584,35.5368],[29.456,35.5401],[29.4586,35.542],[29.4599,35.5466],[29.4598,35.5541],[29.4579,35.5596],[29.4541,35.5633],[29.4522,35.5677],[29.4521,35.5729],[29.4561,35.58],[29.4642,35.5891],[29.475,35.5936],[29.4885,35.5937],[29.4974,35.5899],[29.5015,35.5822],[29.5091,35.5814],[29.52,35.5875],[29.543,35.5884],[29.5779,35.5841],[29.6109,35.583],[29.6422,35.5852],[29.669,35.5895],[29.6914,35.5959],[29.7136,35.5981],[29.7355,35.5962],[29.7584,35.5968],[29.7823,35.5998],[29.7959,35.6003],[29.799,35.5981],[29.8109,35.6083],[29.8318,35.631],[29.8446,35.6404],[29.8493,35.6367],[29.8555,35.6354],[29.8633,35.6366],[29.867,35.6346],[29.8665,35.6293],[29.8702,35.6231],[29.8779,35.6161],[29.8898,35.613],[29.9057,35.6137],[29.9093,35.6131],[29.9008,35.611],[29.9031,35.6063],[29.9163,35.599],[29.9183,35.5955],[29.9093,35.5958],[29.9009,35.5932],[29.8932,35.5877],[29.8956,35.5847],[29.9079,35.5842],[29.9177,35.5822],[29.9248,35.5785],[29.9229,35.5765],[29.9122,35.5762],[29.9033,35.5744],[29.8962,35.571],[29.893,35.5677],[29.8939,35.5646],[29.8891,35.5608],[29.8786,35.5564],[29.8706,35.555],[29.8649,35.5567],[29.8609,35.5542],[29.8586,35.5476],[29.8601,35.5373],[29.8656,35.5232],[29.8656,35.512],[29.8601,35.5037],[29.8648,35.4969],[29.8796,35.4916],[29.8894,35.4842],[29.8941,35.4745],[29.8928,35.4714],[29.8855,35.4749],[29.88,35.4754],[29.8763,35.473],[29.8714,35.4739],[29.8651,35.4782],[29.8619,35.4765],[29.8618,35.4689],[29.8591,35.4708],[29.8538,35.4823],[29.8521,35.4948],[29.8538,35.5085],[29.8516,35.5099],[29.8453,35.499],[29.8391,35.495],[29.8328,35.4978],[29.8263,35.4955],[29.8195,35.488],[29.8138,35.4847],[29.8091,35.4856],[29.8086,35.4831],[29.8121,35.4774],[29.8128,35.4736],[29.8109,35.4718],[29.8078,35.4727],[29.8037,35.4763],[29.7857,35.4815],[29.7539,35.4884],[29.7247,35.4879],[29.6982,35.4801],[29.668,35.4765],[29.6341,35.4772],[29.613,35.4746],[29.6045,35.469],[29.5824,35.464],[29.5465,35.4599],[29.5096,35.451],[29.4716,35.4374],[29.4526,35.4306]],[[29.9068,35.3982],[29.9046,35.3988],[29.9003,35.3999],[29.9003,35.3999],[29.9046,35.3988],[29.9068,35.3982]],[[29.887,35.3938],[29.8855,35.3958],[29.8824,35.3997],[29.8824,35.3997],[29.8855,35.3958],[29.887,35.3938]],[[29.8901,35.3885],[29.8886,35.3892],[29.8855,35.3905],[29.8855,35.3905],[29.8886,35.3892],[29.8901,35.3885]],[[29.8266,35.3159],[29.8318,35.323],[29.8421,35.3372],[29.8625,35.3513],[29.8928,35.3654],[29.9282,35.3781],[29.9685,35.3896],[29.9805,35.3912],[29.9639,35.3829],[29.954,35.3764],[29.9505,35.3717],[29.9461,35.3691],[29.9407,35.3686],[29.9358,35.3665],[29.9313,35.3628],[29.93,35.36],[29.9319,35.3583],[29.9313,35.3583],[29.9282,35.3602],[29.9256,35.3592],[29.9235,35.3555],[29.9198,35.3552],[29.9146,35.3583],[29.9065,35.3542],[29.8956,35.3427],[29.8742,35.3316],[29.8425,35.3212],[29.8266,35.3159]]]}},{"type":"Feature","properties":{"depth":3000,"kind":"band"},"geometry":{"type":"MultiPolygon","coordinates":[[[[29.7195,35.7954],[29.7194,35.7975],[29.7194,35.7975],[29.7195,35.7954],[29.7196,35.7943],[29.7196,35.7943],[29.7195,35.7954]]],[[[29.7214,35.7933],[29.7214,35.7956],[29.7214,35.7956],[29.7214,35.7933],[29.7214,35.7922],[29.7214,35.7922],[29.7214,35.7933]]],[[[29.7444,35.7996],[29.7499,35.8167],[29.7625,35.8343],[29.7823,35.8524],[29.7985,35.8624],[29.811,35.8642],[29.8209,35.8734],[29.8282,35.89],[29.8409,35.9089],[29.8591,35.93],[29.8779,35.9428],[29.8972,35.9471],[29.9123,35.9487],[29.9232,35.9476],[29.9333,35.9441],[29.9427,35.9382],[29.9573,35.9373],[29.9771,35.9416],[29.9903,35.9426],[29.9968,35.9403],[30,35.9542],[30,35.9844],[29.9608,35.9996],[29.8824,35.9999],[29.8419,35.9981],[29.8393,35.9943],[29.8333,35.993],[29.824,35.9941],[29.8146,35.9932],[29.8052,35.9903],[29.795,35.9904],[29.7841,35.9936],[29.7588,35.9875],[29.7193,35.9722],[29.6901,35.963],[29.6714,35.9601],[29.6602,35.9568],[29.6565,35.9531],[29.644,35.9481],[29.6227,35.9419],[29.6089,35.9398],[29.6026,35.9418],[29.5979,35.9381],[29.5948,35.9287],[29.5896,35.926],[29.5823,35.93],[29.5781,35.9301],[29.5771,35.9263],[29.5763,35.9267],[29.5758,35.9312],[29.5726,35.9297],[29.5668,35.922],[29.5658,35.9179],[29.5695,35.9174],[29.5717,35.9147],[29.5721,35.9099],[29.5656,35.9042],[29.5519,35.8976],[29.5491,35.8922],[29.5572,35.888],[29.5552,35.8821],[29.5431,35.8744],[29.5372,35.867],[29.5378,35.86],[29.5422,35.8551],[29.5505,35.8523],[29.5628,35.8527],[29.5789,35.8563],[29.5867,35.8556],[29.5862,35.8505],[29.5898,35.8507],[29.5977,35.8562],[29.6034,35.8573],[29.6071,35.8543],[29.6123,35.8539],[29.619,35.8562],[29.6242,35.8558],[29.6279,35.8526],[29.6367,35.8504],[29.6508,35.8491],[29.657,35.8451],[29.6555,35.8387],[29.6571,35.8371],[29.6618,35.8406],[29.6662,35.8392],[29.6703,35.8331],[29.6732,35.8314],[29.6747,35.8342],[29.6751,35.8333],[29.6744,35.8289],[29.6767,35.8267],[29.6822,35.8269],[29.6854,35.8256],[29.6865,35.8228],[29.6878,35.8225],[29.6893,35.8246],[29.6906,35.8229],[29.6917,35.8172],[29.6933,35.8166],[29.6954,35.8213],[29.6972,35.8203],[29.6987,35.8136],[29.7003,35.812],[29.7018,35.8156],[29.705,35.8161],[29.7097,35.8135],[29.7123,35.8091],[29.7128,35.803],[29.7143,35.8019],[29.7169,35.8058],[29.7191,35.806],[29.721,35.8023],[29.722,35.8027],[29.7223,35.807],[29.7235,35.8052],[29.7258,35.7972],[29.7273,35.7945],[29.7282,35.7969],[29.7295,35.7964],[29.7312,35.7929],[29.7325,35.7924],[29.7334,35.7949],[29.7358,35.7949],[29.7397,35.7924],[29.7416,35.7911],[29.7416,35.7911],[29.7444,35.7996]],[[29.5724,35.9211],[29.5724,35.9232],[29.5724,35.9232],[29.5724,35.9211],[29.5724,35.9201],[29.5724,35.9201],[29.5724,35.9211]],[[29.837,35.908],[29.837,35.9109],[29.837,35.9109],[29.837,35.908],[29.837,35.9065],[29.837,35.9065],[29.837,35.908]],[[29.5779,35.9011],[29.5784,35.9043],[29.5784,35.9043],[29.5779,35.9011],[29.5776,35.8994],[29.5776,35.8994],[29.5779,35.9011]],[[29.5812,35.9015],[29.5823,35.908],[29.5833,35.9103],[29.5844,35.9084],[29.5862,35.9099],[29.5888,35.9147],[29.591,35.9153],[29.5928,35.9117],[29.5926,35.9134],[29.5903,35.9203],[29.5906,35.9224],[29.5937,35.9196],[29.595,35.9151],[29.5945,35.9088],[29.5908,35.9038],[29.5841,35.9001],[29.5807,35.8982],[29.5807,35.8982],[29.5812,35.9015]]],[[[29.2075,35.5489],[29.2096,35.55],[29.2096,35.55],[29.2075,35.5489],[29.2064,35.5484],[29.2064,35.5484],[29.2075,35.5489]]],[[[29.2153,35.4612],[29.2114,35.468],[29.2004,35.4714],[29.1822,35.4714],[29.1841,35.468],[29.2062,35.4612],[29.2172,35.4578],[29.2172,35.4578],[29.2153,35.4612]]],[[[29.2061,35.4311],[29.2066,35.4338],[29.2066,35.4338],[29.2061,35.4311],[29.2059,35.4297],[29.2059,35.4297],[29.2061,35.4311]]],[[[29.1915,35.4288],[29.192,35.4311],[29.192,35.4311],[29.1915,35.4288],[29.1912,35.4276],[29.1912,35.4276],[29.1915,35.4288]]],[[[29.1839,35.4275],[29.1832,35.4295],[29.1832,35.4295],[29.1839,35.4275],[29.1843,35.4266],[29.1843,35.4266],[29.1839,35.4275]]],[[[29.176,35.4266],[29.1757,35.4287],[29.1757,35.4287],[29.176,35.4266],[29.1761,35.4255],[29.1761,35.4255],[29.176,35.4266]]],[[[29.2714,35.3474],[29.2693,35.3474],[29.2693,35.3474],[29.2714,35.3474],[29.2725,35.3474],[29.2725,35.3474],[29.2714,35.3474]]],[[[29.2764,35.3464],[29.2743,35.3464],[29.2743,35.3464],[29.2764,35.3464],[29.2774,35.3464],[29.2774,35.3464],[29.2764,35.3464]]],[[[29.3628,35.3029],[29.3637,35.3054],[29.3637,35.3054],[29.3628,35.3029],[29.3624,35.3016],[29.3624,35.3016],[29.3628,35.3029]]],[[[29.7057,35.2181],[29.7418,35.226],[29.7771,35.2296],[29.8114,35.2288],[29.8367,35.2341],[29.8528,35.2454],[29.8689,35.2532],[29.8849,35.2577],[29.8767,35.2591],[29.8444,35.2576],[29.8205,35.255],[29.8051,35.2515],[29.7922,35.2459],[29.7818,35.2383],[29.7724,35.2337],[29.7641,35.232],[29.743,35.2298],[29.7091,35.2269],[29.6899,35.2265],[29.6852,35.2284],[29.6801,35.2261],[29.6748,35.2194],[29.676,35.2156],[29.6837,35.2146],[29.6876,35.2141],[29.6876,35.2141],[29.7057,35.2181]]],[[[29.3041,35.1893],[29.3045,35.1919],[29.3045,35.1919],[29.3041,35.1893],[29.3039,35.188],[29.3039,35.188],[29.3041,35.1893]]],[[[29.3211,35.1607],[29.3186,35.1643],[29.3181,35.1692],[29.3196,35.1755],[29.319,35.1752],[29.3163,35.1685],[29.3168,35.1636],[29.3205,35.1605],[29.3224,35.1589],[29.3224,35.1589],[29.3211,35.1607]]],[[[29.2872,35.1487],[29.2893,35.1513],[29.2886,35.1526],[29.2851,35.1526],[29.284,35.1513],[29.2854,35.1487],[29.2861,35.1474],[29.2861,35.1474],[29.2872,35.1487]]],[[[29.2824,35.1371],[29.2813,35.1395],[29.2813,35.1395],[29.2824,35.1371],[29.283,35.1359],[29.283,35.1359],[29.2824,35.1371]]],[[[29.2161,35.0818],[29.2096,35.0839],[29.2096,35.0839],[29.2161,35.0818],[29.2193,35.0807],[29.2193,35.0807],[29.2161,35.0818]]],[[[29.0589,35.074],[29.0616,35.0813],[29.0638,35.084],[29.0653,35.0821],[29.0667,35.0823],[29.0678,35.0847],[29.0697,35.0837],[29.0722,35.0792],[29.0752,35.0806],[29.0789,35.0878],[29.0815,35.09],[29.0831,35.0873],[29.0839,35.0903],[29.0838,35.0992],[29.0856,35.1054],[29.0893,35.1088],[29.0932,35.1107],[29.0974,35.1111],[29.1005,35.1092],[29.1026,35.1053],[29.1039,35.1054],[29.1044,35.1096],[29.1055,35.1106],[29.107,35.1084],[29.1091,35.1092],[29.1117,35.113],[29.119,35.1156],[29.131,35.1171],[29.1396,35.1203],[29.1448,35.1254],[29.1505,35.1273],[29.1568,35.126],[29.1608,35.127],[29.1625,35.1302],[29.1618,35.1331],[29.1585,35.1357],[29.1547,35.1351],[29.1505,35.1312],[29.1465,35.1297],[29.1427,35.1304],[29.1471,35.1336],[29.1598,35.1394],[29.1713,35.1411],[29.1818,35.1386],[29.186,35.1343],[29.1839,35.1282],[29.1833,35.1264],[29.1844,35.1289],[29.1872,35.1292],[29.1917,35.1275],[29.1926,35.1292],[29.1899,35.1344],[29.1906,35.1374],[29.1945,35.1381],[29.2079,35.1348],[29.2308,35.1275],[29.2451,35.1241],[29.2507,35.1244],[29.2552,35.1269],[29.2583,35.1316],[29.2614,35.1316],[29.2646,35.1269],[29.2681,35.1261],[29.272,35.1292],[29.2741,35.1332],[29.2744,35.1381],[29.2765,35.1407],[29.2806,35.141],[29.2813,35.1437],[29.2789,35.1488],[29.2756,35.1511],[29.2717,35.1507],[29.2706,35.1536],[29.2725,35.1597],[29.2745,35.1606],[29.2765,35.1562],[29.2807,35.1572],[29.287,35.1636],[29.2914,35.1635],[29.2939,35.1569],[29.2958,35.1544],[29.2971,35.156],[29.2967,35.1607],[29.2944,35.1685],[29.2953,35.1803],[29.2995,35.196],[29.3117,35.2103],[29.3321,35.2232],[29.3529,35.2316],[29.3742,35.2355],[29.3847,35.2404],[29.3845,35.2465],[29.3884,35.2526],[29.3967,35.2589],[29.3968,35.2672],[29.3889,35.2777],[29.3804,35.2836],[29.3716,35.2852],[29.3645,35.2901],[29.3592,35.2984],[29.3574,35.3053],[29.3591,35.3107],[29.3568,35.3161],[29.3505,35.3215],[29.3396,35.3213],[29.3239,35.3156],[29.3164,35.3151],[29.3169,35.3199],[29.312,35.3217],[29.3016,35.3206],[29.293,35.3228],[29.2862,35.3284],[29.2786,35.3308],[29.2703,35.33],[29.2629,35.3328],[29.2566,35.3391],[29.2566,35.3438],[29.2629,35.3468],[29.2654,35.3502],[29.264,35.3539],[29.2588,35.3553],[29.2498,35.3546],[29.2436,35.3572],[29.2403,35.3631],[29.2405,35.3672],[29.2442,35.3693],[29.2469,35.3744],[29.2486,35.3826],[29.2334,35.3944],[29.2011,35.4097],[29.1782,35.4184],[29.1649,35.4204],[29.1612,35.4224],[29.1673,35.4245],[29.1704,35.4279],[29.1707,35.4326],[29.1712,35.4335],[29.172,35.4307],[29.1737,35.4305],[29.1763,35.433],[29.1805,35.4328],[29.1862,35.4302],[29.1912,35.4298],[29.1953,35.4319],[29.1964,35.4354],[29.1943,35.4405],[29.1914,35.4417],[29.1877,35.4391],[29.1844,35.4393],[29.1813,35.4423],[29.1792,35.4419],[29.1781,35.4381],[29.1763,35.4386],[29.1737,35.4433],[29.171,35.4451],[29.1682,35.4438],[29.1666,35.4397],[29.1663,35.4328],[29.1635,35.4301],[29.1583,35.4316],[29.1552,35.4306],[29.1541,35.4269],[29.1528,35.4264],[29.1513,35.4291],[29.1495,35.429],[29.1474,35.426],[29.1456,35.4258],[29.144,35.4281],[29.1432,35.4273],[29.1432,35.4232],[29.1427,35.4226],[29.1416,35.4256],[29.1409,35.4256],[29.1404,35.4227],[29.1393,35.4225],[29.1378,35.425],[29.1343,35.4258],[29.1288,35.4249],[29.1278,35.43],[29.1313,35.4409],[29.126,35.4493],[29.1121,35.4549],[29.1145,35.4609],[29.1333,35.4672],[29.1348,35.4716],[29.1189,35.4744],[29.1096,35.4772],[29.1071,35.4803],[29.1082,35.4828],[29.1129,35.4849],[29.1147,35.4872],[29.1136,35.4899],[29.0949,35.4894],[29.0587,35.4857],[29.0432,35.4862],[29.0485,35.4909],[29.051,35.497],[29.0507,35.5045],[29.0539,35.5046],[29.0607,35.4972],[29.0675,35.4931],[29.0742,35.4923],[29.0759,35.4969],[29.0725,35.507],[29.0728,35.5139],[29.0767,35.5177],[29.082,35.5195],[29.0888,35.5192],[29.0985,35.5157],[29.111,35.509],[29.1292,35.5086],[29.1531,35.5144],[29.1721,35.5174],[29.1862,35.5176],[29.1951,35.5191],[29.199,35.522],[29.199,35.5276],[29.1951,35.5359],[29.1963,35.5396],[29.2026,35.5385],[29.2071,35.5403],[29.21,35.545],[29.2087,35.5466],[29.2032,35.5449],[29.2016,35.5455],[29.2037,35.5482],[29.203,35.55],[29.1995,35.5511],[29.1984,35.5526],[29.1999,35.5547],[29.2204,35.5586],[29.2599,35.5643],[29.2933,35.5773],[29.3204,35.5977],[29.3369,35.6117],[29.3429,35.6195],[29.3434,35.6263],[29.3384,35.6321],[29.3273,35.6391],[29.3102,35.6473],[29.3009,35.6535],[29.2996,35.6578],[29.2908,35.6656],[29.2747,35.6771],[29.2665,35.6919],[29.2662,35.7102],[29.2636,35.7235],[29.2588,35.7318],[29.2596,35.737],[29.2661,35.7391],[29.2657,35.7414],[29.2584,35.744],[29.2544,35.7469],[29.2539,35.75],[29.2549,35.7548],[29.2576,35.7611],[29.2609,35.7639],[29.2648,35.7633],[29.2679,35.7672],[29.27,35.7755],[29.2689,35.7808],[29.2644,35.7829],[29.2637,35.7868],[29.2666,35.7925],[29.2632,35.8],[29.2533,35.8093],[29.2375,35.8179],[29.2156,35.8258],[29.1979,35.835],[29.1844,35.8456],[29.1721,35.8528],[29.1612,35.8565],[29.1557,35.8598],[29.1556,35.8627],[29.1481,35.8654],[29.133,35.8679],[29.1234,35.8716],[29.1191,35.8763],[29.1167,35.8817],[29.1164,35.888],[29.1131,35.8909],[29.1069,35.8904],[29.1053,35.8945],[29.1082,35.9034],[29.1064,35.9076],[29.0998,35.9071],[29.0968,35.9089],[29.0973,35.913],[29.0952,35.9175],[29.0903,35.9222],[29.0892,35.9249],[29.0919,35.9256],[29.0979,35.9215],[29.1073,35.9128],[29.1175,35.9086],[29.1284,35.9091],[29.1381,35.9076],[29.1464,35.9042],[29.1557,35.9035],[29.1662,35.9056],[29.1805,35.9119],[29.1987,35.9225],[29.219,35.929],[29.2414,35.9315],[29.2523,35.9366],[29.2516,35.9445],[29.2475,35.9492],[29.24,35.9508],[29.239,35.9534],[29.2447,35.9571],[29.2439,35.9605],[29.2368,35.9636],[29.2334,35.9673],[29.2337,35.9716],[29.2326,35.9742],[29.23,35.9751],[29.2298,35.976],[29.2321,35.9771],[29.2289,35.9765],[29.2204,35.9742],[29.2164,35.9753],[29.2171,35.9796],[29.2103,35.9864],[29.1962,35.9955],[29.1779,35.9979],[29.1555,35.9936],[29.144,35.9936],[29.1435,35.9979],[29.1074,35.9999],[29.0358,35.9996],[29,35.8854],[29,35.6573],[29.002,35.5408],[29.0059,35.5359],[29.0172,35.5374],[29.0359,35.5451],[29.0482,35.5486],[29.0539,35.5479],[29.0563,35.5425],[29.0552,35.5326],[29.0583,35.5266],[29.0656,35.5245],[29.0666,35.5216],[29.0615,35.5179],[29.0555,35.5168],[29.0487,35.5183],[29.0394,35.5175],[29.0276,35.5145],[29.0256,35.5109],[29.0335,35.5068],[29.0352,35.5033],[29.0308,35.5005],[29.0239,35.5001],[29.0146,35.5019],[29.0133,35.4987],[29.0202,35.4902],[29.0177,35.4836],[29.0059,35.4789],[29.0001,35.4738],[29.0004,35.4681],[29.0021,35.4662],[29.0052,35.468],[29.0084,35.4669],[29.0116,35.4629],[29.0099,35.4609],[29.0033,35.4609],[29,35.3844],[29,35.2313],[29.0021,35.1539],[29.0062,35.1524],[29.0063,35.1516],[29.0024,35.1515],[29.0018,35.1494],[29.0045,35.1453],[29.0045,35.1435],[29.0018,35.1439],[29.0004,35.1426],[29.0001,35.1396],[29.0051,35.1349],[29.0152,35.1286],[29.0176,35.1257],[29.0125,35.1261],[29.0104,35.1239],[29.0115,35.119],[29.0155,35.116],[29.0225,35.1147],[29.0251,35.1125],[29.0233,35.1094],[29.0169,35.1107],[29.006,35.1163],[29.0004,35.1153],[29.0001,35.1075],[29.009,35.0975],[29.0269,35.0853],[29.04,35.0799],[29.0481,35.0812],[29.0535,35.0789],[29.0562,35.0732],[29.0575,35.0703],[29.0575,35.0703],[29.0589,35.074]],[[29.0858,35.4741],[29.0835,35.4758],[29.0835,35.4758],[29.0858,35.4741],[29.087,35.4733],[29.087,35.4733],[29.0858,35.4741]],[[29.0951,35.4743],[29.0966,35.476],[29.0966,35.476],[29.0951,35.4743],[29.0943,35.4734],[29.0943,35.4734],[29.0951,35.4743]],[[29.054,35.4593],[29.0505,35.4646],[29.0505,35.4691],[29.054,35.4729],[29.0596,35.4717],[29.0675,35.4654],[29.0753,35.4622],[29.0832,35.4621],[29.0793,35.4607],[29.0636,35.458],[29.0557,35.4567],[29.0557,35.4567],[29.054,35.4593]],[[29.0088,35.4435],[29.0045,35.4468],[29.0045,35.4468],[29.0088,35.4435],[29.0109,35.4418],[29.0109,35.4418],[29.0088,35.4435]],[[29.0542,35.4428],[29.0531,35.4455],[29.0531,35.4455],[29.0542,35.4428],[29.0547,35.4415],[29.0547,35.4415],[29.0542,35.4428]],[[29.1237,35.4374],[29.1242,35.4404],[29.1263,35.442],[29.13,35.4421],[29.1297,35.4406],[29.1255,35.4375],[29.1234,35.4359],[29.1234,35.4359],[29.1237,35.4374]],[[29.1942,35.4361],[29.1922,35.4367],[29.1922,35.4367],[29.1942,35.4361],[29.1953,35.4358],[29.1953,35.4358],[29.1942,35.4361]],[[29.0573,35.4349],[29.0542,35.4378],[29.0539,35.4394],[29.0565,35.4399],[29.0581,35.4385],[29.0586,35.4352],[29.0589,35.4335],[29.0589,35.4335],[29.0573,35.4349]],[[29.1059,35.4282],[29.1104,35.4299],[29.1104,35.4299],[29.1059,35.4282],[29.1036,35.4273],[29.1036,35.4273],[29.1059,35.4282]],[[29.1547,35.4192],[29.1547,35.4221],[29.1547,35.4221],[29.1547,35.4192],[29.1547,35.4177],[29.1547,35.4177],[29.1547,35.4192]],[[29.144,35.4012],[29.1456,35.4029],[29.1456,35.4029],[29.144,35.4012],[29.1432,35.4003],[29.1432,35.4003],[29.144,35.4012]],[[29.1529,35.387],[29.1492,35.3884],[29.1492,35.3884],[29.1529,35.387],[29.1547,35.3863],[29.1547,35.3863],[29.1529,35.387]],[[29.1458,35.3788],[29.1406,35.3808],[29.1406,35.3808],[29.1458,35.3788],[29.1484,35.3778],[29.1484,35.3778],[29.1458,35.3788]],[[29.2305,35.3788],[29.23,35.3819],[29.23,35.3819],[29.2305,35.3788],[29.2307,35.3773],[29.2307,35.3773],[29.2305,35.3788]],[[29.1576,35.3493],[29.1383,35.3579],[29.1241,35.3661],[29.115,35.3738],[29.1236,35.3751],[29.1499,35.3702],[29.1683,35.3697],[29.1789,35.3736],[29.1797,35.3769],[29.1706,35.3798],[29.1646,35.3834],[29.1616,35.3879],[29.1666,35.3878],[29.1795,35.3831],[29.188,35.3782],[29.1922,35.3729],[29.1883,35.3682],[29.1763,35.3641],[29.1733,35.3586],[29.1793,35.3518],[29.1785,35.3475],[29.171,35.3458],[29.1672,35.3449],[29.1672,35.3449],[29.1576,35.3493]],[[29.2836,35.3221],[29.2831,35.3242],[29.2831,35.3242],[29.2836,35.3221],[29.2839,35.321],[29.2839,35.321],[29.2836,35.3221]],[[29.2867,35.1785],[29.2862,35.1816],[29.2862,35.1816],[29.2867,35.1785],[29.287,35.1769],[29.287,35.1769],[29.2867,35.1785]],[[29.2668,35.1539],[29.2639,35.1544],[29.2629,35.1562],[29.2637,35.1591],[29.2651,35.1589],[29.2672,35.1554],[29.2682,35.1536],[29.2682,35.1536],[29.2668,35.1539]],[[29.0237,35.1491],[29.0222,35.1505],[29.0222,35.1505],[29.0237,35.1491],[29.0245,35.1484],[29.0245,35.1484],[29.0237,35.1491]],[[29.1242,35.1461],[29.1258,35.1483],[29.1258,35.1483],[29.1242,35.1461],[29.1234,35.145],[29.1234,35.145],[29.1242,35.1461]],[[29.0169,35.1431],[29.0143,35.1456],[29.0143,35.1456],[29.0169,35.1431],[29.0182,35.1418],[29.0182,35.1418],[29.0169,35.1431]],[[29.2563,35.1388],[29.2552,35.142],[29.2552,35.142],[29.2563,35.1388],[29.2568,35.1372],[29.2568,35.1372],[29.2563,35.1388]],[[29.2596,35.135],[29.2592,35.1371],[29.2592,35.1371],[29.2596,35.135],[29.2599,35.1339],[29.2599,35.1339],[29.2596,35.135]]],[[[29.0242,35.0707],[29.0223,35.0735],[29.0223,35.0735],[29.0242,35.0707],[29.0251,35.0693],[29.0251,35.0693],[29.0242,35.0707]]],[[[29.0104,35.0682],[29.0083,35.0682],[29.0083,35.0682],[29.0104,35.0682],[29.0115,35.0682],[29.0115,35.0682],[29.0104,35.0682]]],[[[29.0145,35.0705],[29.0142,35.0749],[29.0154,35.0751],[29.018,35.0708],[29.0193,35.071],[29.0193,35.0759],[29.0218,35.0792],[29.0269,35.0809],[29.0264,35.0835],[29.0203,35.0867],[29.0167,35.0863],[29.0156,35.082],[29.0125,35.0824],[29.0073,35.0875],[29.0037,35.0859],[29.0017,35.0776],[29.0042,35.0721],[29.0111,35.0695],[29.0146,35.0682],[29.0146,35.0682],[29.0145,35.0705]],[[29.0076,35.0832],[29.0071,35.0854],[29.0071,35.0854],[29.0076,35.0832],[29.0078,35.0821],[29.0078,35.0821],[29.0076,35.0832]],[[29.0079,35.0795],[29.0058,35.0836],[29.0058,35.0836],[29.0079,35.0795],[29.0089,35.0775],[29.0089,35.0775],[29.0079,35.0795]]],[[[29.2476,35.0607],[29.2437,35.0622],[29.2437,35.0622],[29.2476,35.0607],[29.2495,35.0599],[29.2495,35.0599],[29.2476,35.0607]]],[[[29.0081,35.0573],[29.003,35.0666],[29.0004,35.0677],[29.0001,35.0604],[29.0027,35.0558],[29.008,35.0537],[29.0106,35.0526],[29.0106,35.0526],[29.0081,35.0573]]],[[[29.0664,35.0542],[29.0744,35.0615],[29.0733,35.0639],[29.063,35.0614],[29.059,35.0578],[29.0613,35.0529],[29.0624,35.0505],[29.0624,35.0505],[29.0664,35.0542]]],[[[29.2131,35.0186],[29.2228,35.034],[29.2216,35.0382],[29.2095,35.0311],[29.2047,35.0234],[29.2071,35.0151],[29.2083,35.0109],[29.2083,35.0109],[29.2131,35.0186]]]]}},{"type":"Feature","properties":{"depth":3000,"kind":"isobath"},"geometry":{"type":"MultiLineString","coordinates":[[[29.7196,35.7943],[29.7195,35.7954],[29.7194,35.7975],[29.7194,35.7975],[29.7195,35.7954],[29.7196,35.7943]],[[29.7214,35.7922],[29.7214,35.7933],[29.7214,35.7956],[29.7214,35.7956],[29.7214,35.7933],[29.7214,35.7922]],[[29.838,35.9924],[29.8333,35.993],[29.824,35.9941],[29.8146,35.9932],[29.8052,35.9903],[29.795,35.9904],[29.7841,35.9936],[29.7588,35.9875],[29.7193,35.9722],[29.6901,35.963],[29.6714,35.9601],[29.6602,35.9568],[29.6565,35.9531],[29.644,35.9481],[29.6227,35.9419],[29.6089,35.9398],[29.6026,35.9418],[29.5979,35.9381],[29.5948,35.9287],[29.5896,35.926],[29.5823,35.93],[29.5781,35.9301],[29.5771,35.9263],[29.5763,35.9267],[29.5758,35.9312],[29.5726,35.9297],[29.5668,35.922],[29.5658,35.9179],[29.5695,35.9174],[29.5717,35.9147],[29.5721,35.9099],[29.5656,35.9042],[29.5519,35.8976],[29.5491,35.8922],[29.5572,35.888],[29.5552,35.8821],[29.5431,35.8744],[29.5372,35.867],[29.5378,35.86],[29.5422,35.8551],[29.5505,35.8523],[29.5628,35.8527],[29.5789,35.8563],[29.5867,35.8556],[29.5862,35.8505],[29.5898,35.8507],[29.5977,35.8562],[29.6034,35.8573],[29.6071,35.8543],[29.6123,35.8539],[29.619,35.8562],[29.6242,35.8558],[29.6279,35.8526],[29.6367,35.8504],[29.6508,35.8491],[29.657,35.8451],[29.6555,35.8387],[29.6571,35.8371],[29.6618,35.8406],[29.6662,35.8392],[29.6703,35.8331],[29.6732,35.8314],[29.6747,35.8342],[29.6751,35.8333],[29.6744,35.8289],[29.6767,35.8267],[29.6822,35.8269],[29.6854,35.8256],[29.6865,35.8228],[29.6878,35.8225],[29.6893,35.8246],[29.6906,35.8229],[29.6917,35.8172],[29.6933,35.8166],[29.6954,35.8213],[29.6972,35.8203],[29.6987,35.8136],[29.7003,35.812],[29.7018,35.8156],[29.705,35.8161],[29.7097,35.8135],[29.7123,35.8091],[29.7128,35.803],[29.7143,35.8019],[29.7169,35.8058],[29.7191,35.806],[29.721,35.8023],[29.722,35.8027],[29.7223,35.807],[29.7235,35.8052],[29.7258,35.7972],[29.7273,35.7945],[29.7282,35.7969],[29.7295,35.7964],[29.7312,35.7929],[29.7325,35.7924],[29.7334,35.7949],[29.7358,35.7949],[29.7397,35.7924],[29.7416,35.7911],[29.7416,35.7911],[29.7444,35.7996],[29.7499,35.8167],[29.7625,35.8343],[29.7823,35.8524],[29.7985,35.8624],[29.811,35.8642],[29.8209,35.8734],[29.8282,35.89],[29.8409,35.9089],[29.8591,35.93],[29.8779,35.9428],[29.8972,35.9471],[29.9123,35.9487],[29.9232,35.9476],[29.9333,35.9441],[29.9427,35.9382],[29.9573,35.9373],[29.9771,35.9416],[29.987,35.9437]],[[29.5724,35.9201],[29.5724,35.9211],[29.5724,35.9232],[29.5724,35.9232],[29.5724,35.9211],[29.5724,35.9201]],[[29.837,35.9065],[29.837,35.908],[29.837,35.9109],[29.837,35.9109],[29.837,35.908],[29.837,35.9065]],[[29.5776,35.8994],[29.5779,35.9011],[29.5784,35.9043],[29.5784,35.9043],[29.5779,35.9011],[29.5776,35.8994]],[[29.5807,35.8982],[29.5812,35.9015],[29.5823,35.908],[29.5833,35.9103],[29.5844,35.9084],[29.5862,35.9099],[29.5888,35.9147],[29.591,35.9153],[29.5928,35.9117],[29.5926,35.9134],[29.5903,35.9203],[29.5906,35.9224],[29.5937,35.9196],[29.595,35.9151],[29.5945,35.9088],[29.5908,35.9038],[29.5841,35.9001],[29.5807,35.8982]],[[29.2064,35.5484],[29.2075,35.5489],[29.2096,35.55],[29.2096,35.55],[29.2075,35.5489],[29.2064,35.5484]],[[29.2172,35.4578],[29.2153,35.4612],[29.2114,35.468],[29.2004,35.4714],[29.1822,35.4714],[29.1841,35.468],[29.2062,35.4612],[29.2172,35.4578]],[[29.2059,35.4297],[29.2061,35.4311],[29.2066,35.4338],[29.2066,35.4338],[29.2061,35.4311],[29.2059,35.4297]],[[29.1912,35.4276],[29.1915,35.4288],[29.192,35.4311],[29.192,35.4311],[29.1915,35.4288],[29.1912,35.4276]],[[29.1843,35.4266],[29.1839,35.4275],[29.1832,35.4295],[29.1832,35.4295],[29.1839,35.4275],[29.1843,35.4266]],[[29.1761,35.4255],[29.176,35.4266],[29.1757,35.4287],[29.1757,35.4287],[29.176,35.4266],[29.1761,35.4255]],[[29.2725,35.3474],[29.2714,35.3474],[29.2693,35.3474],[29.2693,35.3474],[29.2714,35.3474],[29.2725,35.3474]],[[29.2774,35.3464],[29.2764,35.3464],[29.2743,35.3464],[29.2743,35.3464],[29.2764,35.3464],[29.2774,35.3464]],[[29.3624,35.3016],[29.3628,35.3029],[29.3637,35.3054],[29.3637,35.3054],[29.3628,35.3029],[29.3624,35.3016]],[[29.6876,35.2141],[29.7057,35.2181],[29.7418,35.226],[29.7771,35.2296],[29.8114,35.2288],[29.8367,35.2341],[29.8528,35.2454],[29.8689,35.2532],[29.8849,35.2577],[29.8767,35.2591],[29.8444,35.2576],[29.8205,35.255],[29.8051,35.2515],[29.7922,35.2459],[29.7818,35.2383],[29.7724,35.2337],[29.7641,35.232],[29.743,35.2298],[29.7091,35.2269],[29.6899,35.2265],[29.6852,35.2284],[29.6801,35.2261],[29.6748,35.2194],[29.676,35.2156],[29.6837,35.2146],[29.6876,35.2141]],[[29.3039,35.188],[29.3041,35.1893],[29.3045,35.1919],[29.3045,35.1919],[29.3041,35.1893],[29.3039,35.188]],[[29.3224,35.1589],[29.3211,35.1607],[29.3186,35.1643],[29.3181,35.1692],[29.3196,35.1755],[29.319,35.1752],[29.3163,35.1685],[29.3168,35.1636],[29.3205,35.1605],[29.3224,35.1589]],[[29.2861,35.1474],[29.2872,35.1487],[29.2893,35.1513],[29.2886,35.1526],[29.2851,35.1526],[29.284,35.1513],[29.2854,35.1487],[29.2861,35.1474]],[[29.283,35.1359],[29.2824,35.1371],[29.2813,35.1395],[29.2813,35.1395],[29.2824,35.1371],[29.283,35.1359]],[[29.2193,35.0807],[29.2161,35.0818],[29.2096,35.0839],[29.2096,35.0839],[29.2161,35.0818],[29.2193,35.0807]],[[29.0078,35.5335],[29.0172,35.5374],[29.0359,35.5451],[29.0482,35.5486],[29.0539,35.5479],[29.0563,35.5425],[29.0552,35.5326],[29.0583,35.5266],[29.0656,35.5245],[29.0666,35.5216],[29.0615,35.5179],[29.0555,35.5168],[29.0487,35.5183],[29.0394,35.5175],[29.0276,35.5145],[29.0256,35.5109],[29.0335,35.5068],[29.0352,35.5033],[29.0308,35.5005],[29.0239,35.5001],[29.0146,35.5019],[29.0133,35.4987],[29.0202,35.4902],[29.0236,35.4859]],[[29.0005,35.4653],[29.0021,35.4662],[29.0052,35.468],[29.0084,35.4669],[29.0116,35.4629],[29.0132,35.4609]],[[29.0082,35.1516],[29.0063,35.1516],[29.0024,35.1515],[29.0018,35.1494],[29.0045,35.1453],[29.0045,35.1435],[29.0018,35.1439],[29.0005,35.1442]],[[29.0202,35.1255],[29.0176,35.1257],[29.0125,35.1261],[29.0104,35.1239],[29.0115,35.119],[29.0155,35.116],[29.0225,35.1147],[29.0251,35.1125],[29.0233,35.1094],[29.0169,35.1107],[29.006,35.1163],[29.0005,35.1192]],[[29.0359,35.0792],[29.04,35.0799],[29.0481,35.0812],[29.0535,35.0789],[29.0562,35.0732],[29.0575,35.0703],[29.0575,35.0703],[29.0589,35.074],[29.0616,35.0813],[29.0638,35.084],[29.0653,35.0821],[29.0667,35.0823],[29.0678,35.0847],[29.0697,35.0837],[29.0722,35.0792],[29.0752,35.0806],[29.0789,35.0878],[29.0815,35.09],[29.0831,35.0873],[29.0839,35.0903],[29.0838,35.0992],[29.0856,35.1054],[29.0893,35.1088],[29.0932,35.1107],[29.0974,35.1111],[29.1005,35.1092],[29.1026,35.1053],[29.1039,35.1054],[29.1044,35.1096],[29.1055,35.1106],[29.107,35.1084],[29.1091,35.1092],[29.1117,35.113],[29.119,35.1156],[29.131,35.1171],[29.1396,35.1203],[29.1448,35.1254],[29.1505,35.1273],[29.1568,35.126],[29.1608,35.127],[29.1625,35.1302],[29.1618,35.1331],[29.1585,35.1357],[29.1547,35.1351],[29.1505,35.1312],[29.1465,35.1297],[29.1427,35.1304],[29.1471,35.1336],[29.1598,35.1394],[29.1713,35.1411],[29.1818,35.1386],[29.186,35.1343],[29.1839,35.1282],[29.1833,35.1264],[29.1844,35.1289],[29.1872,35.1292],[29.1917,35.1275],[29.1926,35.1292],[29.1899,35.1344],[29.1906,35.1374],[29.1945,35.1381],[29.2079,35.1348],[29.2308,35.1275],[29.2451,35.1241],[29.2507,35.1244],[29.2552,35.1269],[29.2583,35.1316],[29.2614,35.1316],[29.2646,35.1269],[29.2681,35.1261],[29.272,35.1292],[29.2741,35.1332],[29.2744,35.1381],[29.2765,35.1407],[29.2806,35.141],[29.2813,35.1437],[29.2789,35.1488],[29.2756,35.1511],[29.2717,35.1507],[29.2706,35.1536],[29.2725,35.1597],[29.2745,35.1606],[29.2765,35.1562],[29.2807,35.1572],[29.287,35.1636],[29.2914,35.1635],[29.2939,35.1569],[29.2958,35.1544],[29.2971,35.156],[29.2967,35.1607],[29.2944,35.1685],[29.2953,35.1803],[29.2995,35.196],[29.3117,35.2103],[29.3321,35.2232],[29.3529,35.2316],[29.3742,35.2355],[29.3847,35.2404],[29.3845,35.2465],[29.3884,35.2526],[29.3967,35.2589],[29.3968,35.2672],[29.3889,35.2777],[29.3804,35.2836],[29.3716,35.2852],[29.3645,35.2901],[29.3592,35.2984],[29.3574,35.3053],[29.3591,35.3107],[29.3568,35.3161],[29.3505,35.3215],[29.3396,35.3213],[29.3239,35.3156],[29.3164,35.3151],[29.3169,35.3199],[29.312,35.3217],[29.3016,35.3206],[29.293,35.3228],[29.2862,35.3284],[29.2786,35.3308],[29.2703,35.33],[29.2629,35.3328],[29.2566,35.3391],[29.2566,35.3438],[29.2629,35.3468],[29.2654,35.3502],[29.264,35.3539],[29.2588,35.3553],[29.2498,35.3546],[29.2436,35.3572],[29.2403,35.3631],[29.2405,35.3672],[29.2442,35.3693],[29.2469,35.3744],[29.2486,35.3826],[29.2334,35.3944],[29.2011,35.4097],[29.1782,35.4184],[29.1649,35.4204],[29.1612,35.4224],[29.1673,35.4245],[29.1704,35.4279],[29.1707,35.4326],[29.1712,35.4335],[29.172,35.4307],[29.1737,35.4305],[29.1763,35.433],[29.1805,35.4328],[29.1862,35.4302],[29.1912,35.4298],[29.1953,35.4319],[29.1964,35.4354],[29.1943,35.4405],[29.1914,35.4417],[29.1877,35.4391],[29.1844,35.4393],[29.1813,35.4423],[29.1792,35.4419],[29.1781,35.4381],[29.1763,35.4386],[29.1737,35.4433],[29.171,35.4451],[29.1682,35.4438],[29.1666,35.4397],[29.1663,35.4328],[29.1635,35.4301],[29.1583,35.4316],[29.1552,35.4306],[29.1541,35.4269],[29.1528,35.4264],[29.1513,35.4291],[29.1495,35.429],[29.1474,35.426],[29.1456,35.4258],[29.144,35.4281],[29.1432,35.4273],[29.1432,35.4232],[29.1427,35.4226],[29.1416,35.4256],[29.1409,35.4256],[29.1404,35.4227],[29.1393,35.4225],[29.1378,35.425],[29.1343,35.4258],[29.1288,35.4249],[29.1278,35.43],[29.1313,35.4409],[29.126,35.4493],[29.1121,35.4549],[29.1145,35.4609],[29.1333,35.4672],[29.1348,35.4716],[29.1189,35.4744],[29.1096,35.4772],[29.1071,35.4803],[29.1082,35.4828],[29.1129,35.4849],[29.1147,35.4872],[29.1136,35.4899],[29.0949,35.4894],[29.0587,35.4857],[29.0432,35.4862],[29.0485,35.4909],[29.051,35.497],[29.0507,35.5045],[29.0539,35.5046],[29.0607,35.4972],[29.0675,35.4931],[29.0742,35.4923],[29.0759,35.4969],[29.0725,35.507],[29.0728,35.5139],[29.0767,35.5177],[29.082,35.5195],[29.0888,35.5192],[29.0985,35.5157],[29.111,35.509],[29.1292,35.5086],[29.1531,35.5144],[29.1721,35.5174],[29.1862,35.5176],[29.1951,35.5191],[29.199,35.522],[29.199,35.5276],[29.1951,35.5359],[29.1963,35.5396],[29.2026,35.5385],[29.2071,35.5403],[29.21,35.545],[29.2087,35.5466],[29.2032,35.5449],[29.2016,35.5455],[29.2037,35.5482],[29.203,35.55],[29.1995,35.5511],[29.1984,35.5526],[29.1999,35.5547],[29.2204,35.5586],[29.2599,35.5643],[29.2933,35.5773],[29.3204,35.5977],[29.3369,35.6117],[29.3429,35.6195],[29.3434,35.6263],[29.3384,35.6321],[29.3273,35.6391],[29.3102,35.6473],[29.3009,35.6535],[29.2996,35.6578],[29.2908,35.6656],[29.2747,35.6771],[29.2665,35.6919],[29.2662,35.7102],[29.2636,35.7235],[29.2588,35.7318],[29.2596,35.737],[29.2661,35.7391],[29.2657,35.7414],[29.2584,35.744],[29.2544,35.7469],[29.2539,35.75],[29.2549,35.7548],[29.2576,35.7611],[29.2609,35.7639],[29.2648,35.7633],[29.2679,35.7672],[29.27,35.7755],[29.2689,35.7808],[29.2644,35.7829],[29.2637,35.7868],[29.2666,35.7925],[29.2632,35.8],[29.2533,35.8093],[29.2375,35.8179],[29.2156,35.8258],[29.1979,35.835],[29.1844,35.8456],[29.1721,35.8528],[29.1612,35.8565],[29.1557,35.8598],[29.1556,35.8627],[29.1481,35.8654],[29.133,35.8679],[29.1234,35.8716],[29.1191,35.8763],[29.1167,35.8817],[29.1164,35.888],[29.1131,35.8909],[29.1069,35.8904],[29.1053,35.8945],[29.1082,35.9034],[29.1064,35.9076],[29.0998,35.9071],[29.0968,35.9089],[29.0973,35.913],[29.0952,35.9175],[29.0903,35.9222],[29.0892,35.9249],[29.0919,35.9256],[29.0979,35.9215],[29.1073,35.9128],[29.1175,35.9086],[29.1284,35.9091],[29.1381,35.9076],[29.1464,35.9042],[29.1557,35.9035],[29.1662,35.9056],[29.1805,35.9119],[29.1987,35.9225],[29.219,35.929],[29.2414,35.9315],[29.2523,35.9366],[29.2516,35.9445],[29.2475,35.9492],[29.24,35.9508],[29.239,35.9534],[29.2447,35.9571],[29.2439,35.9605],[29.2368,35.9636],[29.2334,35.9673],[29.2337,35.9716],[29.2326,35.9742],[29.23,35.9751],[29.2298,35.976],[29.2321,35.9771],[29.2289,35.9765],[29.2204,35.9742],[29.2164,35.9753],[29.2171,35.9796],[29.2174,35.9818]],[[29.087,35.4733],[29.0858,35.4741],[29.0835,35.4758],[29.0835,35.4758],[29.0858,35.4741],[29.087,35.4733]],[[29.0943,35.4734],[29.0951,35.4743],[29.0966,35.476],[29.0966,35.476],[29.0951,35.4743],[29.0943,35.4734]],[[29.0557,35.4567],[29.054,35.4593],[29.0505,35.4646],[29.0505,35.4691],[29.054,35.4729],[29.0596,35.4717],[29.0675,35.4654],[29.0753,35.4622],[29.0832,35.4621],[29.0793,35.4607],[29.0636,35.458],[29.0557,35.4567]],[[29.0109,35.4418],[29.0088,35.4435],[29.0045,35.4468],[29.0045,35.4468],[29.0088,35.4435],[29.0109,35.4418]],[[29.0547,35.4415],[29.0542,35.4428],[29.0531,35.4455],[29.0531,35.4455],[29.0542,35.4428],[29.0547,35.4415]],[[29.1234,35.4359],[29.1237,35.4374],[29.1242,35.4404],[29.1263,35.442],[29.13,35.4421],[29.1297,35.4406],[29.1255,35.4375],[29.1234,35.4359]],[[29.1953,35.4358],[29.1942,35.4361],[29.1922,35.4367],[29.1922,35.4367],[29.1942,35.4361],[29.1953,35.4358]],[[29.0589,35.4335],[29.0573,35.4349],[29.0542,35.4378],[29.0539,35.4394],[29.0565,35.4399],[29.0581,35.4385],[29.0586,35.4352],[29.0589,35.4335]],[[29.1036,35.4273],[29.1059,35.4282],[29.1104,35.4299],[29.1104,35.4299],[29.1059,35.4282],[29.1036,35.4273]],[[29.1547,35.4177],[29.1547,35.4192],[29.1547,35.4221],[29.1547,35.4221],[29.1547,35.4192],[29.1547,35.4177]],[[29.1432,35.4003],[29.144,35.4012],[29.1456,35.4029],[29.1456,35.4029],[29.144,35.4012],[29.1432,35.4003]],[[29.1547,35.3863],[29.1529,35.387],[29.1492,35.3884],[29.1492,35.3884],[29.1529,35.387],[29.1547,35.3863]],[[29.1484,35.3778],[29.1458,35.3788],[29.1406,35.3808],[29.1406,35.3808],[29.1458,35.3788],[29.1484,35.3778]],[[29.2307,35.3773],[29.2305,35.3788],[29.23,35.3819],[29.23,35.3819],[29.2305,35.3788],[29.2307,35.3773]],[[29.1672,35.3449],[29.1576,35.3493],[29.1383,35.3579],[29.1241,35.3661],[29.115,35.3738],[29.1236,35.3751],[29.1499,35.3702],[29.1683,35.3697],[29.1789,35.3736],[29.1797,35.3769],[29.1706,35.3798],[29.1646,35.3834],[29.1616,35.3879],[29.1666,35.3878],[29.1795,35.3831],[29.188,35.3782],[29.1922,35.3729],[29.1883,35.3682],[29.1763,35.3641],[29.1733,35.3586],[29.1793,35.3518],[29.1785,35.3475],[29.171,35.3458],[29.1672,35.3449]],[[29.2839,35.321],[29.2836,35.3221],[29.2831,35.3242],[29.2831,35.3242],[29.2836,35.3221],[29.2839,35.321]],[[29.287,35.1769],[29.2867,35.1785],[29.2862,35.1816],[29.2862,35.1816],[29.2867,35.1785],[29.287,35.1769]],[[29.2682,35.1536],[29.2668,35.1539],[29.2639,35.1544],[29.2629,35.1562],[29.2637,35.1591],[29.2651,35.1589],[29.2672,35.1554],[29.2682,35.1536]],[[29.0245,35.1484],[29.0237,35.1491],[29.0222,35.1505],[29.0222,35.1505],[29.0237,35.1491],[29.0245,35.1484]],[[29.1234,35.145],[29.1242,35.1461],[29.1258,35.1483],[29.1258,35.1483],[29.1242,35.1461],[29.1234,35.145]],[[29.0182,35.1418],[29.0169,35.1431],[29.0143,35.1456],[29.0143,35.1456],[29.0169,35.1431],[29.0182,35.1418]],[[29.2568,35.1372],[29.2563,35.1388],[29.2552,35.142],[29.2552,35.142],[29.2563,35.1388],[29.2568,35.1372]],[[29.2599,35.1339],[29.2596,35.135],[29.2592,35.1371],[29.2592,35.1371],[29.2596,35.135],[29.2599,35.1339]],[[29.0251,35.0693],[29.0242,35.0707],[29.0223,35.0735],[29.0223,35.0735],[29.0242,35.0707],[29.0251,35.0693]],[[29.0115,35.0682],[29.0104,35.0682],[29.0083,35.0682],[29.0083,35.0682],[29.0104,35.0682],[29.0115,35.0682]],[[29.0146,35.0682],[29.0145,35.0705],[29.0142,35.0749],[29.0154,35.0751],[29.018,35.0708],[29.0193,35.071],[29.0193,35.0759],[29.0218,35.0792],[29.0269,35.0809],[29.0264,35.0835],[29.0203,35.0867],[29.0167,35.0863],[29.0156,35.082],[29.0125,35.0824],[29.0073,35.0875],[29.0037,35.0859],[29.0017,35.0776],[29.0042,35.0721],[29.0111,35.0695],[29.0146,35.0682]],[[29.0078,35.0821],[29.0076,35.0832],[29.0071,35.0854],[29.0071,35.0854],[29.0076,35.0832],[29.0078,35.0821]],[[29.0089,35.0775],[29.0079,35.0795],[29.0058,35.0836],[29.0058,35.0836],[29.0079,35.0795],[29.0089,35.0775]],[[29.2495,35.0599],[29.2476,35.0607],[29.2437,35.0622],[29.2437,35.0622],[29.2476,35.0607],[29.2495,35.0599]],[[29.0106,35.0526],[29.0106,35.0526],[29.0106,35.0526],[29.0081,35.0573],[29.003,35.0666],[29.0005,35.0713]],[[29.0624,35.0505],[29.0664,35.0542],[29.0744,35.0615],[29.0733,35.0639],[29.063,35.0614],[29.059,35.0578],[29.0613,35.0529],[29.0624,35.0505]],[[29.2083,35.0109],[29.2131,35.0186],[29.2228,35.034],[29.2216,35.0382],[29.2095,35.0311],[29.2047,35.0234],[29.2071,35.0151],[29.2083,35.0109]]]}},{"type":"Feature","properties":{"depth":4000,"kind":"band"},"geometry":{"type":"MultiPolygon","coordinates":[[[[29.0054,35.9805],[29.0149,35.982],[29.0188,35.9859],[29.017,35.9919],[29.0121,35.994],[29.004,35.9921],[29.0002,35.9883],[29.0005,35.9826],[29.0006,35.9797],[29.0006,35.9797],[29.0054,35.9805]]],[[[29.002,35.9511],[29.0045,35.9584],[29.0043,35.961],[29.0014,35.9589],[29.0002,35.9552],[29.0006,35.95],[29.0008,35.9474],[29.0008,35.9474],[29.002,35.9511]]],[[[29.0071,35.8714],[29.0194,35.8841],[29.0242,35.893],[29.0216,35.8981],[29.0245,35.9013],[29.033,35.9029],[29.0295,35.9052],[29.0141,35.9083],[29.0051,35.913],[29.0026,35.9193],[29.0033,35.9248],[29.0073,35.9295],[29.0071,35.9335],[29.0027,35.9368],[29.0006,35.9201],[29.0009,35.8834],[29.001,35.8651],[29.001,35.8651],[29.0071,35.8714]]],[[[29.063,35.8194],[29.0616,35.8218],[29.0616,35.8218],[29.063,35.8194],[29.0637,35.8182],[29.0637,35.8182],[29.063,35.8194]]],[[[29.069,35.8183],[29.0671,35.8205],[29.0671,35.8205],[29.069,35.8183],[29.0699,35.8172],[29.0699,35.8172],[29.069,35.8183]]],[[[29.0837,35.8163],[29.0831,35.8188],[29.0819,35.8188],[29.0802,35.8163],[29.0805,35.8151],[29.0828,35.8151],[29.084,35.8151],[29.084,35.8151],[29.0837,35.8163]]],[[[29.0969,35.8121],[29.0966,35.8147],[29.0966,35.8147],[29.0969,35.8121],[29.097,35.8109],[29.097,35.8109],[29.0969,35.8121]]],[[[29.005,35.7527],[29.0082,35.7572],[29.0128,35.7592],[29.0185,35.7589],[29.0227,35.761],[29.0253,35.7657],[29.028,35.7673],[29.0308,35.7658],[29.0341,35.7716],[29.0381,35.7846],[29.0372,35.7971],[29.0316,35.8091],[29.0288,35.8195],[29.0288,35.8284],[29.0235,35.8367],[29.0129,35.8445],[29.0058,35.8519],[29.0023,35.8589],[29.0012,35.8344],[29.0026,35.7785],[29.0033,35.7505],[29.0033,35.7505],[29.005,35.7527]]]]}},{"type":"Feature","properties":{"depth":4000,"kind":"isobath"},"geometry":{"type":"MultiLineString","coordinates":[[[29.0006,35.9797],[29.0006,35.9797],[29.0006,35.9797],[29.0054,35.9805],[29.0149,35.982],[29.0188,35.9859],[29.017,35.9919],[29.0161,35.995]],[[29.0008,35.9474],[29.0008,35.9474],[29.0008,35.9474],[29.002,35.9511],[29.0045,35.9584],[29.0057,35.962]],[[29.001,35.8651],[29.0071,35.8714],[29.0194,35.8841],[29.0242,35.893],[29.0216,35.8981],[29.0245,35.9013],[29.033,35.9029],[29.0295,35.9052],[29.0141,35.9083],[29.0051,35.913],[29.0026,35.9193],[29.0033,35.9248],[29.0073,35.9295],[29.0071,35.9335],[29.0027,35.9368],[29.0006,35.9201],[29.0009,35.8834],[29.001,35.8651]],[[29.0637,35.8182],[29.063,35.8194],[29.0616,35.8218],[29.0616,35.8218],[29.063,35.8194],[29.0637,35.8182]],[[29.0699,35.8172],[29.069,35.8183],[29.0671,35.8205],[29.0671,35.8205],[29.069,35.8183],[29.0699,35.8172]],[[29.084,35.8151],[29.0837,35.8163],[29.0831,35.8188],[29.0819,35.8188],[29.0802,35.8163],[29.0805,35.8151],[29.0828,35.8151],[29.084,35.8151]],[[29.097,35.8109],[29.0969,35.8121],[29.0966,35.8147],[29.0966,35.8147],[29.0969,35.8121],[29.097,35.8109]],[[29.0033,35.7505],[29.005,35.7527],[29.0082,35.7572],[29.0128,35.7592],[29.0185,35.7589],[29.0227,35.761],[29.0253,35.7657],[29.028,35.7673],[29.0308,35.7658],[29.0341,35.7716],[29.0381,35.7846],[29.0372,35.7971],[29.0316,35.8091],[29.0288,35.8195],[29.0288,35.8284],[29.0235,35.8367],[29.0129,35.8445],[29.0058,35.8519],[29.0023,35.8589],[29.0012,35.8344],[29.0026,35.7785],[29.0033,35.7505]]]}}]}